<?xml version="1.0" encoding="UTF-8"?><gpx creator="Health" xsi:schemaLocation="http://www.topografix.com/GPX/1/0 http://www.topografix.com/GPX/1/0/gpx.xsd" version="1.0" xmlns="http://www.topografix.com/GPX/1/0" xmlns:xsi="http://www.w3.org/2001/XMLSchema-instance"><metadata><time>2023-08-28T06:38:07.000Z</time></metadata><trk><type>Ходьба на улице</type><extensions><totalTime>6317.0</totalTime><cumulativeDecrease>-0.10000000149011612</cumulativeDecrease><cumulativeClimb>-0.10000000149011612</cumulativeClimb><totalDistance>5570.0</totalDistance></extensions><trkseg><trkpt lat="52.54793488616422" lon="13.45094577038288"><time>2023-08-28T06:38:07.000Z</time></trkpt><trkpt lat="52.54785176121949" lon="13.45100933459881"><time>2023-08-28T06:38:14.000Z</time></trkpt><trkpt lat="52.5478881215131" lon="13.450938737596891"><time>2023-08-28T06:38:18.000Z</time></trkpt><trkpt lat="52.5482126803257" lon="13.45144893735575"><time>2023-08-28T07:24:11.000Z</time></trkpt><trkpt lat="52.54825678098339" lon="13.45135218668321"><time>2023-08-28T07:24:20.000Z</time></trkpt><trkpt lat="52.54823066646883" lon="13.451211391547787"><time>2023-08-28T07:24:32.000Z</time></trkpt><trkpt lat="52.54826860064991" lon="13.451281930513149"><time>2023-08-28T07:24:34.000Z</time></trkpt><trkpt lat="52.548188281505425" lon="13.451201403536789"><time>2023-08-28T07:24:45.000Z</time></trkpt><trkpt lat="52.54826217681959" lon="13.45130559715371"><time>2023-08-28T07:24:58.000Z</time></trkpt><trkpt lat="52.54823636962105" lon="13.451171615562854"><time>2023-08-28T07:25:13.000Z</time></trkpt><trkpt lat="52.54821303556566" lon="13.451168424848492"><time>2023-08-28T07:25:25.000Z</time></trkpt><trkpt lat="52.54801623871153" lon="13.450649516021452"><time>2023-08-28T07:25:56.000Z</time></trkpt><trkpt lat="52.5478790193027" lon="13.449941163857767"><time>2023-08-28T07:26:35.000Z</time></trkpt><trkpt lat="52.54765249398526" lon="13.449655160945833"><time>2023-08-28T07:26:57.000Z</time></trkpt><trkpt lat="52.54757511018308" lon="13.449612167696928"><time>2023-08-28T07:27:03.000Z</time></trkpt><trkpt lat="52.54742883509968" lon="13.449686101221426"><time>2023-08-28T07:27:13.000Z</time></trkpt><trkpt lat="52.5470199183643" lon="13.450159955879014"><time>2023-08-28T07:28:04.000Z</time></trkpt><trkpt lat="52.546999583661425" lon="13.450233042061985"><time>2023-08-28T07:28:16.000Z</time></trkpt><trkpt lat="52.54690449623604" lon="13.450141807601279"><time>2023-08-28T07:28:39.000Z</time></trkpt><trkpt lat="52.546771861560316" lon="13.449911156627278"><time>2023-08-28T07:28:59.000Z</time></trkpt><trkpt lat="52.54653505361671" lon="13.449752321187377"><time>2023-08-28T07:29:41.000Z</time></trkpt><trkpt lat="52.54647438888341" lon="13.449838307419025"><time>2023-08-28T07:29:51.000Z</time></trkpt><trkpt lat="52.54649445246204" lon="13.450044697960875"><time>2023-08-28T07:30:12.000Z</time></trkpt><trkpt lat="52.546442811520336" lon="13.450263079199658"><time>2023-08-28T07:30:23.000Z</time></trkpt><trkpt lat="52.54637927207595" lon="13.450292905067545"><time>2023-08-28T07:30:28.000Z</time></trkpt><trkpt lat="52.546270083626155" lon="13.45019752914362"><time>2023-08-28T07:30:39.000Z</time></trkpt><trkpt lat="52.54592233735657" lon="13.450445763347442"><time>2023-08-28T07:31:07.000Z</time></trkpt><trkpt lat="52.5450672343333" lon="13.449662771131836"><time>2023-08-28T07:32:54.000Z</time></trkpt><trkpt lat="52.54496617455556" lon="13.449799807292408"><time>2023-08-28T07:33:08.000Z</time></trkpt><trkpt lat="52.54443906239876" lon="13.451065235917016"><time>2023-08-28T07:34:55.000Z</time></trkpt><trkpt lat="52.544397711105105" lon="13.450973915513428"><time>2023-08-28T07:35:14.000Z</time></trkpt><trkpt lat="52.544456138282314" lon="13.451027793974323"><time>2023-08-28T07:35:36.000Z</time></trkpt><trkpt lat="52.5442830987266" lon="13.450828461792865"><time>2023-08-28T07:36:35.000Z</time></trkpt><trkpt lat="52.543858349442026" lon="13.450461161514493"><time>2023-08-28T07:37:29.000Z</time></trkpt><trkpt lat="52.54375011847394" lon="13.450414530531061"><time>2023-08-28T07:37:59.000Z</time></trkpt><trkpt lat="52.543652271549995" lon="13.450552519990511"><time>2023-08-28T07:38:13.000Z</time></trkpt><trkpt lat="52.543466931766574" lon="13.45100793826153"><time>2023-08-28T07:38:43.000Z</time></trkpt><trkpt lat="52.54295906127499" lon="13.45256622372758"><time>2023-08-28T07:40:19.000Z</time></trkpt><trkpt lat="52.5428099166317" lon="13.452898758375893"><time>2023-08-28T07:40:40.000Z</time></trkpt><trkpt lat="52.54257206186491" lon="13.453581002131454"><time>2023-08-28T07:41:22.000Z</time></trkpt><trkpt lat="52.54230134744467" lon="13.454095279278304"><time>2023-08-28T07:41:59.000Z</time></trkpt><trkpt lat="52.542002580077046" lon="13.454549361814667"><time>2023-08-28T07:42:36.000Z</time></trkpt><trkpt lat="52.54184139675621" lon="13.45441786789806"><time>2023-08-28T07:43:26.000Z</time></trkpt><trkpt lat="52.54179298338427" lon="13.45429656636177"><time>2023-08-28T07:43:34.000Z</time></trkpt><trkpt lat="52.541814882781544" lon="13.454146652847806"><time>2023-08-28T07:43:42.000Z</time></trkpt><trkpt lat="52.54197769008386" lon="13.453761840186845"><time>2023-08-28T07:44:04.000Z</time></trkpt><trkpt lat="52.54200540055586" lon="13.45362741668568"><time>2023-08-28T07:44:11.000Z</time></trkpt><trkpt lat="52.542001077209505" lon="13.453331091650579"><time>2023-08-28T07:44:26.000Z</time></trkpt><trkpt lat="52.541897773463866" lon="13.453070836770957"><time>2023-08-28T07:44:42.000Z</time></trkpt><trkpt lat="52.54174073151981" lon="13.45286582433506"><time>2023-08-28T07:45:00.000Z</time></trkpt><trkpt lat="52.540669980742265" lon="13.451875550232627"><time>2023-08-28T07:46:47.000Z</time></trkpt><trkpt lat="52.54052265375304" lon="13.451668889287351"><time>2023-08-28T07:47:03.000Z</time></trkpt><trkpt lat="52.54008206380183" lon="13.451259041282219"><time>2023-08-28T07:47:54.000Z</time></trkpt><trkpt lat="52.540050935349356" lon="13.451189430595285"><time>2023-08-28T07:48:00.000Z</time></trkpt><trkpt lat="52.5400966125043" lon="13.450930046843103"><time>2023-08-28T07:48:14.000Z</time></trkpt><trkpt lat="52.54024705922117" lon="13.45047992061457"><time>2023-08-28T07:48:41.000Z</time></trkpt><trkpt lat="52.54061261450652" lon="13.449629625493628"><time>2023-08-28T07:49:43.000Z</time></trkpt><trkpt lat="52.54067715131011" lon="13.449371923141678"><time>2023-08-28T07:49:57.000Z</time></trkpt><trkpt lat="52.54093496092941" lon="13.448748696340015"><time>2023-08-28T07:50:37.000Z</time></trkpt><trkpt lat="52.54119023726716" lon="13.448006538957271"><time>2023-08-28T07:51:20.000Z</time></trkpt><trkpt lat="52.54117092563276" lon="13.447775008661578"><time>2023-08-28T07:51:33.000Z</time></trkpt><trkpt lat="52.541127218470415" lon="13.447643185279572"><time>2023-08-28T07:51:51.000Z</time></trkpt><trkpt lat="52.54063689748627" lon="13.447015103715545"><time>2023-08-28T07:52:42.000Z</time></trkpt><trkpt lat="52.54062870616569" lon="13.446889768254993"><time>2023-08-28T07:52:49.000Z</time></trkpt><trkpt lat="52.5407329827068" lon="13.446440617648365"><time>2023-08-28T07:53:18.000Z</time></trkpt><trkpt lat="52.540744162379674" lon="13.446274605367408"><time>2023-08-28T07:53:32.000Z</time></trkpt><trkpt lat="52.54091375414259" lon="13.445923995783671"><time>2023-08-28T07:53:58.000Z</time></trkpt><trkpt lat="52.54098829673667" lon="13.445644223504457"><time>2023-08-28T07:54:14.000Z</time></trkpt><trkpt lat="52.541165863188915" lon="13.445499451495095"><time>2023-08-28T07:54:31.000Z</time></trkpt><trkpt lat="52.54124246847538" lon="13.445382208143666"><time>2023-08-28T07:54:42.000Z</time></trkpt><trkpt lat="52.54141496843138" lon="13.444663637247986"><time>2023-08-28T07:55:23.000Z</time></trkpt><trkpt lat="52.541913166192394" lon="13.443544991252919"><time>2023-08-28T07:56:38.000Z</time></trkpt><trkpt lat="52.542159530589565" lon="13.443174247451509"><time>2023-08-28T07:57:09.000Z</time></trkpt><trkpt lat="52.542306653983516" lon="13.442667318627679"><time>2023-08-28T07:57:39.000Z</time></trkpt><trkpt lat="52.542460481380566" lon="13.442324830202319"><time>2023-08-28T07:58:02.000Z</time></trkpt><trkpt lat="52.54261575681527" lon="13.441790145970407"><time>2023-08-28T07:59:03.000Z</time></trkpt><trkpt lat="52.542758221459174" lon="13.441556916106485"><time>2023-08-28T07:59:22.000Z</time></trkpt><trkpt lat="52.542657115317525" lon="13.441392636420767"><time>2023-08-28T07:59:41.000Z</time></trkpt><trkpt lat="52.54240269494398" lon="13.441170825699448"><time>2023-08-28T08:00:03.000Z</time></trkpt><trkpt lat="52.542335976646775" lon="13.441167727306327"><time>2023-08-28T08:00:19.000Z</time></trkpt><trkpt lat="52.54182606478665" lon="13.440596328917275"><time>2023-08-28T08:01:46.000Z</time></trkpt><trkpt lat="52.54178707681926" lon="13.440369133796269"><time>2023-08-28T08:02:03.000Z</time></trkpt><trkpt lat="52.541450912470616" lon="13.439774629106664"><time>2023-08-28T08:02:53.000Z</time></trkpt><trkpt lat="52.54133044753501" lon="13.439332935414512"><time>2023-08-28T08:29:05.000Z</time></trkpt><trkpt lat="52.541352196877824" lon="13.439237927003836"><time>2023-08-28T08:29:11.000Z</time></trkpt><trkpt lat="52.54137890040135" lon="13.439237013017378"><time>2023-08-28T08:29:16.000Z</time></trkpt><trkpt lat="52.54140283642414" lon="13.439338031538012"><time>2023-08-28T08:29:27.000Z</time></trkpt><trkpt lat="52.541194409291485" lon="13.439491289055143"><time>2023-08-28T08:29:49.000Z</time></trkpt><trkpt lat="52.54100653558026" lon="13.439865001897708"><time>2023-08-28T08:30:11.000Z</time></trkpt><trkpt lat="52.54081635703961" lon="13.440381724443279"><time>2023-08-28T08:30:42.000Z</time></trkpt><trkpt lat="52.54079295855022" lon="13.440575710645737"><time>2023-08-28T08:30:54.000Z</time></trkpt><trkpt lat="52.540899345435925" lon="13.440703172361486"><time>2023-08-28T08:31:09.000Z</time></trkpt><trkpt lat="52.54135555566727" lon="13.440904384312454"><time>2023-08-28T08:31:49.000Z</time></trkpt><trkpt lat="52.54151020818825" lon="13.441035968775024"><time>2023-08-28T08:32:03.000Z</time></trkpt><trkpt lat="52.54172209645862" lon="13.441357906003047"><time>2023-08-28T08:32:17.000Z</time></trkpt><trkpt lat="52.5417724833527" lon="13.441658814260116"><time>2023-08-28T08:32:26.000Z</time></trkpt><trkpt lat="52.54153822543433" lon="13.44249357200904"><time>2023-08-28T08:33:07.000Z</time></trkpt><trkpt lat="52.541494816148195" lon="13.442756719460492"><time>2023-08-28T08:33:21.000Z</time></trkpt><trkpt lat="52.54098744723865" lon="13.443674895494551"><time>2023-08-28T08:34:32.000Z</time></trkpt><trkpt lat="52.54082926269029" lon="13.44419707911418"><time>2023-08-28T08:35:05.000Z</time></trkpt><trkpt lat="52.540858695598565" lon="13.444331238026404"><time>2023-08-28T08:35:15.000Z</time></trkpt><trkpt lat="52.541260319409204" lon="13.444755291395392"><time>2023-08-28T08:36:36.000Z</time></trkpt><trkpt lat="52.54130345065064" lon="13.44487080666827"><time>2023-08-28T08:36:44.000Z</time></trkpt><trkpt lat="52.540729974155994" lon="13.446500321790115"><time>2023-08-28T08:38:31.000Z</time></trkpt><trkpt lat="52.54071467549195" lon="13.446608315452265"><time>2023-08-28T08:38:37.000Z</time></trkpt><trkpt lat="52.5407380854883" lon="13.446711825920476"><time>2023-08-28T08:38:43.000Z</time></trkpt><trkpt lat="52.54105731578861" lon="13.447195202310013"><time>2023-08-28T08:39:23.000Z</time></trkpt><trkpt lat="52.541258722152946" lon="13.447265384740495"><time>2023-08-28T08:39:42.000Z</time></trkpt><trkpt lat="52.54145291158632" lon="13.44749217699748"><time>2023-08-28T08:40:17.000Z</time></trkpt><trkpt lat="52.541688755723634" lon="13.447611759601347"><time>2023-08-28T08:40:35.000Z</time></trkpt><trkpt lat="52.54190858279608" lon="13.447847953487626"><time>2023-08-28T08:40:49.000Z</time></trkpt><trkpt lat="52.54200805832045" lon="13.448021209551634"><time>2023-08-28T08:41:04.000Z</time></trkpt><trkpt lat="52.54221515795502" lon="13.448216202253684"><time>2023-08-28T08:41:25.000Z</time></trkpt><trkpt lat="52.54250058978811" lon="13.448614360934771"><time>2023-08-28T08:42:00.000Z</time></trkpt><trkpt lat="52.542602003694405" lon="13.448658251644249"><time>2023-08-28T08:42:08.000Z</time></trkpt><trkpt lat="52.54277326761491" lon="13.44862646795647"><time>2023-08-28T08:42:21.000Z</time></trkpt><trkpt lat="52.54319557481438" lon="13.448822704483915"><time>2023-08-28T08:42:57.000Z</time></trkpt><trkpt lat="52.54394196120647" lon="13.44963294045131"><time>2023-08-28T08:44:42.000Z</time></trkpt><trkpt lat="52.54415883797751" lon="13.449988666635324"><time>2023-08-28T08:45:07.000Z</time></trkpt><trkpt lat="52.54453269972132" lon="13.4503226109723"><time>2023-08-28T08:45:42.000Z</time></trkpt><trkpt lat="52.54465950602923" lon="13.450374861239846"><time>2023-08-28T08:45:52.000Z</time></trkpt><trkpt lat="52.54474515912338" lon="13.45032326985463"><time>2023-08-28T08:46:00.000Z</time></trkpt><trkpt lat="52.54492121731252" lon="13.449751090681582"><time>2023-08-28T08:46:34.000Z</time></trkpt><trkpt lat="52.54499411291442" lon="13.449624332218228"><time>2023-08-28T08:46:45.000Z</time></trkpt><trkpt lat="52.545066206709684" lon="13.449582611417249"><time>2023-08-28T08:46:53.000Z</time></trkpt><trkpt lat="52.54522714439151" lon="13.449627366184371"><time>2023-08-28T08:47:08.000Z</time></trkpt><trkpt lat="52.54553015535063" lon="13.449894892758625"><time>2023-08-28T08:47:47.000Z</time></trkpt><trkpt lat="52.545814798910286" lon="13.450224279043157"><time>2023-08-28T08:48:21.000Z</time></trkpt><trkpt lat="52.54615302982384" lon="13.450350124892964"><time>2023-08-28T08:48:47.000Z</time></trkpt><trkpt lat="52.546235519316504" lon="13.450326251334547"><time>2023-08-28T08:48:58.000Z</time></trkpt><trkpt lat="52.54625080600676" lon="13.45015194370359"><time>2023-08-28T08:49:10.000Z</time></trkpt><trkpt lat="52.54631843699046" lon="13.449925293217255"><time>2023-08-28T08:49:24.000Z</time></trkpt><trkpt lat="52.54640205779214" lon="13.449817804139947"><time>2023-08-28T08:49:35.000Z</time></trkpt><trkpt lat="52.54650305111167" lon="13.44983641161403"><time>2023-08-28T08:49:45.000Z</time></trkpt><trkpt lat="52.54687130606075" lon="13.450153961250548"><time>2023-08-28T08:50:23.000Z</time></trkpt><trkpt lat="52.547113419881924" lon="13.450695506171973"><time>2023-08-28T08:50:59.000Z</time></trkpt><trkpt lat="52.547186368570735" lon="13.450996699469654"><time>2023-08-28T08:51:16.000Z</time></trkpt><trkpt lat="52.54730795612638" lon="13.45132381277697"><time>2023-08-28T08:51:35.000Z</time></trkpt><trkpt lat="52.547466732110074" lon="13.45206450943269"><time>2023-08-28T08:52:14.000Z</time></trkpt><trkpt lat="52.547677509762586" lon="13.452686948019805"><time>2023-08-28T08:52:50.000Z</time></trkpt><trkpt lat="52.54770861705001" lon="13.453201495387644"><time>2023-08-28T08:53:12.000Z</time></trkpt><trkpt lat="52.54786838061967" lon="13.453716553697875"><time>2023-08-28T08:53:47.000Z</time></trkpt><trkpt lat="52.54815144840436" lon="13.45521345709979"><time>2023-08-28T08:55:05.000Z</time></trkpt><trkpt lat="52.54831131755025" lon="13.455667445388253"><time>2023-08-28T08:55:31.000Z</time></trkpt><trkpt lat="52.548567572858474" lon="13.457192366324811"><time>2023-08-28T08:57:06.000Z</time></trkpt><trkpt lat="52.5487321898468" lon="13.457795192871044"><time>2023-08-28T08:57:39.000Z</time></trkpt><trkpt lat="52.548792757880754" lon="13.458177807337394"><time>2023-08-28T08:57:57.000Z</time></trkpt><trkpt lat="52.548895801819214" lon="13.45850830502399"><time>2023-08-28T08:58:15.000Z</time></trkpt><trkpt lat="52.54894321326281" lon="13.459008547110066"><time>2023-08-28T08:58:40.000Z</time></trkpt><trkpt lat="52.549069450654294" lon="13.459411321038038"><time>2023-08-28T08:59:06.000Z</time></trkpt><trkpt lat="52.54912782838" lon="13.459815444214218"><time>2023-08-28T08:59:28.000Z</time></trkpt><trkpt lat="52.54923971766382" lon="13.460152651622604"><time>2023-08-28T08:59:47.000Z</time></trkpt><trkpt lat="52.54930552830434" lon="13.460515115143028"><time>2023-08-28T09:00:06.000Z</time></trkpt><trkpt lat="52.54938434326507" lon="13.460695468983708"><time>2023-08-28T09:00:16.000Z</time></trkpt></trkseg></trk></gpx>