<?xml version="1.0" encoding="UTF-8"?>
<gpx creator="Health" xsi:schemaLocation="http://www.topografix.com/GPX/1/0 http://www.topografix.com/GPX/1/0/gpx.xsd"
     version="1.0" xmlns="http://www.topografix.com/GPX/1/0" xmlns:xsi="http://www.w3.org/2001/XMLSchema-instance">
    <metadata>
        <time>2023-03-18T12:09:28.000Z</time>
    </metadata>
    <trk>
        <type>Ходьба на улице</type>
        <extensions>
            <totalTime>3421.0</totalTime>
            <cumulativeDecrease>-0.10000000149011612</cumulativeDecrease>
            <cumulativeClimb>-0.10000000149011612</cumulativeClimb>
            <totalDistance>2240.0</totalDistance>
        </extensions>
        <trkseg>
            <trkpt lat="52.48701060686122" lon="13.386111835989743">
                <time>2023-03-18T12:09:28.000Z</time>
            </trkpt>
            <trkpt lat="52.48701753184307" lon="13.386057687062388">
                <time>2023-03-18T12:09:30.000Z</time>
            </trkpt>
            <trkpt lat="52.48701850204387" lon="13.386095151004609">
                <time>2023-03-18T12:09:31.000Z</time>
            </trkpt>
            <trkpt lat="52.48709491483976" lon="13.38609220172022">
                <time>2023-03-18T12:09:42.000Z</time>
            </trkpt>
            <trkpt lat="52.48722280155393" lon="13.386184867724763">
                <time>2023-03-18T12:09:55.000Z</time>
            </trkpt>
            <trkpt lat="52.487311565995284" lon="13.38615755188663">
                <time>2023-03-18T12:10:11.000Z</time>
            </trkpt>
            <trkpt lat="52.48727681282658" lon="13.38592024903479">
                <time>2023-03-18T12:11:06.000Z</time>
            </trkpt>
            <trkpt lat="52.487284776484415" lon="13.385810534680504">
                <time>2023-03-18T12:11:38.000Z</time>
            </trkpt>
            <trkpt lat="52.487319231071915" lon="13.38577058900791">
                <time>2023-03-18T12:11:44.000Z</time>
            </trkpt>
            <trkpt lat="52.488203263684674" lon="13.385737073872685">
                <time>2023-03-18T12:13:05.000Z</time>
            </trkpt>
            <trkpt lat="52.48829804225602" lon="13.385638929654926">
                <time>2023-03-18T12:13:27.000Z</time>
            </trkpt>
            <trkpt lat="52.48833137538407" lon="13.385449225429248">
                <time>2023-03-18T12:13:48.000Z</time>
            </trkpt>
            <trkpt lat="52.4884159559956" lon="13.385302996563878">
                <time>2023-03-18T12:14:08.000Z</time>
            </trkpt>
            <trkpt lat="52.48858890403117" lon="13.385157257196314">
                <time>2023-03-18T12:14:52.000Z</time>
            </trkpt>
            <trkpt lat="52.48843587958611" lon="13.385048314552314">
                <time>2023-03-18T12:15:28.000Z</time>
            </trkpt>
            <trkpt lat="52.48834707182953" lon="13.384689372912597">
                <time>2023-03-18T12:16:05.000Z</time>
            </trkpt>
            <trkpt lat="52.488346737508955" lon="13.38444773618338">
                <time>2023-03-18T12:16:20.000Z</time>
            </trkpt>
            <trkpt lat="52.488421969246275" lon="13.384056956868797">
                <time>2023-03-18T12:17:03.000Z</time>
            </trkpt>
            <trkpt lat="52.48839511243523" lon="13.38367240021334">
                <time>2023-03-18T12:17:51.000Z</time>
            </trkpt>
            <trkpt lat="52.488285322574434" lon="13.383338054101706">
                <time>2023-03-18T12:18:16.000Z</time>
            </trkpt>
            <trkpt lat="52.488268615747025" lon="13.383056435562715">
                <time>2023-03-18T12:18:33.000Z</time>
            </trkpt>
            <trkpt lat="52.48837080988412" lon="13.382546976642427">
                <time>2023-03-18T12:19:04.000Z</time>
            </trkpt>
            <trkpt lat="52.48860609699191" lon="13.38226958821075">
                <time>2023-03-18T12:19:44.000Z</time>
            </trkpt>
            <trkpt lat="52.48883736899784" lon="13.381814553909836">
                <time>2023-03-18T12:21:05.000Z</time>
            </trkpt>
            <trkpt lat="52.48881480771046" lon="13.381715279157907">
                <time>2023-03-18T12:21:13.000Z</time>
            </trkpt>
            <trkpt lat="52.48868516018204" lon="13.381520689747013">
                <time>2023-03-18T12:21:51.000Z</time>
            </trkpt>
            <trkpt lat="52.48859711442155" lon="13.381596130069699">
                <time>2023-03-18T12:22:25.000Z</time>
            </trkpt>
            <trkpt lat="52.48854198897115" lon="13.38146605194358">
                <time>2023-03-18T12:22:48.000Z</time>
            </trkpt>
            <trkpt lat="52.488411100920786" lon="13.381582728039376">
                <time>2023-03-18T12:23:08.000Z</time>
            </trkpt>
            <trkpt lat="52.488346234674076" lon="13.38140593287845">
                <time>2023-03-18T12:23:24.000Z</time>
            </trkpt>
            <trkpt lat="52.488291773250104" lon="13.38135588708808">
                <time>2023-03-18T12:23:32.000Z</time>
            </trkpt>
            <trkpt lat="52.48780390017618" lon="13.381879579182055">
                <time>2023-03-18T12:24:58.000Z</time>
            </trkpt>
            <trkpt lat="52.48788330827483" lon="13.381744066579854">
                <time>2023-03-18T12:25:14.000Z</time>
            </trkpt>
            <trkpt lat="52.487899438491716" lon="13.381632611651895">
                <time>2023-03-18T12:25:26.000Z</time>
            </trkpt>
            <trkpt lat="52.48783967895005" lon="13.38157392606251">
                <time>2023-03-18T12:25:46.000Z</time>
            </trkpt>
            <trkpt lat="52.48777864456927" lon="13.381629983336161">
                <time>2023-03-18T12:26:09.000Z</time>
            </trkpt>
            <trkpt lat="52.487708187659884" lon="13.381484015021472">
                <time>2023-03-18T12:26:37.000Z</time>
            </trkpt>
            <trkpt lat="52.487734239477135" lon="13.381431011887754">
                <time>2023-03-18T12:26:58.000Z</time>
            </trkpt>
            <trkpt lat="52.48769160067643" lon="13.38160150855436">
                <time>2023-03-18T12:27:44.000Z</time>
            </trkpt>
            <trkpt lat="52.48771260394571" lon="13.381560691454446">
                <time>2023-03-18T12:28:09.000Z</time>
            </trkpt>
            <trkpt lat="52.48769869737203" lon="13.381356280684235">
                <time>2023-03-18T12:28:56.000Z</time>
            </trkpt>
            <trkpt lat="52.48774272809813" lon="13.381478344521618">
                <time>2023-03-18T12:29:36.000Z</time>
            </trkpt>
            <trkpt lat="52.48770187717725" lon="13.381534368059327">
                <time>2023-03-18T12:30:35.000Z</time>
            </trkpt>
            <trkpt lat="52.487670002084265" lon="13.381507175483362">
                <time>2023-03-18T12:31:22.000Z</time>
            </trkpt>
            <trkpt lat="52.48773400626322" lon="13.381533254747849">
                <time>2023-03-18T12:32:27.000Z</time>
            </trkpt>
            <trkpt lat="52.48775935817107" lon="13.381457331960378">
                <time>2023-03-18T12:34:08.000Z</time>
            </trkpt>
            <trkpt lat="52.48772510169305" lon="13.381478669577586">
                <time>2023-03-18T12:34:18.000Z</time>
            </trkpt>
            <trkpt lat="52.48772069123386" lon="13.381398948915887">
                <time>2023-03-18T12:35:08.000Z</time>
            </trkpt>
            <trkpt lat="52.48769219809715" lon="13.381507771229332">
                <time>2023-03-18T12:36:26.000Z</time>
            </trkpt>
            <trkpt lat="52.487835637360064" lon="13.381525006912591">
                <time>2023-03-18T12:38:49.000Z</time>
            </trkpt>
            <trkpt lat="52.48785082851425" lon="13.38148257757764">
                <time>2023-03-18T12:39:19.000Z</time>
            </trkpt>
            <trkpt lat="52.48791550889228" lon="13.381582352548866">
                <time>2023-03-18T12:39:42.000Z</time>
            </trkpt>
            <trkpt lat="52.487977052279945" lon="13.381471209308161">
                <time>2023-03-18T12:40:07.000Z</time>
            </trkpt>
            <trkpt lat="52.48774033442" lon="13.380845543273484">
                <time>2023-03-18T12:41:02.000Z</time>
            </trkpt>
            <trkpt lat="52.487630569303654" lon="13.379545762095937">
                <time>2023-03-18T12:42:44.000Z</time>
            </trkpt>
            <trkpt lat="52.48757326662371" lon="13.379390979813639">
                <time>2023-03-18T12:42:56.000Z</time>
            </trkpt>
            <trkpt lat="52.48743192703737" lon="13.379173360034805">
                <time>2023-03-18T12:43:19.000Z</time>
            </trkpt>
            <trkpt lat="52.48737550235355" lon="13.378898802266747">
                <time>2023-03-18T12:43:42.000Z</time>
            </trkpt>
            <trkpt lat="52.48732306848836" lon="13.378807842493943">
                <time>2023-03-18T12:43:55.000Z</time>
            </trkpt>
            <trkpt lat="52.487106740791496" lon="13.37883205546874">
                <time>2023-03-18T12:44:22.000Z</time>
            </trkpt>
            <trkpt lat="52.487059037824295" lon="13.37868530912728">
                <time>2023-03-18T12:44:38.000Z</time>
            </trkpt>
            <trkpt lat="52.487074363445785" lon="13.378738974392219">
                <time>2023-03-18T12:46:31.000Z</time>
            </trkpt>
            <trkpt lat="52.495278376661666" lon="13.384134620650869">
                <time>2023-03-18T14:36:11.000Z</time>
            </trkpt>
            <trkpt lat="52.49533296025778" lon="13.383986231492413">
                <time>2023-03-18T14:36:28.000Z</time>
            </trkpt>
            <trkpt lat="52.49543632675853" lon="13.383976215915618">
                <time>2023-03-18T14:36:42.000Z</time>
            </trkpt>
            <trkpt lat="52.496175732168695" lon="13.38429940420038">
                <time>2023-03-18T14:38:44.000Z</time>
            </trkpt>
            <trkpt lat="52.4962331830833" lon="13.38443116580794">
                <time>2023-03-18T14:39:03.000Z</time>
            </trkpt>
            <trkpt lat="52.496498215572984" lon="13.38442463776053">
                <time>2023-03-18T14:39:30.000Z</time>
            </trkpt>
            <trkpt lat="52.49663939582233" lon="13.38451263433716">
                <time>2023-03-18T14:39:53.000Z</time>
            </trkpt>
            <trkpt lat="52.496977451240376" lon="13.384573120186984">
                <time>2023-03-18T14:40:36.000Z</time>
            </trkpt>
            <trkpt lat="52.49713980375563" lon="13.384783401121554">
                <time>2023-03-18T14:41:03.000Z</time>
            </trkpt>
            <trkpt lat="52.4973318114246" lon="13.384885170710504">
                <time>2023-03-18T14:41:32.000Z</time>
            </trkpt>
            <trkpt lat="52.49756745049752" lon="13.384923650097916">
                <time>2023-03-18T14:41:56.000Z</time>
            </trkpt>
            <trkpt lat="52.49763851963075" lon="13.38501081564039">
                <time>2023-03-18T14:42:09.000Z</time>
            </trkpt>
            <trkpt lat="52.49826303663599" lon="13.385020936552172">
                <time>2023-03-18T14:43:07.000Z</time>
            </trkpt>
            <trkpt lat="52.49840026914379" lon="13.385095621572633">
                <time>2023-03-18T14:43:22.000Z</time>
            </trkpt>
            <trkpt lat="52.49839201522448" lon="13.38554676820408">
                <time>2023-03-18T14:43:55.000Z</time>
            </trkpt>
            <trkpt lat="52.49800597065677" lon="13.387136684870011">
                <time>2023-03-18T14:45:37.000Z</time>
            </trkpt>
            <trkpt lat="52.49789827586154" lon="13.387960641114175">
                <time>2023-03-18T14:46:36.000Z</time>
            </trkpt>
            <trkpt lat="52.497472211592715" lon="13.38938284489787">
                <time>2023-03-18T14:48:23.000Z</time>
            </trkpt>
            <trkpt lat="52.49745803449864" lon="13.390297600196748">
                <time>2023-03-18T14:49:17.000Z</time>
            </trkpt>
            <trkpt lat="52.49737866271671" lon="13.39111482179034">
                <time>2023-03-18T14:50:12.000Z</time>
            </trkpt>
            <trkpt lat="52.49730861644032" lon="13.391394998353555">
                <time>2023-03-18T14:50:38.000Z</time>
            </trkpt>
            <trkpt lat="52.49735100203236" lon="13.391716211387008">
                <time>2023-03-18T14:51:01.000Z</time>
            </trkpt>
            <trkpt lat="52.497441422117134" lon="13.391780676317165">
                <time>2023-03-18T14:51:17.000Z</time>
            </trkpt>
            <trkpt lat="52.49773207338724" lon="13.391793133792953">
                <time>2023-03-18T14:51:52.000Z</time>
            </trkpt>
            <trkpt lat="52.49778066927646" lon="13.391634947661398">
                <time>2023-03-18T14:52:14.000Z</time>
            </trkpt>
            <trkpt lat="52.4978262531807" lon="13.391593477096006">
                <time>2023-03-18T14:52:18.000Z</time>
            </trkpt>
        </trkseg>
    </trk>
</gpx>