<?xml version="1.0" encoding="UTF-8"?><gpx creator="Health" xsi:schemaLocation="http://www.topografix.com/GPX/1/0 http://www.topografix.com/GPX/1/0/gpx.xsd" version="1.0" xmlns="http://www.topografix.com/GPX/1/0" xmlns:xsi="http://www.w3.org/2001/XMLSchema-instance"><metadata><time>2023-07-16T07:44:28.000Z</time></metadata><trk><type>Ходьба на улице</type><extensions><totalTime>6466.0</totalTime><cumulativeDecrease>-0.10000000149011612</cumulativeDecrease><cumulativeClimb>-0.10000000149011612</cumulativeClimb><totalDistance>7110.0</totalDistance></extensions><trkseg><trkpt lat="52.53196409268108" lon="13.42767588908535"><time>2023-07-16T07:44:28.000Z</time></trkpt><trkpt lat="52.53154622749164" lon="13.427302375897016"><time>2023-07-16T07:45:05.000Z</time></trkpt><trkpt lat="52.53163256428832" lon="13.426965322786513"><time>2023-07-16T07:45:25.000Z</time></trkpt><trkpt lat="52.53164718980435" lon="13.426335762509602"><time>2023-07-16T07:45:49.000Z</time></trkpt><trkpt lat="52.53177200252841" lon="13.425923982196894"><time>2023-07-16T07:46:10.000Z</time></trkpt><trkpt lat="52.531827450523245" lon="13.425609859814218"><time>2023-07-16T07:46:25.000Z</time></trkpt><trkpt lat="52.531960167824394" lon="13.425391876210448"><time>2023-07-16T07:46:38.000Z</time></trkpt><trkpt lat="52.532489897444336" lon="13.424120288024064"><time>2023-07-16T07:47:44.000Z</time></trkpt><trkpt lat="52.53257707780194" lon="13.424016733275648"><time>2023-07-16T07:47:56.000Z</time></trkpt><trkpt lat="52.53274754452855" lon="13.423305351605675"><time>2023-07-16T07:48:31.000Z</time></trkpt><trkpt lat="52.53303786000277" lon="13.422606486544082"><time>2023-07-16T07:49:11.000Z</time></trkpt><trkpt lat="52.533225302209686" lon="13.421944598005966"><time>2023-07-16T07:49:47.000Z</time></trkpt><trkpt lat="52.53354285451334" lon="13.421245243267975"><time>2023-07-16T07:50:30.000Z</time></trkpt><trkpt lat="52.5334589651397" lon="13.421082656378559"><time>2023-07-16T07:50:56.000Z</time></trkpt><trkpt lat="52.533560917459866" lon="13.420724094266705"><time>2023-07-16T07:51:47.000Z</time></trkpt><trkpt lat="52.53372409012061" lon="13.420404324324558"><time>2023-07-16T07:52:08.000Z</time></trkpt><trkpt lat="52.53403067047741" lon="13.420009517236194"><time>2023-07-16T07:52:32.000Z</time></trkpt><trkpt lat="52.53410039824478" lon="13.419645128003895"><time>2023-07-16T07:52:48.000Z</time></trkpt><trkpt lat="52.534217235642224" lon="13.419384418937415"><time>2023-07-16T07:53:10.000Z</time></trkpt><trkpt lat="52.53462034315793" lon="13.41899444234316"><time>2023-07-16T07:54:03.000Z</time></trkpt><trkpt lat="52.534692580751" lon="13.418656575045361"><time>2023-07-16T07:54:55.000Z</time></trkpt><trkpt lat="52.5347619162928" lon="13.41870492525786"><time>2023-07-16T07:56:42.000Z</time></trkpt><trkpt lat="52.53482013684843" lon="13.418202391092962"><time>2023-07-16T08:24:57.000Z</time></trkpt><trkpt lat="52.53492450173871" lon="13.41773494198855"><time>2023-07-16T08:25:24.000Z</time></trkpt><trkpt lat="52.53515479066334" lon="13.417350519785858"><time>2023-07-16T08:25:51.000Z</time></trkpt><trkpt lat="52.535241643407794" lon="13.41699531875306"><time>2023-07-16T08:26:22.000Z</time></trkpt><trkpt lat="52.535557808601084" lon="13.416822353205811"><time>2023-07-16T08:26:47.000Z</time></trkpt><trkpt lat="52.535958392658294" lon="13.416492607280459"><time>2023-07-16T08:27:23.000Z</time></trkpt><trkpt lat="52.53613180760097" lon="13.416300490038498"><time>2023-07-16T08:27:39.000Z</time></trkpt><trkpt lat="52.536338146345955" lon="13.416220070868746"><time>2023-07-16T08:27:54.000Z</time></trkpt><trkpt lat="52.536490298554604" lon="13.415990534991142"><time>2023-07-16T08:28:15.000Z</time></trkpt><trkpt lat="52.53654742179072" lon="13.41555282950659"><time>2023-07-16T08:28:40.000Z</time></trkpt><trkpt lat="52.53638262438904" lon="13.414508921603714"><time>2023-07-16T08:29:35.000Z</time></trkpt><trkpt lat="52.536315747988965" lon="13.413671572280988"><time>2023-07-16T08:30:16.000Z</time></trkpt><trkpt lat="52.53618760971501" lon="13.413111709862825"><time>2023-07-16T08:30:46.000Z</time></trkpt><trkpt lat="52.53618533372568" lon="13.412774621148317"><time>2023-07-16T08:31:10.000Z</time></trkpt><trkpt lat="52.536490370378786" lon="13.4125111993257"><time>2023-07-16T08:31:44.000Z</time></trkpt><trkpt lat="52.53691002674353" lon="13.412451134968034"><time>2023-07-16T08:32:18.000Z</time></trkpt><trkpt lat="52.53706184343644" lon="13.412370025599454"><time>2023-07-16T08:32:31.000Z</time></trkpt><trkpt lat="52.5372186305409" lon="13.412211916760278"><time>2023-07-16T08:32:46.000Z</time></trkpt><trkpt lat="52.537450377997" lon="13.412237715703265"><time>2023-07-16T08:33:04.000Z</time></trkpt><trkpt lat="52.537705083824704" lon="13.412193532376143"><time>2023-07-16T08:33:25.000Z</time></trkpt><trkpt lat="52.53779546491602" lon="13.412300254923592"><time>2023-07-16T08:33:32.000Z</time></trkpt><trkpt lat="52.538031509722835" lon="13.412951769908538"><time>2023-07-16T08:33:55.000Z</time></trkpt><trkpt lat="52.53811462074571" lon="13.413092390149416"><time>2023-07-16T08:34:03.000Z</time></trkpt><trkpt lat="52.53829416591334" lon="13.41325909886823"><time>2023-07-16T08:34:26.000Z</time></trkpt><trkpt lat="52.53863237860007" lon="13.413151747760184"><time>2023-07-16T08:34:57.000Z</time></trkpt><trkpt lat="52.53871703457161" lon="13.413168008751613"><time>2023-07-16T08:35:04.000Z</time></trkpt><trkpt lat="52.53877885171671" lon="13.413260221353404"><time>2023-07-16T08:35:10.000Z</time></trkpt><trkpt lat="52.53884817413611" lon="13.413524109428392"><time>2023-07-16T08:35:28.000Z</time></trkpt><trkpt lat="52.53889218697154" lon="13.413474403241674"><time>2023-07-16T08:36:03.000Z</time></trkpt><trkpt lat="52.5389097967371" lon="13.413842240542618"><time>2023-07-16T08:36:31.000Z</time></trkpt><trkpt lat="52.53911114757821" lon="13.413752454049616"><time>2023-07-16T08:37:14.000Z</time></trkpt><trkpt lat="52.53884357631648" lon="13.41381573292877"><time>2023-07-16T08:37:49.000Z</time></trkpt><trkpt lat="52.538743561593925" lon="13.413755144927533"><time>2023-07-16T08:38:04.000Z</time></trkpt><trkpt lat="52.53859711888026" lon="13.413819615840845"><time>2023-07-16T08:38:26.000Z</time></trkpt><trkpt lat="52.53857379749076" lon="13.413777251471055"><time>2023-07-16T08:38:40.000Z</time></trkpt><trkpt lat="52.53845550973994" lon="13.413781901427633"><time>2023-07-16T08:38:58.000Z</time></trkpt><trkpt lat="52.538279153447384" lon="13.413675619425215"><time>2023-07-16T08:39:21.000Z</time></trkpt><trkpt lat="52.53821341967338" lon="13.413841133244402"><time>2023-07-16T08:39:48.000Z</time></trkpt><trkpt lat="52.53815289603622" lon="13.413545508774728"><time>2023-07-16T08:40:09.000Z</time></trkpt><trkpt lat="52.53796569211036" lon="13.413019236216996"><time>2023-07-16T08:40:37.000Z</time></trkpt><trkpt lat="52.537942691831965" lon="13.412732480898951"><time>2023-07-16T08:40:51.000Z</time></trkpt><trkpt lat="52.53779819142201" lon="13.41219935308053"><time>2023-07-16T08:41:32.000Z</time></trkpt><trkpt lat="52.537756832757935" lon="13.411894136870393"><time>2023-07-16T08:41:58.000Z</time></trkpt><trkpt lat="52.53768163905545" lon="13.41173939184352"><time>2023-07-16T08:42:09.000Z</time></trkpt><trkpt lat="52.537564275221136" lon="13.411687021632394"><time>2023-07-16T08:42:23.000Z</time></trkpt><trkpt lat="52.53749111533007" lon="13.41115897268998"><time>2023-07-16T08:42:41.000Z</time></trkpt><trkpt lat="52.537210504408655" lon="13.410761513954379"><time>2023-07-16T08:43:07.000Z</time></trkpt><trkpt lat="52.53698708395354" lon="13.410603209035411"><time>2023-07-16T08:43:24.000Z</time></trkpt><trkpt lat="52.536674790453894" lon="13.410522158981992"><time>2023-07-16T08:43:47.000Z</time></trkpt><trkpt lat="52.536548746473564" lon="13.41013683345116"><time>2023-07-16T08:44:10.000Z</time></trkpt><trkpt lat="52.5358994134345" lon="13.409561296029516"><time>2023-07-16T08:45:15.000Z</time></trkpt><trkpt lat="52.53554508217789" lon="13.409377447603436"><time>2023-07-16T08:45:43.000Z</time></trkpt><trkpt lat="52.5349689300712" lon="13.408864307029374"><time>2023-07-16T08:46:37.000Z</time></trkpt><trkpt lat="52.534883227189766" lon="13.40876305715492"><time>2023-07-16T08:46:46.000Z</time></trkpt><trkpt lat="52.53479068292051" lon="13.408524762159606"><time>2023-07-16T08:46:59.000Z</time></trkpt><trkpt lat="52.534659096806514" lon="13.408314780349645"><time>2023-07-16T08:47:15.000Z</time></trkpt><trkpt lat="52.534340311323085" lon="13.408220784117628"><time>2023-07-16T08:47:34.000Z</time></trkpt><trkpt lat="52.53400678527452" lon="13.40804393406184"><time>2023-07-16T08:48:08.000Z</time></trkpt><trkpt lat="52.53391058804755" lon="13.407872330839343"><time>2023-07-16T08:48:24.000Z</time></trkpt><trkpt lat="52.5336992356209" lon="13.40764841352793"><time>2023-07-16T08:48:46.000Z</time></trkpt><trkpt lat="52.53349629523513" lon="13.40731587726226"><time>2023-07-16T08:49:05.000Z</time></trkpt><trkpt lat="52.53321769437051" lon="13.407221432052545"><time>2023-07-16T08:49:22.000Z</time></trkpt><trkpt lat="52.53296058382018" lon="13.40705795635796"><time>2023-07-16T08:49:50.000Z</time></trkpt><trkpt lat="52.532596246707634" lon="13.406456600180679"><time>2023-07-16T08:50:31.000Z</time></trkpt><trkpt lat="52.53237416878864" lon="13.406215047231582"><time>2023-07-16T08:50:47.000Z</time></trkpt><trkpt lat="52.53239615117779" lon="13.405898260553402"><time>2023-07-16T08:51:07.000Z</time></trkpt><trkpt lat="52.532586297418405" lon="13.405530266593292"><time>2023-07-16T08:51:33.000Z</time></trkpt><trkpt lat="52.53279911153416" lon="13.405288079147994"><time>2023-07-16T08:51:50.000Z</time></trkpt><trkpt lat="52.53288903493758" lon="13.405107636451918"><time>2023-07-16T08:52:01.000Z</time></trkpt><trkpt lat="52.53313294690365" lon="13.404304317432327"><time>2023-07-16T08:52:49.000Z</time></trkpt><trkpt lat="52.533108334247224" lon="13.404117889349378"><time>2023-07-16T08:53:04.000Z</time></trkpt><trkpt lat="52.533310338538904" lon="13.403748764718783"><time>2023-07-16T08:53:29.000Z</time></trkpt><trkpt lat="52.53344128066387" lon="13.403263115840344"><time>2023-07-16T08:53:54.000Z</time></trkpt><trkpt lat="52.53340273917934" lon="13.402781040913162"><time>2023-07-16T08:54:19.000Z</time></trkpt><trkpt lat="52.53341674573915" lon="13.40248314150279"><time>2023-07-16T08:54:34.000Z</time></trkpt><trkpt lat="52.53335899156089" lon="13.402117538035185"><time>2023-07-16T08:54:52.000Z</time></trkpt><trkpt lat="52.53311859277176" lon="13.401288418777863"><time>2023-07-16T08:55:36.000Z</time></trkpt><trkpt lat="52.5330506006688" lon="13.40118546054186"><time>2023-07-16T08:55:48.000Z</time></trkpt><trkpt lat="52.532711657786486" lon="13.400003185131125"><time>2023-07-16T08:56:54.000Z</time></trkpt><trkpt lat="52.53261940012137" lon="13.399894132379162"><time>2023-07-16T08:57:06.000Z</time></trkpt><trkpt lat="52.53250936945838" lon="13.399883697730514"><time>2023-07-16T08:57:26.000Z</time></trkpt><trkpt lat="52.532547889896136" lon="13.399856619220634"><time>2023-07-16T08:58:25.000Z</time></trkpt><trkpt lat="52.532570191777864" lon="13.399713633772263"><time>2023-07-16T08:58:36.000Z</time></trkpt><trkpt lat="52.53246470694946" lon="13.399410601366379"><time>2023-07-16T08:59:00.000Z</time></trkpt><trkpt lat="52.532352319558726" lon="13.39947971045193"><time>2023-07-16T08:59:21.000Z</time></trkpt><trkpt lat="52.53231514769539" lon="13.399355981998957"><time>2023-07-16T09:02:21.000Z</time></trkpt><trkpt lat="52.53196423397761" lon="13.399865095898805"><time>2023-07-16T09:13:01.000Z</time></trkpt><trkpt lat="52.5319181459516" lon="13.39983801286905"><time>2023-07-16T09:13:04.000Z</time></trkpt><trkpt lat="52.53166460296991" lon="13.399896915890997"><time>2023-07-16T09:13:20.000Z</time></trkpt><trkpt lat="52.53150200705972" lon="13.399980327664974"><time>2023-07-16T09:13:32.000Z</time></trkpt><trkpt lat="52.5312307778184" lon="13.399897772216901"><time>2023-07-16T09:13:49.000Z</time></trkpt><trkpt lat="52.53060321584795" lon="13.400207399199447"><time>2023-07-16T09:14:36.000Z</time></trkpt><trkpt lat="52.53029137410995" lon="13.4005474884889"><time>2023-07-16T09:15:05.000Z</time></trkpt><trkpt lat="52.530133435241076" lon="13.400631133839498"><time>2023-07-16T09:15:19.000Z</time></trkpt><trkpt lat="52.52999382024639" lon="13.400772437155876"><time>2023-07-16T09:15:37.000Z</time></trkpt><trkpt lat="52.529963809731605" lon="13.400917179847086"><time>2023-07-16T09:15:44.000Z</time></trkpt><trkpt lat="52.52997910538586" lon="13.401349981364262"><time>2023-07-16T09:16:06.000Z</time></trkpt><trkpt lat="52.529848885342965" lon="13.40166742409346"><time>2023-07-16T09:16:30.000Z</time></trkpt><trkpt lat="52.52961059782574" lon="13.401759635040428"><time>2023-07-16T09:16:50.000Z</time></trkpt><trkpt lat="52.52917901609114" lon="13.401785026886984"><time>2023-07-16T09:17:31.000Z</time></trkpt><trkpt lat="52.52910545197262" lon="13.401857823135725"><time>2023-07-16T09:17:38.000Z</time></trkpt><trkpt lat="52.52902990588462" lon="13.402036843526322"><time>2023-07-16T09:17:54.000Z</time></trkpt><trkpt lat="52.528867653181194" lon="13.40208886231892"><time>2023-07-16T09:18:07.000Z</time></trkpt><trkpt lat="52.52862842851314" lon="13.402082782910782"><time>2023-07-16T09:18:20.000Z</time></trkpt><trkpt lat="52.52848038348108" lon="13.402145922203523"><time>2023-07-16T09:18:31.000Z</time></trkpt><trkpt lat="52.52815938397676" lon="13.40236658833581"><time>2023-07-16T09:18:56.000Z</time></trkpt><trkpt lat="52.52805641416573" lon="13.402737707504018"><time>2023-07-16T09:19:17.000Z</time></trkpt><trkpt lat="52.52767340969526" lon="13.40295356475478"><time>2023-07-16T09:19:46.000Z</time></trkpt><trkpt lat="52.527442249382425" lon="13.40331422796316"><time>2023-07-16T09:20:22.000Z</time></trkpt><trkpt lat="52.52695929682193" lon="13.403545712369946"><time>2023-07-16T09:20:56.000Z</time></trkpt><trkpt lat="52.52638517475976" lon="13.403731245665107"><time>2023-07-16T09:21:41.000Z</time></trkpt><trkpt lat="52.52603316644777" lon="13.403966687617293"><time>2023-07-16T09:22:10.000Z</time></trkpt><trkpt lat="52.52590880483462" lon="13.403921591917435"><time>2023-07-16T09:22:39.000Z</time></trkpt><trkpt lat="52.525937244140785" lon="13.40395454423991"><time>2023-07-16T09:22:50.000Z</time></trkpt><trkpt lat="52.5259327549739" lon="13.404033514831768"><time>2023-07-16T09:22:56.000Z</time></trkpt><trkpt lat="52.525765138721404" lon="13.404470232930514"><time>2023-07-16T09:23:24.000Z</time></trkpt><trkpt lat="52.52553627400357" lon="13.404955208089195"><time>2023-07-16T09:23:59.000Z</time></trkpt><trkpt lat="52.52517193004667" lon="13.405916321341214"><time>2023-07-16T09:25:08.000Z</time></trkpt><trkpt lat="52.52508243999132" lon="13.406054352362219"><time>2023-07-16T09:25:27.000Z</time></trkpt><trkpt lat="52.52498525865821" lon="13.406014288295427"><time>2023-07-16T09:25:48.000Z</time></trkpt><trkpt lat="52.52496042439133" lon="13.406046713064386"><time>2023-07-16T09:26:38.000Z</time></trkpt><trkpt lat="52.52495978667608" lon="13.405819835184674"><time>2023-07-16T09:27:03.000Z</time></trkpt><trkpt lat="52.52483473083566" lon="13.40561809478862"><time>2023-07-16T09:27:25.000Z</time></trkpt><trkpt lat="52.52464905851827" lon="13.405702095070128"><time>2023-07-16T09:27:44.000Z</time></trkpt><trkpt lat="52.5240704635849" lon="13.405598171989203"><time>2023-07-16T09:28:34.000Z</time></trkpt><trkpt lat="52.5237393415119" lon="13.405666634096002"><time>2023-07-16T09:28:49.000Z</time></trkpt><trkpt lat="52.52363342837771" lon="13.405744554764022"><time>2023-07-16T09:29:01.000Z</time></trkpt><trkpt lat="52.52363872195465" lon="13.405563304342998"><time>2023-07-16T09:29:18.000Z</time></trkpt><trkpt lat="52.52337158747718" lon="13.404879791581381"><time>2023-07-16T09:29:56.000Z</time></trkpt><trkpt lat="52.52319856893711" lon="13.403960852177914"><time>2023-07-16T09:30:39.000Z</time></trkpt><trkpt lat="52.52322228740774" lon="13.403564205028227"><time>2023-07-16T09:30:54.000Z</time></trkpt><trkpt lat="52.52332418576948" lon="13.403057889110618"><time>2023-07-16T09:31:17.000Z</time></trkpt><trkpt lat="52.52346819031977" lon="13.402653605495852"><time>2023-07-16T09:31:42.000Z</time></trkpt><trkpt lat="52.52347331325665" lon="13.40243028902637"><time>2023-07-16T09:31:57.000Z</time></trkpt><trkpt lat="52.52351917673869" lon="13.402275758590093"><time>2023-07-16T09:32:09.000Z</time></trkpt><trkpt lat="52.523539049570445" lon="13.402250600786232"><time>2023-07-16T09:32:19.000Z</time></trkpt><trkpt lat="52.52358318329561" lon="13.402320446028837"><time>2023-07-16T09:32:26.000Z</time></trkpt><trkpt lat="52.5237194703733" lon="13.40271945206492"><time>2023-07-16T09:32:41.000Z</time></trkpt><trkpt lat="52.52377524450472" lon="13.402491451546373"><time>2023-07-16T09:32:46.000Z</time></trkpt><trkpt lat="52.5239586022747" lon="13.402308206726103"><time>2023-07-16T09:32:57.000Z</time></trkpt><trkpt lat="52.52405027230013" lon="13.402149443162456"><time>2023-07-16T09:33:09.000Z</time></trkpt><trkpt lat="52.52411435975729" lon="13.402127735499914"><time>2023-07-16T09:33:24.000Z</time></trkpt><trkpt lat="52.52409920175996" lon="13.402062099683258"><time>2023-07-16T09:33:34.000Z</time></trkpt><trkpt lat="52.52414051986058" lon="13.402102925211654"><time>2023-07-16T09:33:45.000Z</time></trkpt><trkpt lat="52.524130845781926" lon="13.401764833025174"><time>2023-07-16T09:33:57.000Z</time></trkpt><trkpt lat="52.52440832465173" lon="13.401613170640601"><time>2023-07-16T09:34:16.000Z</time></trkpt><trkpt lat="52.52443149328562" lon="13.401639584833664"><time>2023-07-16T09:34:20.000Z</time></trkpt><trkpt lat="52.525340947899984" lon="13.418624186061328"><time>2023-07-16T10:26:05.000Z</time></trkpt><trkpt lat="52.525290355057265" lon="13.41864053910213"><time>2023-07-16T10:26:19.000Z</time></trkpt><trkpt lat="52.525236974016025" lon="13.418497414356295"><time>2023-07-16T10:27:23.000Z</time></trkpt><trkpt lat="52.52523054750304" lon="13.418537093348478"><time>2023-07-16T10:27:40.000Z</time></trkpt><trkpt lat="52.525336710341165" lon="13.4184890754897"><time>2023-07-16T10:29:24.000Z</time></trkpt><trkpt lat="52.52530444582789" lon="13.418472036905307"><time>2023-07-16T10:29:47.000Z</time></trkpt><trkpt lat="52.525373143169034" lon="13.418565231068245"><time>2023-07-16T10:30:38.000Z</time></trkpt><trkpt lat="52.52531892153476" lon="13.41862241951087"><time>2023-07-16T10:31:35.000Z</time></trkpt><trkpt lat="52.52528768027076" lon="13.418574679365063"><time>2023-07-16T10:32:04.000Z</time></trkpt><trkpt lat="52.52533613787077" lon="13.41860822718491"><time>2023-07-16T10:32:59.000Z</time></trkpt><trkpt lat="52.525338947355905" lon="13.418666799344674"><time>2023-07-16T10:33:39.000Z</time></trkpt><trkpt lat="52.52531502087675" lon="13.418621391258876"><time>2023-07-16T10:33:55.000Z</time></trkpt><trkpt lat="52.52516626202425" lon="13.419147305607758"><time>2023-07-16T10:34:38.000Z</time></trkpt><trkpt lat="52.52513265560256" lon="13.419426615456256"><time>2023-07-16T10:35:02.000Z</time></trkpt><trkpt lat="52.52498532408927" lon="13.419783415568519"><time>2023-07-16T10:35:30.000Z</time></trkpt><trkpt lat="52.525044854327895" lon="13.419823492593515"><time>2023-07-16T10:36:45.000Z</time></trkpt><trkpt lat="52.52492262067972" lon="13.42009789244152"><time>2023-07-16T10:37:14.000Z</time></trkpt><trkpt lat="52.524893394669114" lon="13.420066513819547"><time>2023-07-16T10:37:35.000Z</time></trkpt><trkpt lat="52.52512854851005" lon="13.42033805887785"><time>2023-07-16T10:38:06.000Z</time></trkpt><trkpt lat="52.52531845298102" lon="13.420462570853323"><time>2023-07-16T10:38:26.000Z</time></trkpt><trkpt lat="52.52562345342115" lon="13.420465663097945"><time>2023-07-16T10:38:46.000Z</time></trkpt><trkpt lat="52.5260823656996" lon="13.4206153519659"><time>2023-07-16T10:39:18.000Z</time></trkpt><trkpt lat="52.52640558725971" lon="13.42118402465784"><time>2023-07-16T10:39:53.000Z</time></trkpt><trkpt lat="52.52663224984488" lon="13.421784307257026"><time>2023-07-16T10:40:19.000Z</time></trkpt><trkpt lat="52.52676248973312" lon="13.421849959511075"><time>2023-07-16T10:40:29.000Z</time></trkpt><trkpt lat="52.527076461110376" lon="13.421859134266594"><time>2023-07-16T10:40:46.000Z</time></trkpt><trkpt lat="52.52745762615173" lon="13.422154262185622"><time>2023-07-16T10:41:13.000Z</time></trkpt><trkpt lat="52.52779981357164" lon="13.422609908136549"><time>2023-07-16T10:41:59.000Z</time></trkpt><trkpt lat="52.528288647449905" lon="13.423695566721989"><time>2023-07-16T10:42:44.000Z</time></trkpt><trkpt lat="52.5283100427705" lon="13.423808472279962"><time>2023-07-16T10:42:49.000Z</time></trkpt><trkpt lat="52.52828381604286" lon="13.423912664773031"><time>2023-07-16T10:42:54.000Z</time></trkpt><trkpt lat="52.52811131305837" lon="13.424030255379593"><time>2023-07-16T10:43:13.000Z</time></trkpt><trkpt lat="52.5281895963843" lon="13.424143265995612"><time>2023-07-16T10:43:32.000Z</time></trkpt><trkpt lat="52.528746059079985" lon="13.424573760633042"><time>2023-07-16T10:44:25.000Z</time></trkpt><trkpt lat="52.52895203786979" lon="13.424781947330816"><time>2023-07-16T10:44:45.000Z</time></trkpt><trkpt lat="52.529154005136576" lon="13.42481217584958"><time>2023-07-16T10:45:12.000Z</time></trkpt><trkpt lat="52.52943484668226" lon="13.424935486778713"><time>2023-07-16T10:45:32.000Z</time></trkpt><trkpt lat="52.52956794378932" lon="13.425216584087337"><time>2023-07-16T10:45:46.000Z</time></trkpt><trkpt lat="52.52965314270653" lon="13.425320926657479"><time>2023-07-16T10:45:55.000Z</time></trkpt><trkpt lat="52.52980426909527" lon="13.425383415976789"><time>2023-07-16T10:46:16.000Z</time></trkpt><trkpt lat="52.53018651533419" lon="13.425748426219775"><time>2023-07-16T10:46:55.000Z</time></trkpt><trkpt lat="52.53041921105899" lon="13.42607599704133"><time>2023-07-16T10:47:12.000Z</time></trkpt><trkpt lat="52.530542376331795" lon="13.426316146513676"><time>2023-07-16T10:47:30.000Z</time></trkpt><trkpt lat="52.53073569237403" lon="13.42650629232632"><time>2023-07-16T10:47:46.000Z</time></trkpt><trkpt lat="52.53089942670528" lon="13.426841105072736"><time>2023-07-16T10:48:05.000Z</time></trkpt><trkpt lat="52.53124298563257" lon="13.427076959279434"><time>2023-07-16T10:48:38.000Z</time></trkpt><trkpt lat="52.53148917823183" lon="13.427455532978525"><time>2023-07-16T10:49:15.000Z</time></trkpt><trkpt lat="52.53149929756352" lon="13.427586260301728"><time>2023-07-16T10:49:32.000Z</time></trkpt><trkpt lat="52.53153624376391" lon="13.42765711223327"><time>2023-07-16T10:49:38.000Z</time></trkpt><trkpt lat="52.5319882950102" lon="13.428075132343075"><time>2023-07-16T10:49:57.000Z</time></trkpt><trkpt lat="52.532048447412464" lon="13.428200725532399"><time>2023-07-16T10:50:02.000Z</time></trkpt><trkpt lat="52.532047961413234" lon="13.428330798524469"><time>2023-07-16T10:50:14.000Z</time></trkpt><trkpt lat="52.53216636913251" lon="13.428487982631186"><time>2023-07-16T10:50:32.000Z</time></trkpt><trkpt lat="52.532785837178885" lon="13.428810130378544"><time>2023-07-16T10:51:25.000Z</time></trkpt><trkpt lat="52.53292653323429" lon="13.42907537996547"><time>2023-07-16T10:51:44.000Z</time></trkpt><trkpt lat="52.53299018499035" lon="13.429449224865664"><time>2023-07-16T10:52:01.000Z</time></trkpt><trkpt lat="52.53306151223751" lon="13.429545450095441"><time>2023-07-16T10:52:30.000Z</time></trkpt><trkpt lat="52.53331557215786" lon="13.429654813187803"><time>2023-07-16T10:52:58.000Z</time></trkpt><trkpt lat="52.53371738625277" lon="13.429937451579674"><time>2023-07-16T10:53:36.000Z</time></trkpt><trkpt lat="52.53425692585035" lon="13.430739347245703"><time>2023-07-16T10:54:40.000Z</time></trkpt><trkpt lat="52.53459058219928" lon="13.431385468514874"><time>2023-07-16T10:55:15.000Z</time></trkpt><trkpt lat="52.534796056414386" lon="13.431508599330881"><time>2023-07-16T10:55:33.000Z</time></trkpt><trkpt lat="52.534988498692016" lon="13.431832366565176"><time>2023-07-16T10:55:50.000Z</time></trkpt><trkpt lat="52.5352704199538" lon="13.43196613319666"><time>2023-07-16T10:56:18.000Z</time></trkpt><trkpt lat="52.53539315451167" lon="13.432222707326135"><time>2023-07-16T10:56:37.000Z</time></trkpt><trkpt lat="52.53551361205932" lon="13.432367416031548"><time>2023-07-16T10:56:54.000Z</time></trkpt><trkpt lat="52.535680942157406" lon="13.432474950108634"><time>2023-07-16T10:57:17.000Z</time></trkpt><trkpt lat="52.53571927685942" lon="13.432386181227677"><time>2023-07-16T10:59:06.000Z</time></trkpt><trkpt lat="52.535775699395685" lon="13.43259885707311"><time>2023-07-16T11:00:35.000Z</time></trkpt><trkpt lat="52.54134414778865" lon="13.439324067401799"><time>2023-07-16T11:09:01.000Z</time></trkpt><trkpt lat="52.54145886971332" lon="13.439422407240443"><time>2023-07-16T11:09:12.000Z</time></trkpt><trkpt lat="52.54158051876894" lon="13.439639987828501"><time>2023-07-16T11:09:26.000Z</time></trkpt><trkpt lat="52.541600536198466" lon="13.439928206323373"><time>2023-07-16T11:09:37.000Z</time></trkpt><trkpt lat="52.54172236994566" lon="13.44069430150389"><time>2023-07-16T11:10:17.000Z</time></trkpt></trkseg></trk></gpx>