<?xml version="1.0" encoding="UTF-8"?><gpx creator="Health" xsi:schemaLocation="http://www.topografix.com/GPX/1/0 http://www.topografix.com/GPX/1/0/gpx.xsd" version="1.0" xmlns="http://www.topografix.com/GPX/1/0" xmlns:xsi="http://www.w3.org/2001/XMLSchema-instance"><metadata><time>2023-03-22T08:58:04.000Z</time></metadata><trk><type>Ходьба на улице</type><extensions><totalTime>2880.0</totalTime><cumulativeDecrease>-0.10000000149011612</cumulativeDecrease><cumulativeClimb>-0.10000000149011612</cumulativeClimb><totalDistance>5580.0</totalDistance></extensions><trkseg><trkpt lat="52.53294667367885" lon="13.379864259186697"><time>2023-03-22T08:58:04.000Z</time></trkpt><trkpt lat="52.53283241462995" lon="13.380057631332841"><time>2023-03-22T08:58:22.000Z</time></trkpt><trkpt lat="52.532458295847555" lon="13.380366528838666"><time>2023-03-22T08:58:58.000Z</time></trkpt><trkpt lat="52.53226300489498" lon="13.38046281225765"><time>2023-03-22T08:59:13.000Z</time></trkpt><trkpt lat="52.532155460022956" lon="13.380810739853679"><time>2023-03-22T08:59:33.000Z</time></trkpt><trkpt lat="52.531797708134036" lon="13.381172858639893"><time>2023-03-22T09:00:04.000Z</time></trkpt><trkpt lat="52.53169892790631" lon="13.381357590153222"><time>2023-03-22T09:00:14.000Z</time></trkpt><trkpt lat="52.53152393642299" lon="13.381832936837366"><time>2023-03-22T09:00:45.000Z</time></trkpt><trkpt lat="52.531514252057875" lon="13.382097166844346"><time>2023-03-22T09:00:56.000Z</time></trkpt><trkpt lat="52.53147121495595" lon="13.38218859997753"><time>2023-03-22T09:01:01.000Z</time></trkpt><trkpt lat="52.53133827490596" lon="13.382278514601095"><time>2023-03-22T09:01:09.000Z</time></trkpt><trkpt lat="52.530995951096" lon="13.382391789495783"><time>2023-03-22T09:01:27.000Z</time></trkpt><trkpt lat="52.53067108059216" lon="13.382661313962963"><time>2023-03-22T09:01:55.000Z</time></trkpt><trkpt lat="52.5306844440646" lon="13.38316950475724"><time>2023-03-22T09:02:25.000Z</time></trkpt><trkpt lat="52.53074201947324" lon="13.383522138215977"><time>2023-03-22T09:02:34.000Z</time></trkpt><trkpt lat="52.53059505196056" lon="13.38351953634314"><time>2023-03-22T09:02:40.000Z</time></trkpt><trkpt lat="52.53054465209703" lon="13.38360412833648"><time>2023-03-22T09:02:45.000Z</time></trkpt><trkpt lat="52.53068951704493" lon="13.383953527883143"><time>2023-03-22T09:02:58.000Z</time></trkpt><trkpt lat="52.530744153186724" lon="13.384390690125592"><time>2023-03-22T09:03:12.000Z</time></trkpt><trkpt lat="52.53069127177848" lon="13.3845075491312"><time>2023-03-22T09:03:26.000Z</time></trkpt><trkpt lat="52.53063282171813" lon="13.384538760218625"><time>2023-03-22T09:03:35.000Z</time></trkpt><trkpt lat="52.53062837344741" lon="13.384609763858208"><time>2023-03-22T09:03:39.000Z</time></trkpt><trkpt lat="52.53112307249503" lon="13.385289390717162"><time>2023-03-22T09:03:59.000Z</time></trkpt><trkpt lat="52.53136882081197" lon="13.385945443408833"><time>2023-03-22T09:04:27.000Z</time></trkpt><trkpt lat="52.531403400947106" lon="13.38597610146107"><time>2023-03-22T09:04:37.000Z</time></trkpt><trkpt lat="52.53147781276925" lon="13.386327439961683"><time>2023-03-22T09:05:01.000Z</time></trkpt><trkpt lat="52.531586123591794" lon="13.386414958872253"><time>2023-03-22T09:05:58.000Z</time></trkpt><trkpt lat="52.53143165815582" lon="13.386608690889245"><time>2023-03-22T09:06:25.000Z</time></trkpt><trkpt lat="52.53146795354351" lon="13.386900125809602"><time>2023-03-22T09:06:42.000Z</time></trkpt><trkpt lat="52.53129542657407" lon="13.387710569921046"><time>2023-03-22T09:07:23.000Z</time></trkpt><trkpt lat="52.53105497317868" lon="13.38805630048421"><time>2023-03-22T09:07:50.000Z</time></trkpt><trkpt lat="52.53101252527422" lon="13.388390301114288"><time>2023-03-22T09:08:08.000Z</time></trkpt><trkpt lat="52.53100890474742" lon="13.388720738619856"><time>2023-03-22T09:08:26.000Z</time></trkpt><trkpt lat="52.53077716926627" lon="13.388867741460894"><time>2023-03-22T09:08:50.000Z</time></trkpt><trkpt lat="52.53034653940663" lon="13.388893729908936"><time>2023-03-22T09:09:17.000Z</time></trkpt><trkpt lat="52.53012469660635" lon="13.389113632416638"><time>2023-03-22T09:09:41.000Z</time></trkpt><trkpt lat="52.530017705467934" lon="13.389358840676566"><time>2023-03-22T09:10:04.000Z</time></trkpt><trkpt lat="52.52992186757983" lon="13.389269725275339"><time>2023-03-22T09:10:17.000Z</time></trkpt><trkpt lat="52.52979656892658" lon="13.389291404336497"><time>2023-03-22T09:10:26.000Z</time></trkpt><trkpt lat="52.5296479165324" lon="13.389648547327424"><time>2023-03-22T09:10:49.000Z</time></trkpt><trkpt lat="52.52945716175318" lon="13.389814211598678"><time>2023-03-22T09:11:08.000Z</time></trkpt><trkpt lat="52.52926309066663" lon="13.38991096620198"><time>2023-03-22T09:11:22.000Z</time></trkpt><trkpt lat="52.528828864011075" lon="13.390306749800759"><time>2023-03-22T09:12:01.000Z</time></trkpt><trkpt lat="52.52852668690492" lon="13.390703307822758"><time>2023-03-22T09:12:37.000Z</time></trkpt><trkpt lat="52.528141043203114" lon="13.39105467374745"><time>2023-03-22T09:13:10.000Z</time></trkpt><trkpt lat="52.52809303273894" lon="13.391175927384825"><time>2023-03-22T09:13:16.000Z</time></trkpt><trkpt lat="52.528127728746476" lon="13.391818738605993"><time>2023-03-22T09:13:39.000Z</time></trkpt><trkpt lat="52.52825650930488" lon="13.392197511212872"><time>2023-03-22T09:14:02.000Z</time></trkpt><trkpt lat="52.5282413531407" lon="13.392251448070978"><time>2023-03-22T09:14:09.000Z</time></trkpt><trkpt lat="52.52813044168192" lon="13.39231981572455"><time>2023-03-22T09:14:22.000Z</time></trkpt><trkpt lat="52.52812001670209" lon="13.39239319003242"><time>2023-03-22T09:14:28.000Z</time></trkpt><trkpt lat="52.5282536468944" lon="13.392735817131374"><time>2023-03-22T09:14:44.000Z</time></trkpt><trkpt lat="52.52835248523884" lon="13.393182872581844"><time>2023-03-22T09:15:02.000Z</time></trkpt><trkpt lat="52.528620329529666" lon="13.393743343458867"><time>2023-03-22T09:15:32.000Z</time></trkpt><trkpt lat="52.52869385883787" lon="13.393993004979755"><time>2023-03-22T09:15:45.000Z</time></trkpt><trkpt lat="52.528739402242174" lon="13.394381151054654"><time>2023-03-22T09:16:02.000Z</time></trkpt><trkpt lat="52.52875438373247" lon="13.394933394544536"><time>2023-03-22T09:16:27.000Z</time></trkpt><trkpt lat="52.52905522588457" lon="13.395787362243727"><time>2023-03-22T09:17:20.000Z</time></trkpt><trkpt lat="52.529129982865015" lon="13.396151585272044"><time>2023-03-22T09:17:37.000Z</time></trkpt><trkpt lat="52.52927185560973" lon="13.396558612865626"><time>2023-03-22T09:17:56.000Z</time></trkpt><trkpt lat="52.52930137723688" lon="13.396832880087981"><time>2023-03-22T09:18:12.000Z</time></trkpt><trkpt lat="52.529440269930824" lon="13.397320375165826"><time>2023-03-22T09:18:36.000Z</time></trkpt><trkpt lat="52.52943704595914" lon="13.397549542795975"><time>2023-03-22T09:18:49.000Z</time></trkpt><trkpt lat="52.52946016997835" lon="13.397550882810107"><time>2023-03-22T09:19:15.000Z</time></trkpt><trkpt lat="52.52946779924252" lon="13.397738791774373"><time>2023-03-22T09:19:50.000Z</time></trkpt><trkpt lat="52.5293380176273" lon="13.398744475531265"><time>2023-03-22T09:20:43.000Z</time></trkpt><trkpt lat="52.52940837705922" lon="13.39904951134127"><time>2023-03-22T09:20:59.000Z</time></trkpt><trkpt lat="52.52940235846745" lon="13.39927557710353"><time>2023-03-22T09:21:10.000Z</time></trkpt><trkpt lat="52.52946844358119" lon="13.39969047360653"><time>2023-03-22T09:21:32.000Z</time></trkpt><trkpt lat="52.52951748450915" lon="13.400580168330412"><time>2023-03-22T09:22:14.000Z</time></trkpt><trkpt lat="52.529566639585205" lon="13.40072110598867"><time>2023-03-22T09:22:21.000Z</time></trkpt><trkpt lat="52.52970432207433" lon="13.40092248926204"><time>2023-03-22T09:22:34.000Z</time></trkpt><trkpt lat="52.52974262632363" lon="13.401050326724727"><time>2023-03-22T09:23:06.000Z</time></trkpt><trkpt lat="52.52958793134025" lon="13.401190055595116"><time>2023-03-22T09:23:25.000Z</time></trkpt><trkpt lat="52.5295367974757" lon="13.401379192012"><time>2023-03-22T09:23:38.000Z</time></trkpt><trkpt lat="52.52919056433254" lon="13.40193568729819"><time>2023-03-22T09:24:09.000Z</time></trkpt><trkpt lat="52.52876556940892" lon="13.402094226630242"><time>2023-03-22T09:24:53.000Z</time></trkpt><trkpt lat="52.52853036272543" lon="13.402242150142603"><time>2023-03-22T09:25:13.000Z</time></trkpt><trkpt lat="52.527675486367364" lon="13.402875038759287"><time>2023-03-22T09:26:16.000Z</time></trkpt><trkpt lat="52.52742824455418" lon="13.403220171110725"><time>2023-03-22T09:26:39.000Z</time></trkpt><trkpt lat="52.52719853376572" lon="13.403358803138245"><time>2023-03-22T09:26:58.000Z</time></trkpt><trkpt lat="52.52696864953857" lon="13.403434689362625"><time>2023-03-22T09:27:15.000Z</time></trkpt><trkpt lat="52.526450084499196" lon="13.403747434701932"><time>2023-03-22T09:27:57.000Z</time></trkpt><trkpt lat="52.526273516493916" lon="13.403797186902164"><time>2023-03-22T09:28:09.000Z</time></trkpt><trkpt lat="52.52597105932441" lon="13.403776205025274"><time>2023-03-22T09:28:47.000Z</time></trkpt><trkpt lat="52.525936029979874" lon="13.403971898975708"><time>2023-03-22T09:29:01.000Z</time></trkpt><trkpt lat="52.525225453212855" lon="13.405688600309475"><time>2023-03-22T09:30:38.000Z</time></trkpt><trkpt lat="52.525074163903106" lon="13.405922356147073"><time>2023-03-22T09:30:57.000Z</time></trkpt><trkpt lat="52.52501077275098" lon="13.405923315611988"><time>2023-03-22T09:31:09.000Z</time></trkpt><trkpt lat="52.52499421125273" lon="13.406250161606602"><time>2023-03-22T09:31:31.000Z</time></trkpt><trkpt lat="52.525040793947895" lon="13.406485286336748"><time>2023-03-22T09:31:45.000Z</time></trkpt><trkpt lat="52.525014835767315" lon="13.406873901571272"><time>2023-03-22T09:32:03.000Z</time></trkpt><trkpt lat="52.524674205385026" lon="13.407441579787202"><time>2023-03-22T09:32:35.000Z</time></trkpt><trkpt lat="52.52451253499425" lon="13.407801484336238"><time>2023-03-22T09:32:58.000Z</time></trkpt><trkpt lat="52.52435203762005" lon="13.40846531683718"><time>2023-03-22T09:33:36.000Z</time></trkpt><trkpt lat="52.524135338261864" lon="13.408953524591091"><time>2023-03-22T09:34:05.000Z</time></trkpt><trkpt lat="52.52407525677497" lon="13.409377407451558"><time>2023-03-22T09:34:25.000Z</time></trkpt><trkpt lat="52.52394536724291" lon="13.409578027686957"><time>2023-03-22T09:34:43.000Z</time></trkpt><trkpt lat="52.5239111484449" lon="13.410319793868924"><time>2023-03-22T09:35:17.000Z</time></trkpt><trkpt lat="52.52377006877932" lon="13.41061661619375"><time>2023-03-22T09:35:38.000Z</time></trkpt><trkpt lat="52.52361649175228" lon="13.410824150224641"><time>2023-03-22T09:36:02.000Z</time></trkpt><trkpt lat="52.523523374742766" lon="13.410853253454787"><time>2023-03-22T09:36:15.000Z</time></trkpt><trkpt lat="52.52332592165635" lon="13.410663302076314"><time>2023-03-22T09:36:32.000Z</time></trkpt><trkpt lat="52.52304677306526" lon="13.410167076645997"><time>2023-03-22T09:37:05.000Z</time></trkpt><trkpt lat="52.522865481731635" lon="13.410011518170874"><time>2023-03-22T09:37:24.000Z</time></trkpt><trkpt lat="52.522738057454234" lon="13.409799919741424"><time>2023-03-22T09:38:08.000Z</time></trkpt><trkpt lat="52.522769459608064" lon="13.409797037642663"><time>2023-03-22T09:38:27.000Z</time></trkpt><trkpt lat="52.52246432345431" lon="13.410209389938865"><time>2023-03-22T09:39:06.000Z</time></trkpt><trkpt lat="52.52236357156569" lon="13.410429488468232"><time>2023-03-22T09:39:20.000Z</time></trkpt><trkpt lat="52.52229601343956" lon="13.410706923319292"><time>2023-03-22T09:39:37.000Z</time></trkpt><trkpt lat="52.5223116517185" lon="13.410779291674054"><time>2023-03-22T09:39:47.000Z</time></trkpt><trkpt lat="52.522279280619955" lon="13.411031080314057"><time>2023-03-22T09:40:30.000Z</time></trkpt><trkpt lat="52.52233564512155" lon="13.411106040194205"><time>2023-03-22T09:40:41.000Z</time></trkpt><trkpt lat="52.522302016091345" lon="13.41112468881595"><time>2023-03-22T09:40:45.000Z</time></trkpt><trkpt lat="52.52220716331555" lon="13.411031339286028"><time>2023-03-22T09:41:02.000Z</time></trkpt><trkpt lat="52.522329439985214" lon="13.411028459043036"><time>2023-03-22T09:41:28.000Z</time></trkpt><trkpt lat="52.52236777058804" lon="13.411002970395254"><time>2023-03-22T09:41:37.000Z</time></trkpt><trkpt lat="52.52235885990454" lon="13.41092632496489"><time>2023-03-22T09:41:40.000Z</time></trkpt><trkpt lat="52.522394070567856" lon="13.41094764630059"><time>2023-03-22T09:41:41.000Z</time></trkpt><trkpt lat="52.52241616272767" lon="13.411137107565594"><time>2023-03-22T09:42:04.000Z</time></trkpt><trkpt lat="52.52257192027953" lon="13.41167772697848"><time>2023-03-22T09:42:48.000Z</time></trkpt><trkpt lat="52.514285871716446" lon="13.419275488815993"><time>2023-03-22T09:44:17.000Z</time></trkpt><trkpt lat="52.51398666416569" lon="13.420197372681455"><time>2023-03-22T09:44:44.000Z</time></trkpt></trkseg></trk></gpx>