<?xml version="1.0" encoding="UTF-8"?><gpx creator="Health" xsi:schemaLocation="http://www.topografix.com/GPX/1/0 http://www.topografix.com/GPX/1/0/gpx.xsd" version="1.0" xmlns="http://www.topografix.com/GPX/1/0" xmlns:xsi="http://www.w3.org/2001/XMLSchema-instance"><metadata><time>2023-05-03T07:07:43.000Z</time></metadata><trk><type>Ходьба на улице</type><extensions><totalTime>2208.0</totalTime><cumulativeDecrease>-0.10000000149011612</cumulativeDecrease><cumulativeClimb>-0.10000000149011612</cumulativeClimb><totalDistance>2560.0</totalDistance></extensions><trkseg><trkpt lat="52.53297417126863" lon="13.379861698400484"><time>2023-05-03T07:07:43.000Z</time></trkpt><trkpt lat="52.532965584147306" lon="13.37994543587816"><time>2023-05-03T07:07:47.000Z</time></trkpt><trkpt lat="52.53289933625654" lon="13.380022112059756"><time>2023-05-03T07:07:53.000Z</time></trkpt><trkpt lat="52.53242630521006" lon="13.380353685910256"><time>2023-05-03T07:08:41.000Z</time></trkpt><trkpt lat="52.53226367781374" lon="13.380678802978139"><time>2023-05-03T07:09:01.000Z</time></trkpt><trkpt lat="52.532022110990674" lon="13.3807440017099"><time>2023-05-03T07:09:18.000Z</time></trkpt><trkpt lat="52.53180139860925" lon="13.381017905196602"><time>2023-05-03T07:09:42.000Z</time></trkpt><trkpt lat="52.53171749496792" lon="13.381205387026325"><time>2023-05-03T07:09:54.000Z</time></trkpt><trkpt lat="52.53158723046597" lon="13.381376786185903"><time>2023-05-03T07:10:07.000Z</time></trkpt><trkpt lat="52.53127347070181" lon="13.381690332985313"><time>2023-05-03T07:10:40.000Z</time></trkpt><trkpt lat="52.53124998800978" lon="13.381756904560172"><time>2023-05-03T07:10:45.000Z</time></trkpt><trkpt lat="52.53125694162343" lon="13.382033418637176"><time>2023-05-03T07:10:58.000Z</time></trkpt><trkpt lat="52.53113369638414" lon="13.382246391200777"><time>2023-05-03T07:11:11.000Z</time></trkpt><trkpt lat="52.53095232405064" lon="13.382364617814401"><time>2023-05-03T07:11:25.000Z</time></trkpt><trkpt lat="52.53068453976896" lon="13.382363593924275"><time>2023-05-03T07:11:42.000Z</time></trkpt><trkpt lat="52.530561107131874" lon="13.382482194629146"><time>2023-05-03T07:11:53.000Z</time></trkpt><trkpt lat="52.5304927066369" lon="13.382667104535384"><time>2023-05-03T07:12:03.000Z</time></trkpt><trkpt lat="52.53054681370475" lon="13.382909784505365"><time>2023-05-03T07:12:43.000Z</time></trkpt><trkpt lat="52.53036214734327" lon="13.383208857863583"><time>2023-05-03T07:13:10.000Z</time></trkpt><trkpt lat="52.5298202532701" lon="13.383571572275237"><time>2023-05-03T07:13:53.000Z</time></trkpt><trkpt lat="52.5292896699712" lon="13.384156101950941"><time>2023-05-03T07:14:44.000Z</time></trkpt><trkpt lat="52.529250543621764" lon="13.38426620443124"><time>2023-05-03T07:14:50.000Z</time></trkpt><trkpt lat="52.52924271387486" lon="13.384576774802316"><time>2023-05-03T07:15:00.000Z</time></trkpt><trkpt lat="52.52921586830619" lon="13.384679515965558"><time>2023-05-03T07:15:05.000Z</time></trkpt><trkpt lat="52.5290587331114" lon="13.384842693273322"><time>2023-05-03T07:15:22.000Z</time></trkpt><trkpt lat="52.528958596179386" lon="13.385173793227734"><time>2023-05-03T07:15:39.000Z</time></trkpt><trkpt lat="52.52873441457946" lon="13.385507488284235"><time>2023-05-03T07:16:04.000Z</time></trkpt><trkpt lat="52.52863516239616" lon="13.385733601381679"><time>2023-05-03T07:16:19.000Z</time></trkpt><trkpt lat="52.528355708082195" lon="13.386022410807833"><time>2023-05-03T07:16:45.000Z</time></trkpt><trkpt lat="52.52823576681848" lon="13.386239219597739"><time>2023-05-03T07:17:00.000Z</time></trkpt><trkpt lat="52.52814937583616" lon="13.386263088658882"><time>2023-05-03T07:17:06.000Z</time></trkpt><trkpt lat="52.52781573096448" lon="13.386161349834275"><time>2023-05-03T07:17:24.000Z</time></trkpt><trkpt lat="52.527602744876496" lon="13.386292419354241"><time>2023-05-03T07:17:43.000Z</time></trkpt><trkpt lat="52.52746725905758" lon="13.386512856244064"><time>2023-05-03T07:17:59.000Z</time></trkpt><trkpt lat="52.52736966733428" lon="13.386916574644045"><time>2023-05-03T07:18:18.000Z</time></trkpt><trkpt lat="52.52723646236018" lon="13.387257562003724"><time>2023-05-03T07:19:00.000Z</time></trkpt><trkpt lat="52.52706742098105" lon="13.38728276115805"><time>2023-05-03T07:19:17.000Z</time></trkpt><trkpt lat="52.5265717786066" lon="13.387049219121407"><time>2023-05-03T07:20:02.000Z</time></trkpt><trkpt lat="52.52646521175885" lon="13.387074469647269"><time>2023-05-03T07:20:09.000Z</time></trkpt><trkpt lat="52.5263759827681" lon="13.387173518076596"><time>2023-05-03T07:20:17.000Z</time></trkpt><trkpt lat="52.52633558078896" lon="13.387347830892999"><time>2023-05-03T07:20:27.000Z</time></trkpt><trkpt lat="52.52633559035059" lon="13.387958492085845"><time>2023-05-03T07:20:54.000Z</time></trkpt><trkpt lat="52.526182428830786" lon="13.388375371384093"><time>2023-05-03T07:21:28.000Z</time></trkpt><trkpt lat="52.52589714519036" lon="13.388677358532169"><time>2023-05-03T07:21:51.000Z</time></trkpt><trkpt lat="52.525787833609776" lon="13.388878553811251"><time>2023-05-03T07:22:03.000Z</time></trkpt><trkpt lat="52.52571654440988" lon="13.389175128158774"><time>2023-05-03T07:22:19.000Z</time></trkpt><trkpt lat="52.52563070162712" lon="13.389837686563204"><time>2023-05-03T07:22:44.000Z</time></trkpt><trkpt lat="52.525629100105554" lon="13.390060255351614"><time>2023-05-03T07:22:54.000Z</time></trkpt><trkpt lat="52.52566820638554" lon="13.390270497916783"><time>2023-05-03T07:23:11.000Z</time></trkpt><trkpt lat="52.525428592081454" lon="13.390643536289486"><time>2023-05-03T07:23:42.000Z</time></trkpt><trkpt lat="52.52515522973976" lon="13.391481224502053"><time>2023-05-03T07:24:31.000Z</time></trkpt><trkpt lat="52.52504195461856" lon="13.392355659455136"><time>2023-05-03T07:25:16.000Z</time></trkpt><trkpt lat="52.52504711380991" lon="13.392618831492905"><time>2023-05-03T07:25:26.000Z</time></trkpt><trkpt lat="52.52509336949265" lon="13.392791081629268"><time>2023-05-03T07:25:42.000Z</time></trkpt><trkpt lat="52.52505751301816" lon="13.39295810987892"><time>2023-05-03T07:26:06.000Z</time></trkpt><trkpt lat="52.52490084188568" lon="13.393352755900578"><time>2023-05-03T07:26:30.000Z</time></trkpt><trkpt lat="52.52496375351257" lon="13.393532212052294"><time>2023-05-03T07:26:39.000Z</time></trkpt><trkpt lat="52.52524026959539" lon="13.393802165870595"><time>2023-05-03T07:26:53.000Z</time></trkpt><trkpt lat="52.525045949086184" lon="13.393541205857352"><time>2023-05-03T07:27:06.000Z</time></trkpt><trkpt lat="52.52499511076736" lon="13.393602360895233"><time>2023-05-03T07:27:12.000Z</time></trkpt><trkpt lat="52.52539344270503" lon="13.39380463096767"><time>2023-05-03T07:27:20.000Z</time></trkpt><trkpt lat="52.52575497833752" lon="13.39412953586543"><time>2023-05-03T07:28:00.000Z</time></trkpt><trkpt lat="52.525487058363" lon="13.393904473415816"><time>2023-05-03T07:29:01.000Z</time></trkpt><trkpt lat="52.52541975520171" lon="13.393918000700921"><time>2023-05-03T07:29:13.000Z</time></trkpt><trkpt lat="52.52546576811987" lon="13.393811535848952"><time>2023-05-03T07:29:24.000Z</time></trkpt><trkpt lat="52.525410539733116" lon="13.393723950032545"><time>2023-05-03T07:29:30.000Z</time></trkpt><trkpt lat="52.524896207906906" lon="13.393797813660285"><time>2023-05-03T07:29:50.000Z</time></trkpt><trkpt lat="52.524742628112875" lon="13.394424828302105"><time>2023-05-03T07:30:31.000Z</time></trkpt><trkpt lat="52.524570582349355" lon="13.394782780177685"><time>2023-05-03T07:30:55.000Z</time></trkpt><trkpt lat="52.52446833471456" lon="13.395099119326584"><time>2023-05-03T07:31:11.000Z</time></trkpt><trkpt lat="52.524441862553324" lon="13.395413672144464"><time>2023-05-03T07:31:28.000Z</time></trkpt><trkpt lat="52.524295993991295" lon="13.395495288274123"><time>2023-05-03T07:31:52.000Z</time></trkpt><trkpt lat="52.524260978491185" lon="13.395315884996728"><time>2023-05-03T07:32:08.000Z</time></trkpt><trkpt lat="52.52420390246555" lon="13.395294556968327"><time>2023-05-03T07:32:16.000Z</time></trkpt><trkpt lat="52.52396794184581" lon="13.395515210383717"><time>2023-05-03T07:32:43.000Z</time></trkpt><trkpt lat="52.523759532200785" lon="13.395896463499533"><time>2023-05-03T07:33:11.000Z</time></trkpt><trkpt lat="52.523607004412206" lon="13.396419175882675"><time>2023-05-03T07:33:41.000Z</time></trkpt><trkpt lat="52.523502531932785" lon="13.397417236791576"><time>2023-05-03T07:34:35.000Z</time></trkpt><trkpt lat="52.52330515876308" lon="13.39794593793516"><time>2023-05-03T07:35:07.000Z</time></trkpt><trkpt lat="52.52321014702141" lon="13.398455431229387"><time>2023-05-03T07:35:35.000Z</time></trkpt><trkpt lat="52.52310872737562" lon="13.398717016701676"><time>2023-05-03T07:35:52.000Z</time></trkpt><trkpt lat="52.52304353711366" lon="13.399557696691318"><time>2023-05-03T07:36:40.000Z</time></trkpt><trkpt lat="52.522951510726585" lon="13.399938567308574"><time>2023-05-03T07:37:01.000Z</time></trkpt><trkpt lat="52.52286220393949" lon="13.40005158490505"><time>2023-05-03T07:37:09.000Z</time></trkpt><trkpt lat="52.522536124316304" lon="13.40026505832149"><time>2023-05-03T07:37:30.000Z</time></trkpt><trkpt lat="52.52226789775989" lon="13.400406092279782"><time>2023-05-03T07:37:52.000Z</time></trkpt><trkpt lat="52.52209235067546" lon="13.40044578138437"><time>2023-05-03T07:39:30.000Z</time></trkpt><trkpt lat="52.522244801112016" lon="13.400723324621511"><time>2023-05-03T07:39:58.000Z</time></trkpt><trkpt lat="52.52228186009102" lon="13.401354472883906"><time>2023-05-03T07:40:47.000Z</time></trkpt><trkpt lat="52.52232933032363" lon="13.401561928877431"><time>2023-05-03T07:41:26.000Z</time></trkpt><trkpt lat="52.522363887544515" lon="13.401613154298605"><time>2023-05-03T07:41:58.000Z</time></trkpt><trkpt lat="52.52237006918808" lon="13.401577188453475"><time>2023-05-03T07:42:35.000Z</time></trkpt><trkpt lat="52.522385636632634" lon="13.401649402766747"><time>2023-05-03T07:43:09.000Z</time></trkpt><trkpt lat="52.522412406592316" lon="13.401607042954488"><time>2023-05-03T07:43:59.000Z</time></trkpt><trkpt lat="52.52237786269916" lon="13.40168754381871"><time>2023-05-03T07:44:28.000Z</time></trkpt></trkseg></trk></gpx>