<?xml version="1.0" encoding="UTF-8"?><gpx creator="Health" xsi:schemaLocation="http://www.topografix.com/GPX/1/0 http://www.topografix.com/GPX/1/0/gpx.xsd" version="1.0" xmlns="http://www.topografix.com/GPX/1/0" xmlns:xsi="http://www.w3.org/2001/XMLSchema-instance"><metadata><time>2023-03-30T07:30:21.000Z</time></metadata><trk><type>Ходьба на улице</type><extensions><totalTime>884.0</totalTime><cumulativeDecrease>-0.10000000149011612</cumulativeDecrease><cumulativeClimb>-0.10000000149011612</cumulativeClimb><totalDistance>1010.0</totalDistance></extensions><trkseg><trkpt lat="52.53324625225278" lon="13.378927248974444"><time>2023-03-30T07:30:21.000Z</time></trkpt><trkpt lat="52.533249425348956" lon="13.378918043195423"><time>2023-03-30T07:30:22.000Z</time></trkpt><trkpt lat="52.533251283716254" lon="13.37890229502652"><time>2023-03-30T07:30:23.000Z</time></trkpt><trkpt lat="52.53325030519305" lon="13.378884198037621"><time>2023-03-30T07:30:24.000Z</time></trkpt><trkpt lat="52.533238453490824" lon="13.378871440985133"><time>2023-03-30T07:30:25.000Z</time></trkpt><trkpt lat="52.533257919661786" lon="13.378876186426337"><time>2023-03-30T07:30:26.000Z</time></trkpt><trkpt lat="52.53326470236952" lon="13.378872686907147"><time>2023-03-30T07:30:27.000Z</time></trkpt><trkpt lat="52.53327309200288" lon="13.37887060491193"><time>2023-03-30T07:30:28.000Z</time></trkpt><trkpt lat="52.53328322870068" lon="13.378868959130227"><time>2023-03-30T07:30:29.000Z</time></trkpt><trkpt lat="52.533295498281426" lon="13.378868493308405"><time>2023-03-30T07:30:30.000Z</time></trkpt><trkpt lat="52.53331091232706" lon="13.378869536582274"><time>2023-03-30T07:30:31.000Z</time></trkpt><trkpt lat="52.53332826431221" lon="13.378872412806073"><time>2023-03-30T07:30:32.000Z</time></trkpt><trkpt lat="52.53334630626239" lon="13.378877879173869"><time>2023-03-30T07:30:33.000Z</time></trkpt><trkpt lat="52.533364607082724" lon="13.378884946603621"><time>2023-03-30T07:30:34.000Z</time></trkpt><trkpt lat="52.53338341755277" lon="13.378893907119009"><time>2023-03-30T07:30:35.000Z</time></trkpt><trkpt lat="52.53340269420025" lon="13.378903546350516"><time>2023-03-30T07:30:36.000Z</time></trkpt><trkpt lat="52.53342218206242" lon="13.378913791902932"><time>2023-03-30T07:30:37.000Z</time></trkpt><trkpt lat="52.5334416416109" lon="13.37892449278765"><time>2023-03-30T07:30:38.000Z</time></trkpt><trkpt lat="52.53346088333683" lon="13.37893582910806"><time>2023-03-30T07:30:39.000Z</time></trkpt><trkpt lat="52.53347949120002" lon="13.378949088402873"><time>2023-03-30T07:30:40.000Z</time></trkpt><trkpt lat="52.53349735693658" lon="13.37896372556259"><time>2023-03-30T07:30:41.000Z</time></trkpt><trkpt lat="52.5335144355669" lon="13.378978889583095"><time>2023-03-30T07:30:42.000Z</time></trkpt><trkpt lat="52.53353106980132" lon="13.37899459675155"><time>2023-03-30T07:30:43.000Z</time></trkpt><trkpt lat="52.53354725514535" lon="13.379009635558289"><time>2023-03-30T07:30:44.000Z</time></trkpt><trkpt lat="52.53356298668593" lon="13.379023568656367"><time>2023-03-30T07:30:45.000Z</time></trkpt><trkpt lat="52.53357824507726" lon="13.379036328021293"><time>2023-03-30T07:30:46.000Z</time></trkpt><trkpt lat="52.533592774718734" lon="13.379047818663855"><time>2023-03-30T07:30:47.000Z</time></trkpt><trkpt lat="52.5336065176555" lon="13.379058507903794"><time>2023-03-30T07:30:48.000Z</time></trkpt><trkpt lat="52.53361953685667" lon="13.379068661745377"><time>2023-03-30T07:30:49.000Z</time></trkpt><trkpt lat="52.53363191558801" lon="13.379078481124804"><time>2023-03-30T07:30:50.000Z</time></trkpt><trkpt lat="52.533644134582396" lon="13.379088150418005"><time>2023-03-30T07:30:51.000Z</time></trkpt><trkpt lat="52.5336562304398" lon="13.379097659225245"><time>2023-03-30T07:30:52.000Z</time></trkpt><trkpt lat="52.53366828899693" lon="13.379107078529522"><time>2023-03-30T07:30:53.000Z</time></trkpt><trkpt lat="52.533680450780345" lon="13.37911636168552"><time>2023-03-30T07:30:54.000Z</time></trkpt><trkpt lat="52.53369251721835" lon="13.37912534187406"><time>2023-03-30T07:30:55.000Z</time></trkpt><trkpt lat="52.533704669051076" lon="13.379133999287035"><time>2023-03-30T07:30:56.000Z</time></trkpt><trkpt lat="52.53371701577962" lon="13.379142087984121"><time>2023-03-30T07:30:57.000Z</time></trkpt><trkpt lat="52.5337297792697" lon="13.379149471787622"><time>2023-03-30T07:30:58.000Z</time></trkpt><trkpt lat="52.533742916263684" lon="13.379155776349263"><time>2023-03-30T07:30:59.000Z</time></trkpt><trkpt lat="52.533756281584914" lon="13.379160806577415"><time>2023-03-30T07:31:00.000Z</time></trkpt><trkpt lat="52.53376974413775" lon="13.37916453466142"><time>2023-03-30T07:31:01.000Z</time></trkpt><trkpt lat="52.533782878159286" lon="13.379167183214468"><time>2023-03-30T07:31:02.000Z</time></trkpt><trkpt lat="52.53379566025592" lon="13.379168817160076"><time>2023-03-30T07:31:03.000Z</time></trkpt><trkpt lat="52.53380797596834" lon="13.37916956883712"><time>2023-03-30T07:31:04.000Z</time></trkpt><trkpt lat="52.53381964500148" lon="13.379169627147276"><time>2023-03-30T07:31:05.000Z</time></trkpt><trkpt lat="52.5338309140682" lon="13.379169166511893"><time>2023-03-30T07:31:06.000Z</time></trkpt><trkpt lat="52.53384163989357" lon="13.379168230832436"><time>2023-03-30T07:31:07.000Z</time></trkpt><trkpt lat="52.533851702253926" lon="13.379166982871807"><time>2023-03-30T07:31:08.000Z</time></trkpt><trkpt lat="52.533861131069784" lon="13.37916561596788"><time>2023-03-30T07:31:09.000Z</time></trkpt><trkpt lat="52.53386997930045" lon="13.37916449560293"><time>2023-03-30T07:31:10.000Z</time></trkpt><trkpt lat="52.53387838513499" lon="13.379164585081593"><time>2023-03-30T07:31:11.000Z</time></trkpt><trkpt lat="52.53388639442373" lon="13.379166399683278"><time>2023-03-30T07:31:12.000Z</time></trkpt><trkpt lat="52.533894334751785" lon="13.379170211725006"><time>2023-03-30T07:31:13.000Z</time></trkpt><trkpt lat="52.5339021487681" lon="13.379176275295471"><time>2023-03-30T07:31:14.000Z</time></trkpt><trkpt lat="52.533909856168606" lon="13.379184614031374"><time>2023-03-30T07:31:15.000Z</time></trkpt><trkpt lat="52.533917481380264" lon="13.379195227853403"><time>2023-03-30T07:31:16.000Z</time></trkpt><trkpt lat="52.53392488463285" lon="13.379208157552057"><time>2023-03-30T07:31:17.000Z</time></trkpt><trkpt lat="52.533932137881294" lon="13.37922317675592"><time>2023-03-30T07:31:18.000Z</time></trkpt><trkpt lat="52.53393910005434" lon="13.379239628025157"><time>2023-03-30T07:31:19.000Z</time></trkpt><trkpt lat="52.53394552309767" lon="13.379257780409757"><time>2023-03-30T07:31:20.000Z</time></trkpt><trkpt lat="52.53395137881198" lon="13.3792774712773"><time>2023-03-30T07:31:21.000Z</time></trkpt><trkpt lat="52.53395660667768" lon="13.3792979131516"><time>2023-03-30T07:31:22.000Z</time></trkpt><trkpt lat="52.53396100703992" lon="13.37931872432781"><time>2023-03-30T07:31:23.000Z</time></trkpt><trkpt lat="52.53396462878373" lon="13.37933942777657"><time>2023-03-30T07:31:24.000Z</time></trkpt><trkpt lat="52.53396746775704" lon="13.37935965425993"><time>2023-03-30T07:31:25.000Z</time></trkpt><trkpt lat="52.533969459755035" lon="13.379379000465134"><time>2023-03-30T07:31:26.000Z</time></trkpt><trkpt lat="52.533970705965324" lon="13.379397135176582"><time>2023-03-30T07:31:27.000Z</time></trkpt><trkpt lat="52.53397150588575" lon="13.379413757055211"><time>2023-03-30T07:31:28.000Z</time></trkpt><trkpt lat="52.53397177519228" lon="13.379428814335155"><time>2023-03-30T07:31:29.000Z</time></trkpt><trkpt lat="52.53397167282194" lon="13.379442960662196"><time>2023-03-30T07:31:30.000Z</time></trkpt><trkpt lat="52.53397137371007" lon="13.379456032661984"><time>2023-03-30T07:31:31.000Z</time></trkpt><trkpt lat="52.53397103402354" lon="13.379467913514661"><time>2023-03-30T07:31:32.000Z</time></trkpt><trkpt lat="52.53397080305064" lon="13.379478519331578"><time>2023-03-30T07:31:33.000Z</time></trkpt><trkpt lat="52.53397111876463" lon="13.37948733311411"><time>2023-03-30T07:31:34.000Z</time></trkpt><trkpt lat="52.53397173098222" lon="13.379494447167907"><time>2023-03-30T07:31:35.000Z</time></trkpt><trkpt lat="52.53397274407823" lon="13.379499480440508"><time>2023-03-30T07:31:36.000Z</time></trkpt><trkpt lat="52.53397429765477" lon="13.379502590204574"><time>2023-03-30T07:31:37.000Z</time></trkpt><trkpt lat="52.53397638600354" lon="13.379504179872635"><time>2023-03-30T07:31:38.000Z</time></trkpt><trkpt lat="52.533978868489015" lon="13.379504572156298"><time>2023-03-30T07:31:39.000Z</time></trkpt><trkpt lat="52.53398169155741" lon="13.37950416533091"><time>2023-03-30T07:31:40.000Z</time></trkpt><trkpt lat="52.53398484689833" lon="13.379503015491087"><time>2023-03-30T07:31:41.000Z</time></trkpt><trkpt lat="52.533988270643135" lon="13.379501242598355"><time>2023-03-30T07:31:42.000Z</time></trkpt><trkpt lat="52.53399176824773" lon="13.379498964782458"><time>2023-03-30T07:31:43.000Z</time></trkpt><trkpt lat="52.53399478560502" lon="13.37949698521001"><time>2023-03-30T07:31:44.000Z</time></trkpt><trkpt lat="52.53399697863359" lon="13.379496090003817"><time>2023-03-30T07:31:45.000Z</time></trkpt><trkpt lat="52.53399846070341" lon="13.37949661474916"><time>2023-03-30T07:31:46.000Z</time></trkpt><trkpt lat="52.533999147745675" lon="13.379499377379506"><time>2023-03-30T07:31:47.000Z</time></trkpt><trkpt lat="52.53399900036848" lon="13.37950487213431"><time>2023-03-30T07:31:48.000Z</time></trkpt><trkpt lat="52.53399789264606" lon="13.379513458064132"><time>2023-03-30T07:31:49.000Z</time></trkpt><trkpt lat="52.53399584243173" lon="13.379524917810652"><time>2023-03-30T07:31:50.000Z</time></trkpt><trkpt lat="52.533993322284935" lon="13.379539956304553"><time>2023-03-30T07:31:51.000Z</time></trkpt><trkpt lat="52.53399066503221" lon="13.379558895244331"><time>2023-03-30T07:31:52.000Z</time></trkpt><trkpt lat="52.53398845291153" lon="13.37958158471517"><time>2023-03-30T07:31:53.000Z</time></trkpt><trkpt lat="52.53398753210135" lon="13.379606981105498"><time>2023-03-30T07:31:54.000Z</time></trkpt><trkpt lat="52.53398866962913" lon="13.379634009883391"><time>2023-03-30T07:31:55.000Z</time></trkpt><trkpt lat="52.53399182367525" lon="13.379661819524108"><time>2023-03-30T07:31:56.000Z</time></trkpt><trkpt lat="52.53399732156958" lon="13.37969050782354"><time>2023-03-30T07:31:57.000Z</time></trkpt><trkpt lat="52.5340048150724" lon="13.379718968781935"><time>2023-03-30T07:31:58.000Z</time></trkpt><trkpt lat="52.53401413954459" lon="13.379746956996222"><time>2023-03-30T07:31:59.000Z</time></trkpt><trkpt lat="52.53402514206246" lon="13.379773495587104"><time>2023-03-30T07:32:00.000Z</time></trkpt><trkpt lat="52.53403757181402" lon="13.37979772846573"><time>2023-03-30T07:32:01.000Z</time></trkpt><trkpt lat="52.534050736110906" lon="13.379818482741443"><time>2023-03-30T07:32:02.000Z</time></trkpt><trkpt lat="52.53406427514736" lon="13.379835200210659"><time>2023-03-30T07:32:03.000Z</time></trkpt><trkpt lat="52.53407775322849" lon="13.379847875050547"><time>2023-03-30T07:32:04.000Z</time></trkpt><trkpt lat="52.534090330232736" lon="13.379857542491495"><time>2023-03-30T07:32:05.000Z</time></trkpt><trkpt lat="52.53410175381673" lon="13.379864555213748"><time>2023-03-30T07:32:06.000Z</time></trkpt><trkpt lat="52.53411223584257" lon="13.379869598376972"><time>2023-03-30T07:32:07.000Z</time></trkpt><trkpt lat="52.53412162160001" lon="13.379872354606304"><time>2023-03-30T07:32:08.000Z</time></trkpt><trkpt lat="52.53413036116373" lon="13.379873759381644"><time>2023-03-30T07:32:09.000Z</time></trkpt><trkpt lat="52.53413849241294" lon="13.379873718161338"><time>2023-03-30T07:32:10.000Z</time></trkpt><trkpt lat="52.534146375116045" lon="13.379872825395823"><time>2023-03-30T07:32:11.000Z</time></trkpt><trkpt lat="52.53415434937042" lon="13.37987219560931"><time>2023-03-30T07:32:12.000Z</time></trkpt><trkpt lat="52.53416277147092" lon="13.37987226871702"><time>2023-03-30T07:32:13.000Z</time></trkpt><trkpt lat="52.534171769621686" lon="13.379873365721581"><time>2023-03-30T07:32:14.000Z</time></trkpt><trkpt lat="52.534181332063675" lon="13.37987563431203"><time>2023-03-30T07:32:15.000Z</time></trkpt><trkpt lat="52.5341916047859" lon="13.379879061246294"><time>2023-03-30T07:32:16.000Z</time></trkpt><trkpt lat="52.53420262200104" lon="13.379883684592777"><time>2023-03-30T07:32:17.000Z</time></trkpt><trkpt lat="52.53421412931146" lon="13.379889189673124"><time>2023-03-30T07:32:18.000Z</time></trkpt><trkpt lat="52.53422618940928" lon="13.37989566321576"><time>2023-03-30T07:32:19.000Z</time></trkpt><trkpt lat="52.534238990109365" lon="13.379902887667935"><time>2023-03-30T07:32:20.000Z</time></trkpt><trkpt lat="52.534252484145206" lon="13.37991059426875"><time>2023-03-30T07:32:21.000Z</time></trkpt><trkpt lat="52.53426619211607" lon="13.379920340701641"><time>2023-03-30T07:32:22.000Z</time></trkpt><trkpt lat="52.53427933046088" lon="13.379932735293592"><time>2023-03-30T07:32:23.000Z</time></trkpt><trkpt lat="52.53429162524169" lon="13.379947979530852"><time>2023-03-30T07:32:24.000Z</time></trkpt><trkpt lat="52.53430273590673" lon="13.379966057633453"><time>2023-03-30T07:32:25.000Z</time></trkpt><trkpt lat="52.534312546315896" lon="13.379986310690505"><time>2023-03-30T07:32:26.000Z</time></trkpt><trkpt lat="52.53432136071051" lon="13.380008938643005"><time>2023-03-30T07:32:27.000Z</time></trkpt><trkpt lat="52.53432895182777" lon="13.380033272111252"><time>2023-03-30T07:32:28.000Z</time></trkpt><trkpt lat="52.53433590354902" lon="13.380059537172455"><time>2023-03-30T07:32:29.000Z</time></trkpt><trkpt lat="52.53434200991348" lon="13.380087660800768"><time>2023-03-30T07:32:30.000Z</time></trkpt><trkpt lat="52.53434689351104" lon="13.380117220846227"><time>2023-03-30T07:32:31.000Z</time></trkpt><trkpt lat="52.534350987229125" lon="13.380148607428122"><time>2023-03-30T07:32:32.000Z</time></trkpt><trkpt lat="52.53435478817862" lon="13.380180220946839"><time>2023-03-30T07:32:33.000Z</time></trkpt><trkpt lat="52.534358846370544" lon="13.380210763965607"><time>2023-03-30T07:32:34.000Z</time></trkpt><trkpt lat="52.534363268875154" lon="13.380240189605034"><time>2023-03-30T07:32:35.000Z</time></trkpt><trkpt lat="52.53436817508196" lon="13.38026781554011"><time>2023-03-30T07:32:36.000Z</time></trkpt><trkpt lat="52.53437315583331" lon="13.380294326152763"><time>2023-03-30T07:32:37.000Z</time></trkpt><trkpt lat="52.53437768415069" lon="13.38031958928832"><time>2023-03-30T07:32:38.000Z</time></trkpt><trkpt lat="52.53438182557727" lon="13.380344382094863"><time>2023-03-30T07:32:39.000Z</time></trkpt><trkpt lat="52.53438526913008" lon="13.38036869933287"><time>2023-03-30T07:32:40.000Z</time></trkpt><trkpt lat="52.53438812167391" lon="13.380391787524207"><time>2023-03-30T07:32:41.000Z</time></trkpt><trkpt lat="52.53439052779092" lon="13.38041415569054"><time>2023-03-30T07:32:42.000Z</time></trkpt><trkpt lat="52.53439233302607" lon="13.380435558710216"><time>2023-03-30T07:32:43.000Z</time></trkpt><trkpt lat="52.53439340791778" lon="13.380455922206577"><time>2023-03-30T07:32:44.000Z</time></trkpt><trkpt lat="52.534393929125685" lon="13.38047587835053"><time>2023-03-30T07:32:45.000Z</time></trkpt><trkpt lat="52.53439405556193" lon="13.380495216650399"><time>2023-03-30T07:32:46.000Z</time></trkpt><trkpt lat="52.53439403382419" lon="13.380514520555666"><time>2023-03-30T07:32:47.000Z</time></trkpt><trkpt lat="52.5343943730127" lon="13.380533534977314"><time>2023-03-30T07:32:48.000Z</time></trkpt><trkpt lat="52.534395091192486" lon="13.380551584661646"><time>2023-03-30T07:32:49.000Z</time></trkpt><trkpt lat="52.5343965115911" lon="13.380568283910215"><time>2023-03-30T07:32:50.000Z</time></trkpt><trkpt lat="52.53439863026188" lon="13.38058331349079"><time>2023-03-30T07:32:51.000Z</time></trkpt><trkpt lat="52.534401358934176" lon="13.380597235782194"><time>2023-03-30T07:32:52.000Z</time></trkpt><trkpt lat="52.534404592386565" lon="13.3806100201762"><time>2023-03-30T07:32:53.000Z</time></trkpt><trkpt lat="52.534408108952555" lon="13.380621749563694"><time>2023-03-30T07:32:54.000Z</time></trkpt><trkpt lat="52.5344117732132" lon="13.380632474538817"><time>2023-03-30T07:32:55.000Z</time></trkpt><trkpt lat="52.53441554478686" lon="13.380642086504276"><time>2023-03-30T07:32:56.000Z</time></trkpt><trkpt lat="52.53441923521123" lon="13.380650399999393"><time>2023-03-30T07:32:57.000Z</time></trkpt><trkpt lat="52.5344227065276" lon="13.380657302282334"><time>2023-03-30T07:32:58.000Z</time></trkpt><trkpt lat="52.534425918958114" lon="13.38066288381673"><time>2023-03-30T07:32:59.000Z</time></trkpt><trkpt lat="52.53442907557517" lon="13.380667693033224"><time>2023-03-30T07:33:00.000Z</time></trkpt><trkpt lat="52.534431810609426" lon="13.380672114463657"><time>2023-03-30T07:33:01.000Z</time></trkpt><trkpt lat="52.534434108498345" lon="13.380676243442766"><time>2023-03-30T07:33:02.000Z</time></trkpt><trkpt lat="52.534436048859874" lon="13.380680069235682"><time>2023-03-30T07:33:03.000Z</time></trkpt><trkpt lat="52.53443769497746" lon="13.380683654685969"><time>2023-03-30T07:33:04.000Z</time></trkpt><trkpt lat="52.53443910026174" lon="13.380687142867384"><time>2023-03-30T07:33:05.000Z</time></trkpt><trkpt lat="52.534440551636024" lon="13.380690694741743"><time>2023-03-30T07:33:06.000Z</time></trkpt><trkpt lat="52.53444208845483" lon="13.380694460249448"><time>2023-03-30T07:33:07.000Z</time></trkpt><trkpt lat="52.53444378052548" lon="13.380699079277418"><time>2023-03-30T07:33:08.000Z</time></trkpt><trkpt lat="52.534445635853324" lon="13.380705061113382"><time>2023-03-30T07:33:09.000Z</time></trkpt><trkpt lat="52.53444753948727" lon="13.380712807542752"><time>2023-03-30T07:33:10.000Z</time></trkpt><trkpt lat="52.534449214439114" lon="13.380722728527472"><time>2023-03-30T07:33:11.000Z</time></trkpt><trkpt lat="52.534450418518524" lon="13.38073505030848"><time>2023-03-30T07:33:12.000Z</time></trkpt><trkpt lat="52.53445105588517" lon="13.380749915826504"><time>2023-03-30T07:33:13.000Z</time></trkpt><trkpt lat="52.534451141180305" lon="13.380768110160545"><time>2023-03-30T07:33:14.000Z</time></trkpt><trkpt lat="52.53445079149642" lon="13.38079013242629"><time>2023-03-30T07:33:15.000Z</time></trkpt><trkpt lat="52.53445014021063" lon="13.38081620386053"><time>2023-03-30T07:33:16.000Z</time></trkpt><trkpt lat="52.534449337781524" lon="13.380846363135442"><time>2023-03-30T07:33:17.000Z</time></trkpt><trkpt lat="52.53444886393352" lon="13.380880383160708"><time>2023-03-30T07:33:18.000Z</time></trkpt><trkpt lat="52.53444925152774" lon="13.380917347163155"><time>2023-03-30T07:33:19.000Z</time></trkpt><trkpt lat="52.534450501622445" lon="13.380955788393715"><time>2023-03-30T07:33:20.000Z</time></trkpt><trkpt lat="52.53445307570275" lon="13.38099454600138"><time>2023-03-30T07:33:21.000Z</time></trkpt><trkpt lat="52.534457281159824" lon="13.381032533174102"><time>2023-03-30T07:33:22.000Z</time></trkpt><trkpt lat="52.534463260359715" lon="13.381069080460541"><time>2023-03-30T07:33:23.000Z</time></trkpt><trkpt lat="52.53447089613522" lon="13.38110397523023"><time>2023-03-30T07:33:24.000Z</time></trkpt><trkpt lat="52.5344800782787" lon="13.381136155149516"><time>2023-03-30T07:33:25.000Z</time></trkpt><trkpt lat="52.53449059471641" lon="13.381164812206249"><time>2023-03-30T07:33:26.000Z</time></trkpt><trkpt lat="52.534502004792124" lon="13.381189355316797"><time>2023-03-30T07:33:27.000Z</time></trkpt><trkpt lat="52.53451394512692" lon="13.38120923214134"><time>2023-03-30T07:33:28.000Z</time></trkpt><trkpt lat="52.53452587918689" lon="13.381224492680474"><time>2023-03-30T07:33:29.000Z</time></trkpt><trkpt lat="52.53453707594384" lon="13.381235569460877"><time>2023-03-30T07:33:30.000Z</time></trkpt><trkpt lat="52.53454769470832" lon="13.38124303621027"><time>2023-03-30T07:33:31.000Z</time></trkpt><trkpt lat="52.53455758649088" lon="13.38124810227594"><time>2023-03-30T07:33:32.000Z</time></trkpt><trkpt lat="52.53456659586534" lon="13.381251465066983"><time>2023-03-30T07:33:33.000Z</time></trkpt><trkpt lat="52.53457502031267" lon="13.381253315109637"><time>2023-03-30T07:33:34.000Z</time></trkpt><trkpt lat="52.53458319807518" lon="13.381253964401093"><time>2023-03-30T07:33:35.000Z</time></trkpt><trkpt lat="52.53459134121417" lon="13.381253736481863"><time>2023-03-30T07:33:36.000Z</time></trkpt><trkpt lat="52.53459968141217" lon="13.381252835058854"><time>2023-03-30T07:33:37.000Z</time></trkpt><trkpt lat="52.53460846469415" lon="13.381251444743366"><time>2023-03-30T07:33:38.000Z</time></trkpt><trkpt lat="52.53461793592725" lon="13.38124992867934"><time>2023-03-30T07:33:39.000Z</time></trkpt><trkpt lat="52.53462826230286" lon="13.381248346036536"><time>2023-03-30T07:33:40.000Z</time></trkpt><trkpt lat="52.534639801298596" lon="13.381246770823212"><time>2023-03-30T07:33:41.000Z</time></trkpt><trkpt lat="52.53465249080128" lon="13.381245745022943"><time>2023-03-30T07:33:42.000Z</time></trkpt><trkpt lat="52.534666208215484" lon="13.381244859871106"><time>2023-03-30T07:33:43.000Z</time></trkpt><trkpt lat="52.534681059042754" lon="13.381244198606526"><time>2023-03-30T07:33:44.000Z</time></trkpt><trkpt lat="52.53469668487171" lon="13.38124390746509"><time>2023-03-30T07:33:45.000Z</time></trkpt><trkpt lat="52.53471314911035" lon="13.38124406921488"><time>2023-03-30T07:33:46.000Z</time></trkpt><trkpt lat="52.53473046534165" lon="13.381244835024308"><time>2023-03-30T07:33:47.000Z</time></trkpt><trkpt lat="52.53474861369536" lon="13.38124634705636"><time>2023-03-30T07:33:48.000Z</time></trkpt><trkpt lat="52.534767811250155" lon="13.381248621725472"><time>2023-03-30T07:33:49.000Z</time></trkpt><trkpt lat="52.5347879279406" lon="13.381251663657162"><time>2023-03-30T07:33:50.000Z</time></trkpt><trkpt lat="52.5348084732979" lon="13.381255391495564"><time>2023-03-30T07:33:51.000Z</time></trkpt><trkpt lat="52.53482951725386" lon="13.381259656446428"><time>2023-03-30T07:33:52.000Z</time></trkpt><trkpt lat="52.534851028135606" lon="13.3812642662643"><time>2023-03-30T07:33:53.000Z</time></trkpt><trkpt lat="52.53487290882049" lon="13.381269103837665"><time>2023-03-30T07:33:54.000Z</time></trkpt><trkpt lat="52.53489499920117" lon="13.38127412411891"><time>2023-03-30T07:33:55.000Z</time></trkpt><trkpt lat="52.53491740306106" lon="13.38127929949821"><time>2023-03-30T07:33:56.000Z</time></trkpt><trkpt lat="52.53493975064683" lon="13.381284555967307"><time>2023-03-30T07:33:57.000Z</time></trkpt><trkpt lat="52.53496168119407" lon="13.381289291717922"><time>2023-03-30T07:33:58.000Z</time></trkpt><trkpt lat="52.534982711168645" lon="13.38129336610162"><time>2023-03-30T07:33:59.000Z</time></trkpt><trkpt lat="52.53500262712732" lon="13.381296256250893"><time>2023-03-30T07:34:00.000Z</time></trkpt><trkpt lat="52.535021135573146" lon="13.381297370631842"><time>2023-03-30T07:34:01.000Z</time></trkpt><trkpt lat="52.53503840044809" lon="13.381296431713501"><time>2023-03-30T07:34:02.000Z</time></trkpt><trkpt lat="52.53505433353125" lon="13.381293579939637"><time>2023-03-30T07:34:03.000Z</time></trkpt><trkpt lat="52.53506877715551" lon="13.381288828409055"><time>2023-03-30T07:34:04.000Z</time></trkpt><trkpt lat="52.53508179390713" lon="13.381282431770739"><time>2023-03-30T07:34:05.000Z</time></trkpt><trkpt lat="52.53509348150638" lon="13.38127442487979"><time>2023-03-30T07:34:06.000Z</time></trkpt><trkpt lat="52.53510396801423" lon="13.381264873373508"><time>2023-03-30T07:34:07.000Z</time></trkpt><trkpt lat="52.53511340376476" lon="13.381253733166226"><time>2023-03-30T07:34:08.000Z</time></trkpt><trkpt lat="52.535122025619714" lon="13.381241502401453"><time>2023-03-30T07:34:09.000Z</time></trkpt><trkpt lat="52.535130124038204" lon="13.381227993254585"><time>2023-03-30T07:34:10.000Z</time></trkpt><trkpt lat="52.53513776941267" lon="13.381213677303121"><time>2023-03-30T07:34:11.000Z</time></trkpt><trkpt lat="52.53514502065666" lon="13.381198713636149"><time>2023-03-30T07:34:12.000Z</time></trkpt><trkpt lat="52.53515198754204" lon="13.38118352585679"><time>2023-03-30T07:34:13.000Z</time></trkpt><trkpt lat="52.535158419462235" lon="13.381167712670829"><time>2023-03-30T07:34:14.000Z</time></trkpt><trkpt lat="52.535164481417446" lon="13.381151368471546"><time>2023-03-30T07:34:15.000Z</time></trkpt><trkpt lat="52.53517027882205" lon="13.381134480978801"><time>2023-03-30T07:34:16.000Z</time></trkpt><trkpt lat="52.53517616889221" lon="13.381117543239856"><time>2023-03-30T07:34:17.000Z</time></trkpt><trkpt lat="52.53518220549916" lon="13.381101014183667"><time>2023-03-30T07:34:18.000Z</time></trkpt><trkpt lat="52.5351887453611" lon="13.381085714368579"><time>2023-03-30T07:34:19.000Z</time></trkpt><trkpt lat="52.53519580958079" lon="13.381071789007143"><time>2023-03-30T07:34:20.000Z</time></trkpt><trkpt lat="52.53520344675069" lon="13.381059602553178"><time>2023-03-30T07:34:21.000Z</time></trkpt><trkpt lat="52.53521158932943" lon="13.381049265752996"><time>2023-03-30T07:34:22.000Z</time></trkpt><trkpt lat="52.535220271156156" lon="13.381041127505581"><time>2023-03-30T07:34:23.000Z</time></trkpt><trkpt lat="52.53522941758051" lon="13.381035308872557"><time>2023-03-30T07:34:24.000Z</time></trkpt><trkpt lat="52.53523906701084" lon="13.381032247701993"><time>2023-03-30T07:34:25.000Z</time></trkpt><trkpt lat="52.53524911434402" lon="13.381032177439176"><time>2023-03-30T07:34:26.000Z</time></trkpt><trkpt lat="52.53525932591794" lon="13.381034936764122"><time>2023-03-30T07:34:27.000Z</time></trkpt><trkpt lat="52.535269272356096" lon="13.381040034758131"><time>2023-03-30T07:34:28.000Z</time></trkpt><trkpt lat="52.53527891988158" lon="13.381046963494521"><time>2023-03-30T07:34:29.000Z</time></trkpt><trkpt lat="52.53528785266349" lon="13.381054903909028"><time>2023-03-30T07:34:30.000Z</time></trkpt><trkpt lat="52.535296025221875" lon="13.381063731890462"><time>2023-03-30T07:34:31.000Z</time></trkpt><trkpt lat="52.53530346849507" lon="13.381073298685504"><time>2023-03-30T07:34:32.000Z</time></trkpt><trkpt lat="52.53531027624422" lon="13.381083533355934"><time>2023-03-30T07:34:33.000Z</time></trkpt><trkpt lat="52.53531652349318" lon="13.381094398774819"><time>2023-03-30T07:34:34.000Z</time></trkpt><trkpt lat="52.53532233805392" lon="13.381105737695083"><time>2023-03-30T07:34:35.000Z</time></trkpt><trkpt lat="52.53532783980774" lon="13.381117560432044"><time>2023-03-30T07:34:36.000Z</time></trkpt><trkpt lat="52.53533318476593" lon="13.381129717270426"><time>2023-03-30T07:34:37.000Z</time></trkpt><trkpt lat="52.53533841600558" lon="13.381142053316854"><time>2023-03-30T07:34:38.000Z</time></trkpt><trkpt lat="52.53534373639987" lon="13.381154596774694"><time>2023-03-30T07:34:39.000Z</time></trkpt><trkpt lat="52.53534917687466" lon="13.38116745540209"><time>2023-03-30T07:34:40.000Z</time></trkpt><trkpt lat="52.53535486107117" lon="13.381180609489439"><time>2023-03-30T07:34:41.000Z</time></trkpt><trkpt lat="52.53536081891927" lon="13.381194063518985"><time>2023-03-30T07:34:42.000Z</time></trkpt><trkpt lat="52.53536707408644" lon="13.381207840434104"><time>2023-03-30T07:34:43.000Z</time></trkpt><trkpt lat="52.53537365881826" lon="13.381221972367808"><time>2023-03-30T07:34:44.000Z</time></trkpt><trkpt lat="52.53538047696318" lon="13.381236208048152"><time>2023-03-30T07:34:45.000Z</time></trkpt><trkpt lat="52.5353876027607" lon="13.38125055946873"><time>2023-03-30T07:34:46.000Z</time></trkpt><trkpt lat="52.53539498130622" lon="13.381264893083115"><time>2023-03-30T07:34:47.000Z</time></trkpt><trkpt lat="52.53540243323218" lon="13.381279115132513"><time>2023-03-30T07:34:48.000Z</time></trkpt><trkpt lat="52.53540997692728" lon="13.381293326354928"><time>2023-03-30T07:34:49.000Z</time></trkpt><trkpt lat="52.53541743604936" lon="13.381307434055843"><time>2023-03-30T07:34:50.000Z</time></trkpt><trkpt lat="52.53542468149164" lon="13.381321275073248"><time>2023-03-30T07:34:51.000Z</time></trkpt><trkpt lat="52.53543165209958" lon="13.381334880557743"><time>2023-03-30T07:34:52.000Z</time></trkpt><trkpt lat="52.53543815782354" lon="13.381348345966876"><time>2023-03-30T07:34:53.000Z</time></trkpt><trkpt lat="52.53544416634325" lon="13.381361577726052"><time>2023-03-30T07:34:54.000Z</time></trkpt><trkpt lat="52.53544973528987" lon="13.381374445256547"><time>2023-03-30T07:34:55.000Z</time></trkpt><trkpt lat="52.53545502238035" lon="13.38138712475777"><time>2023-03-30T07:34:56.000Z</time></trkpt><trkpt lat="52.53545999391245" lon="13.381399518336611"><time>2023-03-30T07:34:57.000Z</time></trkpt><trkpt lat="52.53546485653171" lon="13.381411471181558"><time>2023-03-30T07:34:58.000Z</time></trkpt><trkpt lat="52.535469595173616" lon="13.38142307817708"><time>2023-03-30T07:34:59.000Z</time></trkpt><trkpt lat="52.53547414040436" lon="13.38143468179557"><time>2023-03-30T07:35:00.000Z</time></trkpt><trkpt lat="52.535478382016315" lon="13.381446580485136"><time>2023-03-30T07:35:01.000Z</time></trkpt><trkpt lat="52.53548235673704" lon="13.381459076173265"><time>2023-03-30T07:35:02.000Z</time></trkpt><trkpt lat="52.53548609401087" lon="13.381472274591886"><time>2023-03-30T07:35:03.000Z</time></trkpt><trkpt lat="52.53548973096238" lon="13.381486151692407"><time>2023-03-30T07:35:04.000Z</time></trkpt><trkpt lat="52.53549324244254" lon="13.381500451556901"><time>2023-03-30T07:35:05.000Z</time></trkpt><trkpt lat="52.53549670498164" lon="13.381515307445255"><time>2023-03-30T07:35:06.000Z</time></trkpt><trkpt lat="52.53550018125311" lon="13.381530779182174"><time>2023-03-30T07:35:07.000Z</time></trkpt><trkpt lat="52.53550360163642" lon="13.381546888196487"><time>2023-03-30T07:35:08.000Z</time></trkpt><trkpt lat="52.535506841581494" lon="13.381563700432496"><time>2023-03-30T07:35:09.000Z</time></trkpt><trkpt lat="52.53551003209997" lon="13.381581111365819"><time>2023-03-30T07:35:10.000Z</time></trkpt><trkpt lat="52.53551323264071" lon="13.381598675964513"><time>2023-03-30T07:35:11.000Z</time></trkpt><trkpt lat="52.53551652585945" lon="13.381616098993765"><time>2023-03-30T07:35:12.000Z</time></trkpt><trkpt lat="52.53551993812535" lon="13.381633091768164"><time>2023-03-30T07:35:13.000Z</time></trkpt><trkpt lat="52.53552343795227" lon="13.381649385066305"><time>2023-03-30T07:35:14.000Z</time></trkpt><trkpt lat="52.53552700857005" lon="13.381664820392636"><time>2023-03-30T07:35:15.000Z</time></trkpt><trkpt lat="52.535530643828366" lon="13.38167964848696"><time>2023-03-30T07:35:16.000Z</time></trkpt><trkpt lat="52.535534228265675" lon="13.381693849127998"><time>2023-03-30T07:35:17.000Z</time></trkpt><trkpt lat="52.535537663402266" lon="13.381707419184313"><time>2023-03-30T07:35:18.000Z</time></trkpt><trkpt lat="52.53554105899757" lon="13.38172046473577"><time>2023-03-30T07:35:19.000Z</time></trkpt><trkpt lat="52.53554441780306" lon="13.381733057457403"><time>2023-03-30T07:35:20.000Z</time></trkpt><trkpt lat="52.53554773191294" lon="13.381745205044753"><time>2023-03-30T07:35:21.000Z</time></trkpt><trkpt lat="52.53555106908027" lon="13.381757003180514"><time>2023-03-30T07:35:22.000Z</time></trkpt><trkpt lat="52.53555455563548" lon="13.381768428082164"><time>2023-03-30T07:35:23.000Z</time></trkpt><trkpt lat="52.53555815640723" lon="13.38177944749389"><time>2023-03-30T07:35:24.000Z</time></trkpt><trkpt lat="52.53556187957518" lon="13.381790133622866"><time>2023-03-30T07:35:25.000Z</time></trkpt><trkpt lat="52.53556578440146" lon="13.38180054789021"><time>2023-03-30T07:35:26.000Z</time></trkpt><trkpt lat="52.53556993421937" lon="13.381810753170193"><time>2023-03-30T07:35:27.000Z</time></trkpt><trkpt lat="52.535574348600335" lon="13.38182084731499"><time>2023-03-30T07:35:28.000Z</time></trkpt><trkpt lat="52.535579223159175" lon="13.381830973081124"><time>2023-03-30T07:35:29.000Z</time></trkpt><trkpt lat="52.535584588423355" lon="13.381841229712522"><time>2023-03-30T07:35:30.000Z</time></trkpt><trkpt lat="52.535590329603636" lon="13.381851500998208"><time>2023-03-30T07:35:31.000Z</time></trkpt><trkpt lat="52.53559645907535" lon="13.381862084547157"><time>2023-03-30T07:35:32.000Z</time></trkpt><trkpt lat="52.535603010802156" lon="13.38187310023391"><time>2023-03-30T07:35:33.000Z</time></trkpt><trkpt lat="52.535609907867794" lon="13.381884646012981"><time>2023-03-30T07:35:34.000Z</time></trkpt><trkpt lat="52.53561712733931" lon="13.381896881137202"><time>2023-03-30T07:35:35.000Z</time></trkpt><trkpt lat="52.535624648524774" lon="13.3819098180095"><time>2023-03-30T07:35:36.000Z</time></trkpt><trkpt lat="52.53563234886611" lon="13.381923199565806"><time>2023-03-30T07:35:37.000Z</time></trkpt><trkpt lat="52.53564021551492" lon="13.381936997439015"><time>2023-03-30T07:35:38.000Z</time></trkpt><trkpt lat="52.535648180170305" lon="13.381951111607462"><time>2023-03-30T07:35:39.000Z</time></trkpt><trkpt lat="52.535656119850955" lon="13.381965401995787"><time>2023-03-30T07:35:40.000Z</time></trkpt><trkpt lat="52.535663922232715" lon="13.381979663730476"><time>2023-03-30T07:35:41.000Z</time></trkpt><trkpt lat="52.53567168315589" lon="13.381994034246658"><time>2023-03-30T07:35:42.000Z</time></trkpt><trkpt lat="52.53567938890053" lon="13.38200824379079"><time>2023-03-30T07:35:43.000Z</time></trkpt><trkpt lat="52.53568697527433" lon="13.382022263218028"><time>2023-03-30T07:35:44.000Z</time></trkpt><trkpt lat="52.535694455822906" lon="13.382036052229076"><time>2023-03-30T07:35:45.000Z</time></trkpt><trkpt lat="52.535701900191704" lon="13.382049578731863"><time>2023-03-30T07:35:46.000Z</time></trkpt><trkpt lat="52.53570924441249" lon="13.382062852366284"><time>2023-03-30T07:35:47.000Z</time></trkpt><trkpt lat="52.535716530715746" lon="13.382076171273456"><time>2023-03-30T07:35:48.000Z</time></trkpt><trkpt lat="52.53572373972924" lon="13.38208952669355"><time>2023-03-30T07:35:49.000Z</time></trkpt><trkpt lat="52.535730888061316" lon="13.382102883423526"><time>2023-03-30T07:35:50.000Z</time></trkpt><trkpt lat="52.53573793505018" lon="13.382116281926413"><time>2023-03-30T07:35:51.000Z</time></trkpt><trkpt lat="52.53574490146246" lon="13.382129728874416"><time>2023-03-30T07:35:52.000Z</time></trkpt><trkpt lat="52.53575177942975" lon="13.382143148621928"><time>2023-03-30T07:35:53.000Z</time></trkpt><trkpt lat="52.535758561183236" lon="13.38215650076732"><time>2023-03-30T07:35:54.000Z</time></trkpt><trkpt lat="52.535765252300536" lon="13.382169760934532"><time>2023-03-30T07:35:55.000Z</time></trkpt><trkpt lat="52.53577182255299" lon="13.382182808982948"><time>2023-03-30T07:35:56.000Z</time></trkpt><trkpt lat="52.53577829442532" lon="13.382195560793678"><time>2023-03-30T07:35:57.000Z</time></trkpt><trkpt lat="52.53578477167607" lon="13.382208006706342"><time>2023-03-30T07:35:58.000Z</time></trkpt><trkpt lat="52.53579126583395" lon="13.382220036977513"><time>2023-03-30T07:35:59.000Z</time></trkpt><trkpt lat="52.53579777199366" lon="13.382231577476126"><time>2023-03-30T07:36:00.000Z</time></trkpt><trkpt lat="52.535804370582355" lon="13.38224265701956"><time>2023-03-30T07:36:01.000Z</time></trkpt><trkpt lat="52.53581111991598" lon="13.382253251047553"><time>2023-03-30T07:36:02.000Z</time></trkpt><trkpt lat="52.53581802293272" lon="13.382263362875738"><time>2023-03-30T07:36:03.000Z</time></trkpt><trkpt lat="52.535825103860354" lon="13.382273106361398"><time>2023-03-30T07:36:04.000Z</time></trkpt><trkpt lat="52.5358323818221" lon="13.382282535209638"><time>2023-03-30T07:36:05.000Z</time></trkpt><trkpt lat="52.53583982551859" lon="13.382291641868175"><time>2023-03-30T07:36:06.000Z</time></trkpt><trkpt lat="52.53584745195658" lon="13.382300598668182"><time>2023-03-30T07:36:07.000Z</time></trkpt><trkpt lat="52.5358552359372" lon="13.382309563307006"><time>2023-03-30T07:36:08.000Z</time></trkpt><trkpt lat="52.5358632025099" lon="13.38231862188883"><time>2023-03-30T07:36:09.000Z</time></trkpt><trkpt lat="52.53587139793899" lon="13.382327915103021"><time>2023-03-30T07:36:10.000Z</time></trkpt><trkpt lat="52.53587985601384" lon="13.382337614155075"><time>2023-03-30T07:36:11.000Z</time></trkpt><trkpt lat="52.53588849005737" lon="13.382347829648035"><time>2023-03-30T07:36:12.000Z</time></trkpt><trkpt lat="52.53589714347313" lon="13.382358464589332"><time>2023-03-30T07:36:13.000Z</time></trkpt><trkpt lat="52.535905789568275" lon="13.382369701645912"><time>2023-03-30T07:36:14.000Z</time></trkpt><trkpt lat="52.53591434958394" lon="13.382381551419622"><time>2023-03-30T07:36:15.000Z</time></trkpt><trkpt lat="52.53592269516036" lon="13.382394071647548"><time>2023-03-30T07:36:16.000Z</time></trkpt><trkpt lat="52.53593087418031" lon="13.382407306579092"><time>2023-03-30T07:36:17.000Z</time></trkpt><trkpt lat="52.53593890033885" lon="13.382421175615661"><time>2023-03-30T07:36:18.000Z</time></trkpt><trkpt lat="52.5359467983866" lon="13.382435519136022"><time>2023-03-30T07:36:19.000Z</time></trkpt><trkpt lat="52.53595456550988" lon="13.3824501925621"><time>2023-03-30T07:36:20.000Z</time></trkpt><trkpt lat="52.53596224523398" lon="13.38246507640822"><time>2023-03-30T07:36:21.000Z</time></trkpt><trkpt lat="52.53596983462069" lon="13.382480071778394"><time>2023-03-30T07:36:22.000Z</time></trkpt><trkpt lat="52.53597733708131" lon="13.38249501096697"><time>2023-03-30T07:36:23.000Z</time></trkpt><trkpt lat="52.535984824552095" lon="13.382509992071725"><time>2023-03-30T07:36:24.000Z</time></trkpt><trkpt lat="52.535992314587595" lon="13.382524939487986"><time>2023-03-30T07:36:25.000Z</time></trkpt><trkpt lat="52.53599977496713" lon="13.382539739460812"><time>2023-03-30T07:36:26.000Z</time></trkpt><trkpt lat="52.5360072525277" lon="13.382554268042746"><time>2023-03-30T07:36:27.000Z</time></trkpt><trkpt lat="52.53601470239941" lon="13.382568561685305"><time>2023-03-30T07:36:28.000Z</time></trkpt><trkpt lat="52.53602214983091" lon="13.382582698367328"><time>2023-03-30T07:36:29.000Z</time></trkpt><trkpt lat="52.53602956845307" lon="13.382596687769647"><time>2023-03-30T07:36:30.000Z</time></trkpt><trkpt lat="52.53603696944597" lon="13.38261056327375"><time>2023-03-30T07:36:31.000Z</time></trkpt><trkpt lat="52.53604434222712" lon="13.382624326373724"><time>2023-03-30T07:36:32.000Z</time></trkpt><trkpt lat="52.53605173811552" lon="13.382638002898775"><time>2023-03-30T07:36:33.000Z</time></trkpt><trkpt lat="52.5360590841042" lon="13.382651495754002"><time>2023-03-30T07:36:34.000Z</time></trkpt><trkpt lat="52.53606642757799" lon="13.382664888116823"><time>2023-03-30T07:36:35.000Z</time></trkpt><trkpt lat="52.53607377745109" lon="13.38267810804614"><time>2023-03-30T07:36:36.000Z</time></trkpt><trkpt lat="52.536081186013604" lon="13.38269123051215"><time>2023-03-30T07:36:37.000Z</time></trkpt><trkpt lat="52.53608869128793" lon="13.38270427565427"><time>2023-03-30T07:36:38.000Z</time></trkpt><trkpt lat="52.536096319842414" lon="13.38271717058992"><time>2023-03-30T07:36:39.000Z</time></trkpt><trkpt lat="52.536104047698316" lon="13.382729866116712"><time>2023-03-30T07:36:40.000Z</time></trkpt><trkpt lat="52.53611188802775" lon="13.382742496108541"><time>2023-03-30T07:36:41.000Z</time></trkpt><trkpt lat="52.536119752136734" lon="13.382755025689834"><time>2023-03-30T07:36:42.000Z</time></trkpt><trkpt lat="52.536127638232465" lon="13.382767504513252"><time>2023-03-30T07:36:43.000Z</time></trkpt><trkpt lat="52.5361354728598" lon="13.382779866470754"><time>2023-03-30T07:36:44.000Z</time></trkpt><trkpt lat="52.53614332670997" lon="13.382792200020221"><time>2023-03-30T07:36:45.000Z</time></trkpt><trkpt lat="52.53615112324021" lon="13.38280439803798"><time>2023-03-30T07:36:46.000Z</time></trkpt><trkpt lat="52.536158760982815" lon="13.382816424011104"><time>2023-03-30T07:36:47.000Z</time></trkpt><trkpt lat="52.53616621434053" lon="13.382828268975096"><time>2023-03-30T07:36:48.000Z</time></trkpt><trkpt lat="52.53617345567431" lon="13.382840053848316"><time>2023-03-30T07:36:49.000Z</time></trkpt><trkpt lat="52.53618048042742" lon="13.382851861726316"><time>2023-03-30T07:36:50.000Z</time></trkpt><trkpt lat="52.53618728698136" lon="13.382863692363488"><time>2023-03-30T07:36:51.000Z</time></trkpt><trkpt lat="52.53619392563425" lon="13.382875471424112"><time>2023-03-30T07:36:52.000Z</time></trkpt><trkpt lat="52.53620045661932" lon="13.382887231573335"><time>2023-03-30T07:36:53.000Z</time></trkpt><trkpt lat="52.53620692473174" lon="13.382898934947418"><time>2023-03-30T07:36:54.000Z</time></trkpt><trkpt lat="52.53621330795988" lon="13.382910509994135"><time>2023-03-30T07:36:55.000Z</time></trkpt><trkpt lat="52.536219697213845" lon="13.382921957204688"><time>2023-03-30T07:36:56.000Z</time></trkpt><trkpt lat="52.53622617561" lon="13.382933395491678"><time>2023-03-30T07:36:57.000Z</time></trkpt><trkpt lat="52.53623280041845" lon="13.38294502043666"><time>2023-03-30T07:36:58.000Z</time></trkpt><trkpt lat="52.53623957412923" lon="13.382956771334852"><time>2023-03-30T07:36:59.000Z</time></trkpt><trkpt lat="52.536246499107826" lon="13.382968681670075"><time>2023-03-30T07:37:00.000Z</time></trkpt><trkpt lat="52.536253548536884" lon="13.382980627372076"><time>2023-03-30T07:37:01.000Z</time></trkpt><trkpt lat="52.53626074345695" lon="13.382992567302416"><time>2023-03-30T07:37:02.000Z</time></trkpt><trkpt lat="52.53626802627421" lon="13.383004364169231"><time>2023-03-30T07:37:03.000Z</time></trkpt><trkpt lat="52.53627533979323" lon="13.383016101518342"><time>2023-03-30T07:37:04.000Z</time></trkpt><trkpt lat="52.53628265575246" lon="13.383027843001765"><time>2023-03-30T07:37:05.000Z</time></trkpt><trkpt lat="52.536290018399285" lon="13.383039851700836"><time>2023-03-30T07:37:06.000Z</time></trkpt><trkpt lat="52.53629734643504" lon="13.383052170923486"><time>2023-03-30T07:37:07.000Z</time></trkpt><trkpt lat="52.53630460310724" lon="13.383064781962979"><time>2023-03-30T07:37:08.000Z</time></trkpt><trkpt lat="52.53631183749389" lon="13.383077412773481"><time>2023-03-30T07:37:09.000Z</time></trkpt><trkpt lat="52.53631916777064" lon="13.383090087505918"><time>2023-03-30T07:37:10.000Z</time></trkpt><trkpt lat="52.536326619260855" lon="13.383102662114357"><time>2023-03-30T07:37:11.000Z</time></trkpt><trkpt lat="52.53633419181513" lon="13.383115115968174"><time>2023-03-30T07:37:12.000Z</time></trkpt><trkpt lat="52.53634186245071" lon="13.383127425448585"><time>2023-03-30T07:37:13.000Z</time></trkpt><trkpt lat="52.53634965185954" lon="13.383139690679593"><time>2023-03-30T07:37:14.000Z</time></trkpt><trkpt lat="52.536357620772854" lon="13.38315186663405"><time>2023-03-30T07:37:15.000Z</time></trkpt><trkpt lat="52.5363657010392" lon="13.383163853474487"><time>2023-03-30T07:37:16.000Z</time></trkpt><trkpt lat="52.53637387418275" lon="13.383175659960738"><time>2023-03-30T07:37:17.000Z</time></trkpt><trkpt lat="52.53638213656807" lon="13.383187373772934"><time>2023-03-30T07:37:18.000Z</time></trkpt><trkpt lat="52.536390436925984" lon="13.38319900158328"><time>2023-03-30T07:37:19.000Z</time></trkpt><trkpt lat="52.536398647270204" lon="13.383210705162035"><time>2023-03-30T07:37:20.000Z</time></trkpt><trkpt lat="52.53640652288302" lon="13.383222556307027"><time>2023-03-30T07:37:21.000Z</time></trkpt><trkpt lat="52.5364137697446" lon="13.383234576958762"><time>2023-03-30T07:37:22.000Z</time></trkpt><trkpt lat="52.53642025033195" lon="13.383246693804853"><time>2023-03-30T07:37:23.000Z</time></trkpt><trkpt lat="52.53642567154656" lon="13.383259026371912"><time>2023-03-30T07:37:24.000Z</time></trkpt><trkpt lat="52.53642987880889" lon="13.383271686368191"><time>2023-03-30T07:37:25.000Z</time></trkpt><trkpt lat="52.53643277844494" lon="13.383284790946146"><time>2023-03-30T07:37:26.000Z</time></trkpt><trkpt lat="52.53643440601199" lon="13.383298529956596"><time>2023-03-30T07:37:27.000Z</time></trkpt><trkpt lat="52.53643467386186" lon="13.383312883055458"><time>2023-03-30T07:37:28.000Z</time></trkpt><trkpt lat="52.53643357417593" lon="13.383327798420579"><time>2023-03-30T07:37:29.000Z</time></trkpt><trkpt lat="52.53643122393464" lon="13.383342959756725"><time>2023-03-30T07:37:30.000Z</time></trkpt><trkpt lat="52.536427646743256" lon="13.383358254168552"><time>2023-03-30T07:37:31.000Z</time></trkpt><trkpt lat="52.536423005323606" lon="13.3833735001148"><time>2023-03-30T07:37:32.000Z</time></trkpt><trkpt lat="52.53641767193149" lon="13.383388553631393"><time>2023-03-30T07:37:33.000Z</time></trkpt><trkpt lat="52.53641176120675" lon="13.383403519222249"><time>2023-03-30T07:37:34.000Z</time></trkpt><trkpt lat="52.5364055159996" lon="13.383418402577162"><time>2023-03-30T07:37:35.000Z</time></trkpt><trkpt lat="52.53639910513239" lon="13.383433044381905"><time>2023-03-30T07:37:36.000Z</time></trkpt><trkpt lat="52.53639252740993" lon="13.383447435385436"><time>2023-03-30T07:37:37.000Z</time></trkpt><trkpt lat="52.53638571365987" lon="13.383461527285913"><time>2023-03-30T07:37:38.000Z</time></trkpt><trkpt lat="52.53637867705434" lon="13.383475250291259"><time>2023-03-30T07:37:39.000Z</time></trkpt><trkpt lat="52.53637134139917" lon="13.383488531703097"><time>2023-03-30T07:37:40.000Z</time></trkpt><trkpt lat="52.5363635848335" lon="13.383501626702548"><time>2023-03-30T07:37:41.000Z</time></trkpt><trkpt lat="52.53635542207328" lon="13.383514547774412"><time>2023-03-30T07:37:42.000Z</time></trkpt><trkpt lat="52.53634702505337" lon="13.383527231839748"><time>2023-03-30T07:37:43.000Z</time></trkpt><trkpt lat="52.53633820570364" lon="13.383539796869684"><time>2023-03-30T07:37:44.000Z</time></trkpt><trkpt lat="52.536329040691385" lon="13.383552393418624"><time>2023-03-30T07:37:45.000Z</time></trkpt><trkpt lat="52.536319601678954" lon="13.383565011048454"><time>2023-03-30T07:37:46.000Z</time></trkpt><trkpt lat="52.5363098707632" lon="13.383577813412385"><time>2023-03-30T07:37:47.000Z</time></trkpt><trkpt lat="52.53630005675598" lon="13.383590547539724"><time>2023-03-30T07:37:48.000Z</time></trkpt><trkpt lat="52.536290168944994" lon="13.383603241715702"><time>2023-03-30T07:37:49.000Z</time></trkpt><trkpt lat="52.53628021024356" lon="13.383615807932717"><time>2023-03-30T07:37:50.000Z</time></trkpt><trkpt lat="52.536270279106496" lon="13.383628233132896"><time>2023-03-30T07:37:51.000Z</time></trkpt><trkpt lat="52.53626047406329" lon="13.383640512281385"><time>2023-03-30T07:37:52.000Z</time></trkpt><trkpt lat="52.53625089045625" lon="13.383652613490778"><time>2023-03-30T07:37:53.000Z</time></trkpt><trkpt lat="52.53624147719047" lon="13.38366456398203"><time>2023-03-30T07:37:54.000Z</time></trkpt><trkpt lat="52.53623243829699" lon="13.383676301126474"><time>2023-03-30T07:37:55.000Z</time></trkpt><trkpt lat="52.53622374028524" lon="13.383687675556786"><time>2023-03-30T07:37:56.000Z</time></trkpt><trkpt lat="52.5362153806652" lon="13.383698587312699"><time>2023-03-30T07:37:57.000Z</time></trkpt><trkpt lat="52.53620733351591" lon="13.383708979946544"><time>2023-03-30T07:37:58.000Z</time></trkpt><trkpt lat="52.536199415050106" lon="13.383719088581897"><time>2023-03-30T07:37:59.000Z</time></trkpt><trkpt lat="52.53619166508297" lon="13.383728877524506"><time>2023-03-30T07:38:00.000Z</time></trkpt><trkpt lat="52.53618413002818" lon="13.383738423893597"><time>2023-03-30T07:38:01.000Z</time></trkpt><trkpt lat="52.53617686785306" lon="13.383747679100786"><time>2023-03-30T07:38:02.000Z</time></trkpt><trkpt lat="52.536169843124846" lon="13.383756669712085"><time>2023-03-30T07:38:03.000Z</time></trkpt><trkpt lat="52.53616303831391" lon="13.383765540510241"><time>2023-03-30T07:38:04.000Z</time></trkpt><trkpt lat="52.536156302949216" lon="13.383774543197005"><time>2023-03-30T07:38:05.000Z</time></trkpt><trkpt lat="52.536149611010224" lon="13.383783676421558"><time>2023-03-30T07:38:06.000Z</time></trkpt><trkpt lat="52.53614293981297" lon="13.38379312049716"><time>2023-03-30T07:38:07.000Z</time></trkpt><trkpt lat="52.53613623410424" lon="13.38380299314933"><time>2023-03-30T07:38:08.000Z</time></trkpt><trkpt lat="52.53612944408394" lon="13.383813271250489"><time>2023-03-30T07:38:09.000Z</time></trkpt><trkpt lat="52.536122581380376" lon="13.383823969536794"><time>2023-03-30T07:38:10.000Z</time></trkpt><trkpt lat="52.53611561322509" lon="13.3838350650444"><time>2023-03-30T07:38:11.000Z</time></trkpt><trkpt lat="52.536108513946125" lon="13.383846593631288"><time>2023-03-30T07:38:12.000Z</time></trkpt><trkpt lat="52.5361013368794" lon="13.383858446290828"><time>2023-03-30T07:38:13.000Z</time></trkpt><trkpt lat="52.53609408575992" lon="13.38387076367146"><time>2023-03-30T07:38:14.000Z</time></trkpt><trkpt lat="52.536086735662714" lon="13.383883438158295"><time>2023-03-30T07:38:15.000Z</time></trkpt><trkpt lat="52.53607936626798" lon="13.383896341383036"><time>2023-03-30T07:38:16.000Z</time></trkpt><trkpt lat="52.53607190860255" lon="13.383909508057519"><time>2023-03-30T07:38:17.000Z</time></trkpt><trkpt lat="52.53606433268678" lon="13.383922786276521"><time>2023-03-30T07:38:18.000Z</time></trkpt><trkpt lat="52.53605674723428" lon="13.383936027737"><time>2023-03-30T07:38:19.000Z</time></trkpt><trkpt lat="52.53604913546241" lon="13.383949282419087"><time>2023-03-30T07:38:20.000Z</time></trkpt><trkpt lat="52.53604147394025" lon="13.383962457321257"><time>2023-03-30T07:38:21.000Z</time></trkpt><trkpt lat="52.53603379082974" lon="13.383975456822224"><time>2023-03-30T07:38:22.000Z</time></trkpt><trkpt lat="52.536026118849556" lon="13.383988204621442"><time>2023-03-30T07:38:23.000Z</time></trkpt><trkpt lat="52.536018263555185" lon="13.384000860483413"><time>2023-03-30T07:38:24.000Z</time></trkpt><trkpt lat="52.53601034929749" lon="13.384013134269578"><time>2023-03-30T07:38:25.000Z</time></trkpt><trkpt lat="52.536002293981" lon="13.384025317592112"><time>2023-03-30T07:38:26.000Z</time></trkpt><trkpt lat="52.53599417449707" lon="13.384037289491726"><time>2023-03-30T07:38:27.000Z</time></trkpt><trkpt lat="52.5359860391767" lon="13.384049108994914"><time>2023-03-30T07:38:28.000Z</time></trkpt><trkpt lat="52.53597798017501" lon="13.384060710198309"><time>2023-03-30T07:38:29.000Z</time></trkpt><trkpt lat="52.53596992807063" lon="13.38407213673731"><time>2023-03-30T07:38:30.000Z</time></trkpt><trkpt lat="52.53596195534761" lon="13.384083298721356"><time>2023-03-30T07:38:31.000Z</time></trkpt><trkpt lat="52.53595416434518" lon="13.384094213219829"><time>2023-03-30T07:38:32.000Z</time></trkpt><trkpt lat="52.53594649973541" lon="13.384104906184744"><time>2023-03-30T07:38:33.000Z</time></trkpt><trkpt lat="52.535938940353276" lon="13.3841153342263"><time>2023-03-30T07:38:34.000Z</time></trkpt><trkpt lat="52.535931463016816" lon="13.384125388665337"><time>2023-03-30T07:38:35.000Z</time></trkpt><trkpt lat="52.53592383879493" lon="13.384135016697298"><time>2023-03-30T07:38:36.000Z</time></trkpt><trkpt lat="52.53591615287071" lon="13.384143816720968"><time>2023-03-30T07:38:37.000Z</time></trkpt><trkpt lat="52.53590828315921" lon="13.384151760082705"><time>2023-03-30T07:38:38.000Z</time></trkpt><trkpt lat="52.53590029313066" lon="13.38415878497252"><time>2023-03-30T07:38:39.000Z</time></trkpt><trkpt lat="52.5358922996161" lon="13.384164919716579"><time>2023-03-30T07:38:40.000Z</time></trkpt><trkpt lat="52.535884424202486" lon="13.384170335991113"><time>2023-03-30T07:38:41.000Z</time></trkpt><trkpt lat="52.53587675934372" lon="13.384175175386032"><time>2023-03-30T07:38:42.000Z</time></trkpt><trkpt lat="52.53586945389232" lon="13.384179298644652"><time>2023-03-30T07:38:43.000Z</time></trkpt><trkpt lat="52.53586262218932" lon="13.384182883747"><time>2023-03-30T07:38:44.000Z</time></trkpt><trkpt lat="52.53585634655429" lon="13.384186089434236"><time>2023-03-30T07:38:45.000Z</time></trkpt><trkpt lat="52.53585069361979" lon="13.384189083944158"><time>2023-03-30T07:38:46.000Z</time></trkpt><trkpt lat="52.535845793065285" lon="13.384192087909776"><time>2023-03-30T07:38:47.000Z</time></trkpt><trkpt lat="52.53584176316604" lon="13.38419532568909"><time>2023-03-30T07:38:48.000Z</time></trkpt><trkpt lat="52.53583861816487" lon="13.384199018365383"><time>2023-03-30T07:38:49.000Z</time></trkpt><trkpt lat="52.53583628824202" lon="13.38420313237297"><time>2023-03-30T07:38:50.000Z</time></trkpt><trkpt lat="52.5358347677701" lon="13.384207809260824"><time>2023-03-30T07:38:51.000Z</time></trkpt><trkpt lat="52.53583401877651" lon="13.384213033474111"><time>2023-03-30T07:38:52.000Z</time></trkpt><trkpt lat="52.535833970819006" lon="13.384218824087968"><time>2023-03-30T07:38:53.000Z</time></trkpt><trkpt lat="52.53583447629009" lon="13.384225427400889"><time>2023-03-30T07:38:54.000Z</time></trkpt><trkpt lat="52.535835499134464" lon="13.384232726055755"><time>2023-03-30T07:38:55.000Z</time></trkpt><trkpt lat="52.535837038082235" lon="13.384240623367003"><time>2023-03-30T07:38:56.000Z</time></trkpt><trkpt lat="52.535839103790615" lon="13.38424914495917"><time>2023-03-30T07:38:57.000Z</time></trkpt><trkpt lat="52.53584165283393" lon="13.384258227466786"><time>2023-03-30T07:38:58.000Z</time></trkpt><trkpt lat="52.53584464362907" lon="13.384267715955529"><time>2023-03-30T07:38:59.000Z</time></trkpt><trkpt lat="52.5358480016751" lon="13.384277336210074"><time>2023-03-30T07:39:00.000Z</time></trkpt><trkpt lat="52.53585173967103" lon="13.384287095066366"><time>2023-03-30T07:39:01.000Z</time></trkpt><trkpt lat="52.535855808787865" lon="13.384296636769006"><time>2023-03-30T07:39:02.000Z</time></trkpt><trkpt lat="52.535860280289555" lon="13.384305588493225"><time>2023-03-30T07:39:03.000Z</time></trkpt><trkpt lat="52.535865125416535" lon="13.384313745733909"><time>2023-03-30T07:39:04.000Z</time></trkpt><trkpt lat="52.53587035260993" lon="13.384320698007217"><time>2023-03-30T07:39:05.000Z</time></trkpt><trkpt lat="52.53587621517797" lon="13.384326098071977"><time>2023-03-30T07:39:06.000Z</time></trkpt><trkpt lat="52.53588248909489" lon="13.384330030456425"><time>2023-03-30T07:39:07.000Z</time></trkpt><trkpt lat="52.535889200381234" lon="13.384332252791715"><time>2023-03-30T07:39:08.000Z</time></trkpt><trkpt lat="52.53589642109776" lon="13.384332553327452"><time>2023-03-30T07:39:09.000Z</time></trkpt><trkpt lat="52.53590413779844" lon="13.384331019539102"><time>2023-03-30T07:39:10.000Z</time></trkpt><trkpt lat="52.53591245501369" lon="13.384327874147306"><time>2023-03-30T07:39:11.000Z</time></trkpt><trkpt lat="52.5359211764315" lon="13.384323344621025"><time>2023-03-30T07:39:12.000Z</time></trkpt><trkpt lat="52.5359302701798" lon="13.384317527686754"><time>2023-03-30T07:39:13.000Z</time></trkpt><trkpt lat="52.53593962856585" lon="13.384310677911607"><time>2023-03-30T07:39:14.000Z</time></trkpt><trkpt lat="52.53594926299389" lon="13.38430286516953"><time>2023-03-30T07:39:15.000Z</time></trkpt><trkpt lat="52.53595910944589" lon="13.3842942940475"><time>2023-03-30T07:39:16.000Z</time></trkpt><trkpt lat="52.53596885731858" lon="13.384285194838908"><time>2023-03-30T07:39:17.000Z</time></trkpt><trkpt lat="52.5359787182873" lon="13.384275604425083"><time>2023-03-30T07:39:18.000Z</time></trkpt><trkpt lat="52.5359885657353" lon="13.384265848024818"><time>2023-03-30T07:39:19.000Z</time></trkpt><trkpt lat="52.535998458999394" lon="13.384256095758865"><time>2023-03-30T07:39:20.000Z</time></trkpt><trkpt lat="52.536008449797" lon="13.38424639363678"><time>2023-03-30T07:39:21.000Z</time></trkpt><trkpt lat="52.5360184887513" lon="13.384236780095371"><time>2023-03-30T07:39:22.000Z</time></trkpt><trkpt lat="52.536028666423796" lon="13.384227049237781"><time>2023-03-30T07:39:23.000Z</time></trkpt><trkpt lat="52.536038923651965" lon="13.38421734695196"><time>2023-03-30T07:39:24.000Z</time></trkpt><trkpt lat="52.53604915881868" lon="13.384207692722384"><time>2023-03-30T07:39:25.000Z</time></trkpt><trkpt lat="52.536059314355036" lon="13.384198052696826"><time>2023-03-30T07:39:26.000Z</time></trkpt><trkpt lat="52.53606932753778" lon="13.384188491141305"><time>2023-03-30T07:39:27.000Z</time></trkpt><trkpt lat="52.53607920576224" lon="13.384179096554634"><time>2023-03-30T07:39:28.000Z</time></trkpt><trkpt lat="52.53608897079107" lon="13.384169716212911"><time>2023-03-30T07:39:29.000Z</time></trkpt><trkpt lat="52.53609867785257" lon="13.384160224285734"><time>2023-03-30T07:39:30.000Z</time></trkpt><trkpt lat="52.536108215021" lon="13.384150715411977"><time>2023-03-30T07:39:31.000Z</time></trkpt><trkpt lat="52.53611761284874" lon="13.384141290165907"><time>2023-03-30T07:39:32.000Z</time></trkpt><trkpt lat="52.536126970189" lon="13.384131963733962"><time>2023-03-30T07:39:33.000Z</time></trkpt><trkpt lat="52.536136261071015" lon="13.384122855233404"><time>2023-03-30T07:39:34.000Z</time></trkpt><trkpt lat="52.536145392518" lon="13.384113936706472"><time>2023-03-30T07:39:35.000Z</time></trkpt><trkpt lat="52.5361543878364" lon="13.38410521396576"><time>2023-03-30T07:39:36.000Z</time></trkpt><trkpt lat="52.53616329045189" lon="13.384096675467946"><time>2023-03-30T07:39:37.000Z</time></trkpt><trkpt lat="52.53617219132437" lon="13.384088320107816"><time>2023-03-30T07:39:38.000Z</time></trkpt><trkpt lat="52.53618118803717" lon="13.384080173632713"><time>2023-03-30T07:39:39.000Z</time></trkpt><trkpt lat="52.536190357058324" lon="13.384072365679883"><time>2023-03-30T07:39:40.000Z</time></trkpt><trkpt lat="52.53619970523536" lon="13.384064804189281"><time>2023-03-30T07:39:41.000Z</time></trkpt><trkpt lat="52.53620911613563" lon="13.384057364640382"><time>2023-03-30T07:39:42.000Z</time></trkpt><trkpt lat="52.53621840813815" lon="13.38404979962948"><time>2023-03-30T07:39:43.000Z</time></trkpt><trkpt lat="52.53622743742021" lon="13.384041887500207"><time>2023-03-30T07:39:44.000Z</time></trkpt><trkpt lat="52.53623622280625" lon="13.38403344008003"><time>2023-03-30T07:39:45.000Z</time></trkpt><trkpt lat="52.5362449146428" lon="13.384024537394465"><time>2023-03-30T07:39:46.000Z</time></trkpt><trkpt lat="52.5362536324252" lon="13.384015184969572"><time>2023-03-30T07:39:47.000Z</time></trkpt><trkpt lat="52.53626241293084" lon="13.384005466023707"><time>2023-03-30T07:39:48.000Z</time></trkpt><trkpt lat="52.536271313056325" lon="13.383995476505625"><time>2023-03-30T07:39:49.000Z</time></trkpt><trkpt lat="52.53628027926655" lon="13.383985271020975"><time>2023-03-30T07:39:50.000Z</time></trkpt><trkpt lat="52.536289181359145" lon="13.383974794309166"><time>2023-03-30T07:39:51.000Z</time></trkpt><trkpt lat="52.53629805840228" lon="13.383964131676175"><time>2023-03-30T07:39:52.000Z</time></trkpt><trkpt lat="52.53630699199345" lon="13.383953350253385"><time>2023-03-30T07:39:53.000Z</time></trkpt><trkpt lat="52.53631599796906" lon="13.383942403458166"><time>2023-03-30T07:39:54.000Z</time></trkpt><trkpt lat="52.53632516474921" lon="13.383931454452522"><time>2023-03-30T07:39:55.000Z</time></trkpt><trkpt lat="52.53633457472818" lon="13.383920526896175"><time>2023-03-30T07:39:56.000Z</time></trkpt><trkpt lat="52.536344165058225" lon="13.383909488040906"><time>2023-03-30T07:39:57.000Z</time></trkpt><trkpt lat="52.53635387446033" lon="13.38389838954514"><time>2023-03-30T07:39:58.000Z</time></trkpt><trkpt lat="52.53636367417493" lon="13.3838872908447"><time>2023-03-30T07:39:59.000Z</time></trkpt><trkpt lat="52.536373422147214" lon="13.38387615149703"><time>2023-03-30T07:40:00.000Z</time></trkpt><trkpt lat="52.53638307022049" lon="13.38386489597932"><time>2023-03-30T07:40:01.000Z</time></trkpt><trkpt lat="52.536392612916735" lon="13.383853570014594"><time>2023-03-30T07:40:02.000Z</time></trkpt><trkpt lat="52.53640203016652" lon="13.383842185801113"><time>2023-03-30T07:40:03.000Z</time></trkpt><trkpt lat="52.536411325729745" lon="13.383830771214773"><time>2023-03-30T07:40:04.000Z</time></trkpt><trkpt lat="52.536420545945404" lon="13.383819465102924"><time>2023-03-30T07:40:05.000Z</time></trkpt><trkpt lat="52.536429695370224" lon="13.383808259401611"><time>2023-03-30T07:40:06.000Z</time></trkpt><trkpt lat="52.53643875348655" lon="13.383797264550147"><time>2023-03-30T07:40:07.000Z</time></trkpt><trkpt lat="52.53644772303339" lon="13.383786505354395"><time>2023-03-30T07:40:08.000Z</time></trkpt><trkpt lat="52.53645660425973" lon="13.383775956353547"><time>2023-03-30T07:40:09.000Z</time></trkpt><trkpt lat="52.536465424306655" lon="13.38376553048148"><time>2023-03-30T07:40:10.000Z</time></trkpt><trkpt lat="52.536474207476594" lon="13.383755263923645"><time>2023-03-30T07:40:11.000Z</time></trkpt><trkpt lat="52.53648298902803" lon="13.383745181813374"><time>2023-03-30T07:40:12.000Z</time></trkpt><trkpt lat="52.53649183088739" lon="13.383735278010606"><time>2023-03-30T07:40:13.000Z</time></trkpt><trkpt lat="52.5365007896525" lon="13.383725501675597"><time>2023-03-30T07:40:14.000Z</time></trkpt><trkpt lat="52.536509902947344" lon="13.383715874175772"><time>2023-03-30T07:40:15.000Z</time></trkpt><trkpt lat="52.53651919420286" lon="13.383706370132199"><time>2023-03-30T07:40:16.000Z</time></trkpt><trkpt lat="52.536528579530774" lon="13.383696924419247"><time>2023-03-30T07:40:17.000Z</time></trkpt><trkpt lat="52.536538052407266" lon="13.383687512681325"><time>2023-03-30T07:40:18.000Z</time></trkpt><trkpt lat="52.53654756011895" lon="13.383678186986184"><time>2023-03-30T07:40:19.000Z</time></trkpt><trkpt lat="52.536557079434054" lon="13.383668850157061"><time>2023-03-30T07:40:20.000Z</time></trkpt><trkpt lat="52.53656652484579" lon="13.383659586844987"><time>2023-03-30T07:40:21.000Z</time></trkpt><trkpt lat="52.536575968663925" lon="13.38365035533845"><time>2023-03-30T07:40:22.000Z</time></trkpt><trkpt lat="52.53658525518844" lon="13.383641015521158"><time>2023-03-30T07:40:23.000Z</time></trkpt><trkpt lat="52.53659429199031" lon="13.383631606443931"><time>2023-03-30T07:40:24.000Z</time></trkpt><trkpt lat="52.536602861218995" lon="13.383622100394604"><time>2023-03-30T07:40:25.000Z</time></trkpt><trkpt lat="52.53661078222461" lon="13.383612400605744"><time>2023-03-30T07:40:26.000Z</time></trkpt><trkpt lat="52.536617950675925" lon="13.383602819975088"><time>2023-03-30T07:40:27.000Z</time></trkpt><trkpt lat="52.536624243417286" lon="13.383593465953778"><time>2023-03-30T07:40:28.000Z</time></trkpt><trkpt lat="52.53662947409669" lon="13.383584368177868"><time>2023-03-30T07:40:29.000Z</time></trkpt><trkpt lat="52.53663375411698" lon="13.383575704258982"><time>2023-03-30T07:40:30.000Z</time></trkpt><trkpt lat="52.536637072049025" lon="13.383567498757383"><time>2023-03-30T07:40:31.000Z</time></trkpt><trkpt lat="52.53663951354901" lon="13.383559750977197"><time>2023-03-30T07:40:32.000Z</time></trkpt><trkpt lat="52.53664100259707" lon="13.383552407336119"><time>2023-03-30T07:40:33.000Z</time></trkpt><trkpt lat="52.536641751391464" lon="13.383545669637634"><time>2023-03-30T07:40:34.000Z</time></trkpt><trkpt lat="52.53664217964747" lon="13.38353966105145"><time>2023-03-30T07:40:35.000Z</time></trkpt><trkpt lat="52.536642656259374" lon="13.383534913430042"><time>2023-03-30T07:40:36.000Z</time></trkpt><trkpt lat="52.536643452413664" lon="13.383531777371145"><time>2023-03-30T07:40:37.000Z</time></trkpt><trkpt lat="52.53664473621058" lon="13.383530232489743"><time>2023-03-30T07:40:38.000Z</time></trkpt><trkpt lat="52.53664657729559" lon="13.383530117097449"><time>2023-03-30T07:40:39.000Z</time></trkpt><trkpt lat="52.536649198623756" lon="13.383531766482763"><time>2023-03-30T07:40:40.000Z</time></trkpt><trkpt lat="52.53665253774573" lon="13.383535195177176"><time>2023-03-30T07:40:41.000Z</time></trkpt><trkpt lat="52.536656587191516" lon="13.383540455453113"><time>2023-03-30T07:40:42.000Z</time></trkpt><trkpt lat="52.53666121598683" lon="13.383547467080387"><time>2023-03-30T07:40:43.000Z</time></trkpt><trkpt lat="52.53666637647298" lon="13.383556135829457"><time>2023-03-30T07:40:44.000Z</time></trkpt><trkpt lat="52.53667207031827" lon="13.383566001359151"><time>2023-03-30T07:40:45.000Z</time></trkpt><trkpt lat="52.53667806189348" lon="13.383576259934904"><time>2023-03-30T07:40:46.000Z</time></trkpt><trkpt lat="52.53668426379944" lon="13.383585937210192"><time>2023-03-30T07:40:47.000Z</time></trkpt><trkpt lat="52.53669067755504" lon="13.383594441569244"><time>2023-03-30T07:40:48.000Z</time></trkpt><trkpt lat="52.53669729108378" lon="13.383601226587167"><time>2023-03-30T07:40:49.000Z</time></trkpt><trkpt lat="52.536704286081324" lon="13.383606263119121"><time>2023-03-30T07:40:50.000Z</time></trkpt><trkpt lat="52.53671150000014" lon="13.383609352186049"><time>2023-03-30T07:40:51.000Z</time></trkpt><trkpt lat="52.53671900166396" lon="13.383610197140921"><time>2023-03-30T07:40:52.000Z</time></trkpt><trkpt lat="52.53672683250648" lon="13.383608701257241"><time>2023-03-30T07:40:53.000Z</time></trkpt><trkpt lat="52.536735104428544" lon="13.383604849635118"><time>2023-03-30T07:40:54.000Z</time></trkpt><trkpt lat="52.536743877289865" lon="13.383598732983785"><time>2023-03-30T07:40:55.000Z</time></trkpt><trkpt lat="52.53675308874071" lon="13.383590693182084"><time>2023-03-30T07:40:56.000Z</time></trkpt><trkpt lat="52.53676258417666" lon="13.383581287011152"><time>2023-03-30T07:40:57.000Z</time></trkpt><trkpt lat="52.5367723101622" lon="13.383571024792298"><time>2023-03-30T07:40:58.000Z</time></trkpt><trkpt lat="52.5367820635378" lon="13.383560316722823"><time>2023-03-30T07:40:59.000Z</time></trkpt><trkpt lat="52.53679179604716" lon="13.383549429117835"><time>2023-03-30T07:41:00.000Z</time></trkpt><trkpt lat="52.53680137288138" lon="13.383538513514146"><time>2023-03-30T07:41:01.000Z</time></trkpt><trkpt lat="52.53681089326717" lon="13.383527462419682"><time>2023-03-30T07:41:02.000Z</time></trkpt><trkpt lat="52.53682020406923" lon="13.383516414722722"><time>2023-03-30T07:41:03.000Z</time></trkpt><trkpt lat="52.53682927471028" lon="13.38350542813988"><time>2023-03-30T07:41:04.000Z</time></trkpt><trkpt lat="52.536838123666165" lon="13.383494606151725"><time>2023-03-30T07:41:05.000Z</time></trkpt><trkpt lat="52.53684678223624" lon="13.383484041882584"><time>2023-03-30T07:41:06.000Z</time></trkpt><trkpt lat="52.53685523498248" lon="13.383473830257868"><time>2023-03-30T07:41:07.000Z</time></trkpt><trkpt lat="52.53686355401544" lon="13.383464030672478"><time>2023-03-30T07:41:08.000Z</time></trkpt><trkpt lat="52.5368717356748" lon="13.383454708129237"><time>2023-03-30T07:41:09.000Z</time></trkpt><trkpt lat="52.53687985326633" lon="13.383445800490687"><time>2023-03-30T07:41:10.000Z</time></trkpt><trkpt lat="52.536887908931426" lon="13.383437261174198"><time>2023-03-30T07:41:11.000Z</time></trkpt><trkpt lat="52.53689596360052" lon="13.383429025872816"><time>2023-03-30T07:41:12.000Z</time></trkpt><trkpt lat="52.536904063363615" lon="13.383420984433767"><time>2023-03-30T07:41:13.000Z</time></trkpt><trkpt lat="52.5369123505992" lon="13.383412945819146"><time>2023-03-30T07:41:14.000Z</time></trkpt><trkpt lat="52.536920770153664" lon="13.383404941711694"><time>2023-03-30T07:41:15.000Z</time></trkpt><trkpt lat="52.53692935616498" lon="13.383396788114114"><time>2023-03-30T07:41:16.000Z</time></trkpt><trkpt lat="52.53693811189507" lon="13.383388367137151"><time>2023-03-30T07:41:17.000Z</time></trkpt><trkpt lat="52.536947043021115" lon="13.383379532524447"><time>2023-03-30T07:41:18.000Z</time></trkpt><trkpt lat="52.53695609336862" lon="13.383370207770787"><time>2023-03-30T07:41:19.000Z</time></trkpt><trkpt lat="52.53696514252093" lon="13.383360463118514"><time>2023-03-30T07:41:20.000Z</time></trkpt><trkpt lat="52.53697428123872" lon="13.383350266680225"><time>2023-03-30T07:41:21.000Z</time></trkpt><trkpt lat="52.53698351527392" lon="13.383339761765047"><time>2023-03-30T07:41:22.000Z</time></trkpt><trkpt lat="52.536992899829926" lon="13.383329135972447"><time>2023-03-30T07:41:23.000Z</time></trkpt><trkpt lat="52.53700239275097" lon="13.383318525448146"><time>2023-03-30T07:41:24.000Z</time></trkpt><trkpt lat="52.53701193858464" lon="13.383308126551434"><time>2023-03-30T07:41:25.000Z</time></trkpt><trkpt lat="52.5370215352144" lon="13.383297904079267"><time>2023-03-30T07:41:26.000Z</time></trkpt><trkpt lat="52.53703108562967" lon="13.383287892702553"><time>2023-03-30T07:41:27.000Z</time></trkpt><trkpt lat="52.53704054794855" lon="13.383278153330735"><time>2023-03-30T07:41:28.000Z</time></trkpt><trkpt lat="52.5370499963981" lon="13.383268794274572"><time>2023-03-30T07:41:29.000Z</time></trkpt><trkpt lat="52.53705941546559" lon="13.383259802476191"><time>2023-03-30T07:41:30.000Z</time></trkpt><trkpt lat="52.537068926513875" lon="13.383251109453395"><time>2023-03-30T07:41:31.000Z</time></trkpt><trkpt lat="52.53707846786552" lon="13.383242838744302"><time>2023-03-30T07:41:32.000Z</time></trkpt><trkpt lat="52.5370879773202" lon="13.383234933983108"><time>2023-03-30T07:41:33.000Z</time></trkpt><trkpt lat="52.53709739307599" lon="13.383227246293695"><time>2023-03-30T07:41:34.000Z</time></trkpt><trkpt lat="52.537106808483166" lon="13.383219768676389"><time>2023-03-30T07:41:35.000Z</time></trkpt><trkpt lat="52.53711628601598" lon="13.383212562245307"><time>2023-03-30T07:41:36.000Z</time></trkpt><trkpt lat="52.537125951220496" lon="13.383205781811965"><time>2023-03-30T07:41:37.000Z</time></trkpt><trkpt lat="52.53713591467783" lon="13.383199736098852"><time>2023-03-30T07:41:38.000Z</time></trkpt><trkpt lat="52.537146232238825" lon="13.38319466796603"><time>2023-03-30T07:41:39.000Z</time></trkpt><trkpt lat="52.5371567263412" lon="13.383190552566697"><time>2023-03-30T07:41:40.000Z</time></trkpt><trkpt lat="52.537167427711616" lon="13.383187634684795"><time>2023-03-30T07:41:41.000Z</time></trkpt><trkpt lat="52.53717830495109" lon="13.383185839288723"><time>2023-03-30T07:41:42.000Z</time></trkpt><trkpt lat="52.53718929421591" lon="13.383184960481621"><time>2023-03-30T07:41:43.000Z</time></trkpt><trkpt lat="52.53720043268186" lon="13.38318496252831"><time>2023-03-30T07:41:44.000Z</time></trkpt><trkpt lat="52.53721169674366" lon="13.383185898397086"><time>2023-03-30T07:41:45.000Z</time></trkpt><trkpt lat="52.537223068124696" lon="13.383187723961345"><time>2023-03-30T07:41:46.000Z</time></trkpt><trkpt lat="52.53723448425112" lon="13.383190383019024"><time>2023-03-30T07:41:47.000Z</time></trkpt><trkpt lat="52.537245972587705" lon="13.383193768446443"><time>2023-03-30T07:41:48.000Z</time></trkpt><trkpt lat="52.53725749262207" lon="13.383197598660205"><time>2023-03-30T07:41:49.000Z</time></trkpt><trkpt lat="52.53726904173968" lon="13.383201629981574"><time>2023-03-30T07:41:50.000Z</time></trkpt><trkpt lat="52.53728071717524" lon="13.38320574059166"><time>2023-03-30T07:41:51.000Z</time></trkpt><trkpt lat="52.537292440767516" lon="13.383209595693152"><time>2023-03-30T07:41:52.000Z</time></trkpt><trkpt lat="52.5373041684185" lon="13.383213012025568"><time>2023-03-30T07:41:53.000Z</time></trkpt><trkpt lat="52.53731588556166" lon="13.38321598222083"><time>2023-03-30T07:41:54.000Z</time></trkpt><trkpt lat="52.53732757329786" lon="13.383218344017472"><time>2023-03-30T07:41:55.000Z</time></trkpt><trkpt lat="52.537339290167125" lon="13.383220008957618"><time>2023-03-30T07:41:56.000Z</time></trkpt><trkpt lat="52.537351020482426" lon="13.383220847240288"><time>2023-03-30T07:41:57.000Z</time></trkpt><trkpt lat="52.53736276509035" lon="13.383220792593704"><time>2023-03-30T07:41:58.000Z</time></trkpt><trkpt lat="52.53737440016295" lon="13.38321976875826"><time>2023-03-30T07:41:59.000Z</time></trkpt><trkpt lat="52.537385888225636" lon="13.38321780565653"><time>2023-03-30T07:42:00.000Z</time></trkpt><trkpt lat="52.53739714407041" lon="13.383214937058888"><time>2023-03-30T07:42:01.000Z</time></trkpt><trkpt lat="52.53740815763769" lon="13.383211339103337"><time>2023-03-30T07:42:02.000Z</time></trkpt><trkpt lat="52.53741900666542" lon="13.383207313840161"><time>2023-03-30T07:42:03.000Z</time></trkpt><trkpt lat="52.53742976682486" lon="13.38320305881574"><time>2023-03-30T07:42:04.000Z</time></trkpt><trkpt lat="52.537440485899204" lon="13.383198696667641"><time>2023-03-30T07:42:05.000Z</time></trkpt><trkpt lat="52.53745117123399" lon="13.383194307626058"><time>2023-03-30T07:42:06.000Z</time></trkpt><trkpt lat="52.53746169133201" lon="13.383189735446786"><time>2023-03-30T07:42:07.000Z</time></trkpt><trkpt lat="52.53747192136932" lon="13.383185011198561"><time>2023-03-30T07:42:08.000Z</time></trkpt><trkpt lat="52.53748179406596" lon="13.383180013717425"><time>2023-03-30T07:42:09.000Z</time></trkpt><trkpt lat="52.53749129413332" lon="13.383174650738658"><time>2023-03-30T07:42:10.000Z</time></trkpt><trkpt lat="52.537500339575516" lon="13.383169039864983"><time>2023-03-30T07:42:11.000Z</time></trkpt><trkpt lat="52.537509092417196" lon="13.383163228170236"><time>2023-03-30T07:42:12.000Z</time></trkpt><trkpt lat="52.537517547329735" lon="13.383157138125853"><time>2023-03-30T07:42:13.000Z</time></trkpt><trkpt lat="52.53752564218751" lon="13.383150735511206"><time>2023-03-30T07:42:14.000Z</time></trkpt><trkpt lat="52.53753335512828" lon="13.383144124339"><time>2023-03-30T07:42:15.000Z</time></trkpt><trkpt lat="52.53754052218519" lon="13.383137429293503"><time>2023-03-30T07:42:16.000Z</time></trkpt><trkpt lat="52.53754714009633" lon="13.38313075352781"><time>2023-03-30T07:42:17.000Z</time></trkpt><trkpt lat="52.53755331670384" lon="13.383124377847583"><time>2023-03-30T07:42:18.000Z</time></trkpt><trkpt lat="52.537559008855936" lon="13.383118443965532"><time>2023-03-30T07:42:19.000Z</time></trkpt><trkpt lat="52.53756426204498" lon="13.38311305744985"><time>2023-03-30T07:42:20.000Z</time></trkpt><trkpt lat="52.537569057969456" lon="13.38310841068925"><time>2023-03-30T07:42:21.000Z</time></trkpt><trkpt lat="52.5375734102746" lon="13.383104420506317"><time>2023-03-30T07:42:22.000Z</time></trkpt><trkpt lat="52.537577203548636" lon="13.383101035488236"><time>2023-03-30T07:42:23.000Z</time></trkpt><trkpt lat="52.53758042387247" lon="13.383098248348794"><time>2023-03-30T07:42:24.000Z</time></trkpt><trkpt lat="52.5375831252045" lon="13.38309598630775"><time>2023-03-30T07:42:25.000Z</time></trkpt><trkpt lat="52.537585291558905" lon="13.38309414956857"><time>2023-03-30T07:42:26.000Z</time></trkpt><trkpt lat="52.53758710722096" lon="13.38309259895644"><time>2023-03-30T07:42:27.000Z</time></trkpt><trkpt lat="52.53758873976802" lon="13.383091296402956"><time>2023-03-30T07:42:28.000Z</time></trkpt><trkpt lat="52.537590368380876" lon="13.383090142398123"><time>2023-03-30T07:42:29.000Z</time></trkpt><trkpt lat="52.537592270570606" lon="13.38308905118569"><time>2023-03-30T07:42:30.000Z</time></trkpt><trkpt lat="52.53759461590659" lon="13.383088033040037"><time>2023-03-30T07:42:31.000Z</time></trkpt><trkpt lat="52.53759751068713" lon="13.383086893935094"><time>2023-03-30T07:42:32.000Z</time></trkpt><trkpt lat="52.53760108225111" lon="13.383085585241544"><time>2023-03-30T07:42:33.000Z</time></trkpt><trkpt lat="52.537605393769965" lon="13.383084062832781"><time>2023-03-30T07:42:34.000Z</time></trkpt><trkpt lat="52.53761055550112" lon="13.383082322738233"><time>2023-03-30T07:42:35.000Z</time></trkpt><trkpt lat="52.53761639877162" lon="13.383080343426734"><time>2023-03-30T07:42:36.000Z</time></trkpt><trkpt lat="52.53762302298248" lon="13.383078042293937"><time>2023-03-30T07:42:37.000Z</time></trkpt><trkpt lat="52.53763049133002" lon="13.383075338331913"><time>2023-03-30T07:42:38.000Z</time></trkpt><trkpt lat="52.53763868541452" lon="13.383072223108307"><time>2023-03-30T07:42:39.000Z</time></trkpt><trkpt lat="52.537647418361054" lon="13.383068782624967"><time>2023-03-30T07:42:40.000Z</time></trkpt><trkpt lat="52.537656574060684" lon="13.383065145659533"><time>2023-03-30T07:42:41.000Z</time></trkpt><trkpt lat="52.53766592328353" lon="13.383061457854355"><time>2023-03-30T07:42:42.000Z</time></trkpt><trkpt lat="52.53767549028223" lon="13.383058074514558"><time>2023-03-30T07:42:43.000Z</time></trkpt><trkpt lat="52.53768519089462" lon="13.383055178655024"><time>2023-03-30T07:42:44.000Z</time></trkpt><trkpt lat="52.53769494511682" lon="13.383052788695949"><time>2023-03-30T07:42:45.000Z</time></trkpt><trkpt lat="52.537704689752495" lon="13.383050902631577"><time>2023-03-30T07:42:46.000Z</time></trkpt><trkpt lat="52.537714511653036" lon="13.383049406829768"><time>2023-03-30T07:42:47.000Z</time></trkpt><trkpt lat="52.53772428850939" lon="13.383048227650665"><time>2023-03-30T07:42:48.000Z</time></trkpt><trkpt lat="52.53773396621372" lon="13.383047249538238"><time>2023-03-30T07:42:49.000Z</time></trkpt><trkpt lat="52.53774347098718" lon="13.383046414366538"><time>2023-03-30T07:42:50.000Z</time></trkpt><trkpt lat="52.53775280509569" lon="13.38304554828984"><time>2023-03-30T07:42:51.000Z</time></trkpt><trkpt lat="52.537761945182986" lon="13.383044404968718"><time>2023-03-30T07:42:52.000Z</time></trkpt><trkpt lat="52.53777097879765" lon="13.383042755051266"><time>2023-03-30T07:42:53.000Z</time></trkpt><trkpt lat="52.53777984214576" lon="13.383040235168407"><time>2023-03-30T07:42:54.000Z</time></trkpt><trkpt lat="52.53778864573374" lon="13.383036591489832"><time>2023-03-30T07:42:55.000Z</time></trkpt><trkpt lat="52.53779733132037" lon="13.383032006825761"><time>2023-03-30T07:42:56.000Z</time></trkpt><trkpt lat="52.53780633577708" lon="13.383026780361119"><time>2023-03-30T07:42:57.000Z</time></trkpt><trkpt lat="52.537815796925656" lon="13.383021230355958"><time>2023-03-30T07:42:58.000Z</time></trkpt><trkpt lat="52.53782553834923" lon="13.383015572162845"><time>2023-03-30T07:42:59.000Z</time></trkpt><trkpt lat="52.537835630539846" lon="13.38301043710331"><time>2023-03-30T07:43:00.000Z</time></trkpt><trkpt lat="52.53784613846175" lon="13.383005911875074"><time>2023-03-30T07:43:01.000Z</time></trkpt><trkpt lat="52.53785703054166" lon="13.383002219608118"><time>2023-03-30T07:43:02.000Z</time></trkpt><trkpt lat="52.53786829380667" lon="13.38299958879474"><time>2023-03-30T07:43:03.000Z</time></trkpt><trkpt lat="52.53787989150428" lon="13.382998156358404"><time>2023-03-30T07:43:04.000Z</time></trkpt><trkpt lat="52.537891765642286" lon="13.382998189678494"><time>2023-03-30T07:43:05.000Z</time></trkpt><trkpt lat="52.537903796725324" lon="13.382999897312562"><time>2023-03-30T07:43:06.000Z</time></trkpt><trkpt lat="52.53791600427503" lon="13.383003120724123"><time>2023-03-30T07:43:07.000Z</time></trkpt><trkpt lat="52.537927952416" lon="13.38300756007331"><time>2023-03-30T07:43:08.000Z</time></trkpt><trkpt lat="52.537939541249195" lon="13.383012931361629"><time>2023-03-30T07:43:09.000Z</time></trkpt><trkpt lat="52.537950947316" lon="13.3830190703628"><time>2023-03-30T07:43:10.000Z</time></trkpt><trkpt lat="52.537962094223055" lon="13.383025467656058"><time>2023-03-30T07:43:11.000Z</time></trkpt><trkpt lat="52.53797285622509" lon="13.383032100277559"><time>2023-03-30T07:43:12.000Z</time></trkpt><trkpt lat="52.537983203292654" lon="13.383038841005144"><time>2023-03-30T07:43:13.000Z</time></trkpt><trkpt lat="52.537993061223574" lon="13.383045639080938"><time>2023-03-30T07:43:14.000Z</time></trkpt><trkpt lat="52.538002354769894" lon="13.383052483984967"><time>2023-03-30T07:43:15.000Z</time></trkpt><trkpt lat="52.53801105649176" lon="13.383059243460218"><time>2023-03-30T07:43:16.000Z</time></trkpt><trkpt lat="52.538019017536655" lon="13.383065580990175"><time>2023-03-30T07:43:17.000Z</time></trkpt><trkpt lat="52.53802629900931" lon="13.383071502223691"><time>2023-03-30T07:43:18.000Z</time></trkpt><trkpt lat="52.53803278119026" lon="13.383076850179764"><time>2023-03-30T07:43:19.000Z</time></trkpt><trkpt lat="52.53803848494576" lon="13.38308151855339"><time>2023-03-30T07:43:20.000Z</time></trkpt><trkpt lat="52.53804354722609" lon="13.383085575458368"><time>2023-03-30T07:43:21.000Z</time></trkpt><trkpt lat="52.53804787440708" lon="13.38308904656017"><time>2023-03-30T07:43:22.000Z</time></trkpt><trkpt lat="52.53805158112854" lon="13.38309200046379"><time>2023-03-30T07:43:23.000Z</time></trkpt><trkpt lat="52.53805463741082" lon="13.383094529065545"><time>2023-03-30T07:43:24.000Z</time></trkpt><trkpt lat="52.53805733413635" lon="13.383096740348718"><time>2023-03-30T07:43:25.000Z</time></trkpt><trkpt lat="52.538059690976155" lon="13.383098611390396"><time>2023-03-30T07:43:26.000Z</time></trkpt><trkpt lat="52.538061871274486" lon="13.383099486922776"><time>2023-03-30T07:43:27.000Z</time></trkpt><trkpt lat="52.53806371298199" lon="13.3830997611381"><time>2023-03-30T07:43:28.000Z</time></trkpt><trkpt lat="52.538064545091956" lon="13.38310044014747"><time>2023-03-30T07:43:29.000Z</time></trkpt><trkpt lat="52.53806762044768" lon="13.38310259604725"><time>2023-03-30T07:43:30.000Z</time></trkpt><trkpt lat="52.5380697459162" lon="13.383104578142245"><time>2023-03-30T07:43:31.000Z</time></trkpt></trkseg></trk></gpx>