<?xml version="1.0" encoding="UTF-8"?>
<gpx creator="Health" xsi:schemaLocation="http://www.topografix.com/GPX/1/0 http://www.topografix.com/GPX/1/0/gpx.xsd"
     version="1.0" xmlns="http://www.topografix.com/GPX/1/0" xmlns:xsi="http://www.w3.org/2001/XMLSchema-instance">
    <metadata>
        <time>2023-05-05T13:20:08.000Z</time>
    </metadata>
    <trk>
        <type>Ходьба на улице</type>
        <extensions>
            <totalTime>1017.0</totalTime>
            <cumulativeDecrease>-0.10000000149011612</cumulativeDecrease>
            <cumulativeClimb>-0.10000000149011612</cumulativeClimb>
            <totalDistance>1380.0</totalDistance>
        </extensions>
        <trkseg>
            <trkpt lat="52.53471353936823" lon="13.385079728108106">
                <time>2023-05-05T13:20:08.000Z</time>
            </trkpt>
            <trkpt lat="52.53472388906225" lon="13.385084625113734">
                <time>2023-05-05T13:20:09.000Z</time>
            </trkpt>
            <trkpt lat="52.53471687445339" lon="13.385096614716835">
                <time>2023-05-05T13:20:10.000Z</time>
            </trkpt>
            <trkpt lat="52.53471030583919" lon="13.385111003806356">
                <time>2023-05-05T13:20:11.000Z</time>
            </trkpt>
            <trkpt lat="52.53470486234332" lon="13.385127449399265">
                <time>2023-05-05T13:20:12.000Z</time>
            </trkpt>
            <trkpt lat="52.53469884623008" lon="13.385149826455724">
                <time>2023-05-05T13:20:13.000Z</time>
            </trkpt>
            <trkpt lat="52.534694533046626" lon="13.38516568867857">
                <time>2023-05-05T13:20:14.000Z</time>
            </trkpt>
            <trkpt lat="52.53468857880175" lon="13.38518252965999">
                <time>2023-05-05T13:20:15.000Z</time>
            </trkpt>
            <trkpt lat="52.53468252387176" lon="13.385199555922714">
                <time>2023-05-05T13:20:16.000Z</time>
            </trkpt>
            <trkpt lat="52.53467632530492" lon="13.385216420530435">
                <time>2023-05-05T13:20:17.000Z</time>
            </trkpt>
            <trkpt lat="52.534669886125386" lon="13.385232832173067">
                <time>2023-05-05T13:20:18.000Z</time>
            </trkpt>
            <trkpt lat="52.53466311983698" lon="13.385248711842884">
                <time>2023-05-05T13:20:19.000Z</time>
            </trkpt>
            <trkpt lat="52.534656105641105" lon="13.38526395205952">
                <time>2023-05-05T13:20:20.000Z</time>
            </trkpt>
            <trkpt lat="52.53464880650537" lon="13.385278513509872">
                <time>2023-05-05T13:20:21.000Z</time>
            </trkpt>
            <trkpt lat="52.5346412616991" lon="13.38529231006446">
                <time>2023-05-05T13:20:22.000Z</time>
            </trkpt>
            <trkpt lat="52.53463339750802" lon="13.385305654829244">
                <time>2023-05-05T13:20:23.000Z</time>
            </trkpt>
            <trkpt lat="52.53462531452446" lon="13.385318407584691">
                <time>2023-05-05T13:20:24.000Z</time>
            </trkpt>
            <trkpt lat="52.53461704958298" lon="13.38533055012489">
                <time>2023-05-05T13:20:25.000Z</time>
            </trkpt>
            <trkpt lat="52.534608720467844" lon="13.385342184395011">
                <time>2023-05-05T13:20:26.000Z</time>
            </trkpt>
            <trkpt lat="52.53460037112297" lon="13.385353513465402">
                <time>2023-05-05T13:20:27.000Z</time>
            </trkpt>
            <trkpt lat="52.53459201798784" lon="13.385364751502403">
                <time>2023-05-05T13:20:28.000Z</time>
            </trkpt>
            <trkpt lat="52.534583627113555" lon="13.385376169231945">
                <time>2023-05-05T13:20:29.000Z</time>
            </trkpt>
            <trkpt lat="52.53457532762869" lon="13.385387648913008">
                <time>2023-05-05T13:20:30.000Z</time>
            </trkpt>
            <trkpt lat="52.534566960719935" lon="13.385399280550486">
                <time>2023-05-05T13:20:31.000Z</time>
            </trkpt>
            <trkpt lat="52.53455850690844" lon="13.385411054394137">
                <time>2023-05-05T13:20:32.000Z</time>
            </trkpt>
            <trkpt lat="52.53454994906998" lon="13.385423014477395">
                <time>2023-05-05T13:20:33.000Z</time>
            </trkpt>
            <trkpt lat="52.53454129739177" lon="13.385435127425314">
                <time>2023-05-05T13:20:34.000Z</time>
            </trkpt>
            <trkpt lat="52.53453260856345" lon="13.385447459166526">
                <time>2023-05-05T13:20:35.000Z</time>
            </trkpt>
            <trkpt lat="52.53452398371739" lon="13.385460046133316">
                <time>2023-05-05T13:20:36.000Z</time>
            </trkpt>
            <trkpt lat="52.53451542298117" lon="13.385472843320036">
                <time>2023-05-05T13:20:37.000Z</time>
            </trkpt>
            <trkpt lat="52.53450697852665" lon="13.385485678625061">
                <time>2023-05-05T13:20:38.000Z</time>
            </trkpt>
            <trkpt lat="52.53449866773562" lon="13.385498496542882">
                <time>2023-05-05T13:20:39.000Z</time>
            </trkpt>
            <trkpt lat="52.53449047793083" lon="13.385511236438298">
                <time>2023-05-05T13:20:40.000Z</time>
            </trkpt>
            <trkpt lat="52.53448226902926" lon="13.385524120028897">
                <time>2023-05-05T13:20:41.000Z</time>
            </trkpt>
            <trkpt lat="52.53447413167332" lon="13.385537048525363">
                <time>2023-05-05T13:20:42.000Z</time>
            </trkpt>
            <trkpt lat="52.534466008938374" lon="13.385550043820329">
                <time>2023-05-05T13:20:43.000Z</time>
            </trkpt>
            <trkpt lat="52.5344579111206" lon="13.385563136407923">
                <time>2023-05-05T13:20:44.000Z</time>
            </trkpt>
            <trkpt lat="52.534449805157394" lon="13.385576434477208">
                <time>2023-05-05T13:20:45.000Z</time>
            </trkpt>
            <trkpt lat="52.53444161184325" lon="13.38558998528782">
                <time>2023-05-05T13:20:46.000Z</time>
            </trkpt>
            <trkpt lat="52.534433282388065" lon="13.385603877694628">
                <time>2023-05-05T13:20:47.000Z</time>
            </trkpt>
            <trkpt lat="52.5344248105964" lon="13.38561820903376">
                <time>2023-05-05T13:20:48.000Z</time>
            </trkpt>
            <trkpt lat="52.534416142828874" lon="13.385633061920037">
                <time>2023-05-05T13:20:49.000Z</time>
            </trkpt>
            <trkpt lat="52.534407246964406" lon="13.38564830825456">
                <time>2023-05-05T13:20:50.000Z</time>
            </trkpt>
            <trkpt lat="52.5343981917147" lon="13.38566375473129">
                <time>2023-05-05T13:20:51.000Z</time>
            </trkpt>
            <trkpt lat="52.53438903779854" lon="13.385679155242958">
                <time>2023-05-05T13:20:52.000Z</time>
            </trkpt>
            <trkpt lat="52.53437990134976" lon="13.385694384026532">
                <time>2023-05-05T13:20:53.000Z</time>
            </trkpt>
            <trkpt lat="52.53437080157254" lon="13.385709341686338">
                <time>2023-05-05T13:20:54.000Z</time>
            </trkpt>
            <trkpt lat="52.534361719493035" lon="13.385723985271163">
                <time>2023-05-05T13:20:55.000Z</time>
            </trkpt>
            <trkpt lat="52.53435264066298" lon="13.385738279141833">
                <time>2023-05-05T13:20:56.000Z</time>
            </trkpt>
            <trkpt lat="52.53434355675643" lon="13.385752297570077">
                <time>2023-05-05T13:20:57.000Z</time>
            </trkpt>
            <trkpt lat="52.53433444449495" lon="13.385765924509844">
                <time>2023-05-05T13:20:58.000Z</time>
            </trkpt>
            <trkpt lat="52.53432527557651" lon="13.385779172123991">
                <time>2023-05-05T13:20:59.000Z</time>
            </trkpt>
            <trkpt lat="52.53431602622156" lon="13.385792167654332">
                <time>2023-05-05T13:21:00.000Z</time>
            </trkpt>
            <trkpt lat="52.53430674828757" lon="13.385805111647313">
                <time>2023-05-05T13:21:01.000Z</time>
            </trkpt>
            <trkpt lat="52.534297440541984" lon="13.385818121208182">
                <time>2023-05-05T13:21:02.000Z</time>
            </trkpt>
            <trkpt lat="52.534288268277585" lon="13.385831405669085">
                <time>2023-05-05T13:21:03.000Z</time>
            </trkpt>
            <trkpt lat="52.534279181168266" lon="13.385845147682693">
                <time>2023-05-05T13:21:04.000Z</time>
            </trkpt>
            <trkpt lat="52.5342702473032" lon="13.3858593498535">
                <time>2023-05-05T13:21:05.000Z</time>
            </trkpt>
            <trkpt lat="52.534261352089246" lon="13.385873961411681">
                <time>2023-05-05T13:21:06.000Z</time>
            </trkpt>
            <trkpt lat="52.53425253238782" lon="13.385888770676432">
                <time>2023-05-05T13:21:07.000Z</time>
            </trkpt>
            <trkpt lat="52.534243692813035" lon="13.385903627963234">
                <time>2023-05-05T13:21:08.000Z</time>
            </trkpt>
            <trkpt lat="52.53423477531975" lon="13.385918544764637">
                <time>2023-05-05T13:21:09.000Z</time>
            </trkpt>
            <trkpt lat="52.53422579194093" lon="13.385933453440412">
                <time>2023-05-05T13:21:10.000Z</time>
            </trkpt>
            <trkpt lat="52.53421680302187" lon="13.385948284963654">
                <time>2023-05-05T13:21:11.000Z</time>
            </trkpt>
            <trkpt lat="52.53420777762733" lon="13.385962971044284">
                <time>2023-05-05T13:21:12.000Z</time>
            </trkpt>
            <trkpt lat="52.53419869235439" lon="13.38597744893895">
                <time>2023-05-05T13:21:13.000Z</time>
            </trkpt>
            <trkpt lat="52.534189418749904" lon="13.385991625903937">
                <time>2023-05-05T13:21:14.000Z</time>
            </trkpt>
            <trkpt lat="52.53417995648394" lon="13.386005444236025">
                <time>2023-05-05T13:21:15.000Z</time>
            </trkpt>
            <trkpt lat="52.53417033690878" lon="13.386018877608791">
                <time>2023-05-05T13:21:16.000Z</time>
            </trkpt>
            <trkpt lat="52.534160706215744" lon="13.386031904556866">
                <time>2023-05-05T13:21:17.000Z</time>
            </trkpt>
            <trkpt lat="52.5341510815703" lon="13.386044654588845">
                <time>2023-05-05T13:21:18.000Z</time>
            </trkpt>
            <trkpt lat="52.53414162267206" lon="13.386057112875973">
                <time>2023-05-05T13:21:19.000Z</time>
            </trkpt>
            <trkpt lat="52.53413233731474" lon="13.386069370964606">
                <time>2023-05-05T13:21:20.000Z</time>
            </trkpt>
            <trkpt lat="52.534123197881065" lon="13.386081512863916">
                <time>2023-05-05T13:21:21.000Z</time>
            </trkpt>
            <trkpt lat="52.534114199649366" lon="13.386093567755552">
                <time>2023-05-05T13:21:22.000Z</time>
            </trkpt>
            <trkpt lat="52.53410534301493" lon="13.38610557624719">
                <time>2023-05-05T13:21:23.000Z</time>
            </trkpt>
            <trkpt lat="52.534096640813736" lon="13.38611768771121">
                <time>2023-05-05T13:21:24.000Z</time>
            </trkpt>
            <trkpt lat="52.53408811750075" lon="13.386129820420575">
                <time>2023-05-05T13:21:25.000Z</time>
            </trkpt>
            <trkpt lat="52.534079723456394" lon="13.386142090405984">
                <time>2023-05-05T13:21:26.000Z</time>
            </trkpt>
            <trkpt lat="52.53407139610681" lon="13.386154531848293">
                <time>2023-05-05T13:21:27.000Z</time>
            </trkpt>
            <trkpt lat="52.53406312148309" lon="13.386167232082657">
                <time>2023-05-05T13:21:28.000Z</time>
            </trkpt>
            <trkpt lat="52.53405481816831" lon="13.386180233262053">
                <time>2023-05-05T13:21:29.000Z</time>
            </trkpt>
            <trkpt lat="52.53404643468157" lon="13.386193668599704">
                <time>2023-05-05T13:21:30.000Z</time>
            </trkpt>
            <trkpt lat="52.53403788233513" lon="13.386207477746966">
                <time>2023-05-05T13:21:31.000Z</time>
            </trkpt>
            <trkpt lat="52.53402929490451" lon="13.386221447380505">
                <time>2023-05-05T13:21:32.000Z</time>
            </trkpt>
            <trkpt lat="52.534020503492656" lon="13.386235485232481">
                <time>2023-05-05T13:21:33.000Z</time>
            </trkpt>
            <trkpt lat="52.53401143607616" lon="13.386249374367036">
                <time>2023-05-05T13:21:34.000Z</time>
            </trkpt>
            <trkpt lat="52.53400203900164" lon="13.386262913465076">
                <time>2023-05-05T13:21:35.000Z</time>
            </trkpt>
            <trkpt lat="52.533992296046705" lon="13.386276144822851">
                <time>2023-05-05T13:21:36.000Z</time>
            </trkpt>
            <trkpt lat="52.53398222480326" lon="13.38628897564036">
                <time>2023-05-05T13:21:37.000Z</time>
            </trkpt>
            <trkpt lat="52.53397179115822" lon="13.386301409642705">
                <time>2023-05-05T13:21:38.000Z</time>
            </trkpt>
            <trkpt lat="52.53396098774117" lon="13.386313536662085">
                <time>2023-05-05T13:21:39.000Z</time>
            </trkpt>
            <trkpt lat="52.53394991354226" lon="13.386325302797133">
                <time>2023-05-05T13:21:40.000Z</time>
            </trkpt>
            <trkpt lat="52.533938514024165" lon="13.386336717248026">
                <time>2023-05-05T13:21:41.000Z</time>
            </trkpt>
            <trkpt lat="52.53392687953672" lon="13.386347879364386">
                <time>2023-05-05T13:21:42.000Z</time>
            </trkpt>
            <trkpt lat="52.533915048482044" lon="13.386358855440697">
                <time>2023-05-05T13:21:43.000Z</time>
            </trkpt>
            <trkpt lat="52.53390312181738" lon="13.38636983068807">
                <time>2023-05-05T13:21:44.000Z</time>
            </trkpt>
            <trkpt lat="52.53389118396637" lon="13.386380999804343">
                <time>2023-05-05T13:21:45.000Z</time>
            </trkpt>
            <trkpt lat="52.53387934945679" lon="13.386392485543809">
                <time>2023-05-05T13:21:46.000Z</time>
            </trkpt>
            <trkpt lat="52.53386763449861" lon="13.386404397602455">
                <time>2023-05-05T13:21:47.000Z</time>
            </trkpt>
            <trkpt lat="52.533856050159876" lon="13.38641685712787">
                <time>2023-05-05T13:21:48.000Z</time>
            </trkpt>
            <trkpt lat="52.53384466684549" lon="13.386430006165044">
                <time>2023-05-05T13:21:49.000Z</time>
            </trkpt>
            <trkpt lat="52.533833460751005" lon="13.38644384606484">
                <time>2023-05-05T13:21:50.000Z</time>
            </trkpt>
            <trkpt lat="52.533822370989576" lon="13.38645841834574">
                <time>2023-05-05T13:21:51.000Z</time>
            </trkpt>
            <trkpt lat="52.533811376041314" lon="13.386473662884232">
                <time>2023-05-05T13:21:52.000Z</time>
            </trkpt>
            <trkpt lat="52.533800466587394" lon="13.386489456383629">
                <time>2023-05-05T13:21:53.000Z</time>
            </trkpt>
            <trkpt lat="52.53378947483879" lon="13.38650576702708">
                <time>2023-05-05T13:21:54.000Z</time>
            </trkpt>
            <trkpt lat="52.53377840302407" lon="13.386522411926546">
                <time>2023-05-05T13:21:55.000Z</time>
            </trkpt>
            <trkpt lat="52.533767388933896" lon="13.386539118494822">
                <time>2023-05-05T13:21:56.000Z</time>
            </trkpt>
            <trkpt lat="52.53375635502951" lon="13.386555909389518">
                <time>2023-05-05T13:21:57.000Z</time>
            </trkpt>
            <trkpt lat="52.53374525749303" lon="13.386572710159818">
                <time>2023-05-05T13:21:58.000Z</time>
            </trkpt>
            <trkpt lat="52.533734082355544" lon="13.386589430328799">
                <time>2023-05-05T13:21:59.000Z</time>
            </trkpt>
            <trkpt lat="52.53372276762836" lon="13.38660588498213">
                <time>2023-05-05T13:22:00.000Z</time>
            </trkpt>
            <trkpt lat="52.53371129794193" lon="13.386621899019678">
                <time>2023-05-05T13:22:01.000Z</time>
            </trkpt>
            <trkpt lat="52.53369966605655" lon="13.386637361844889">
                <time>2023-05-05T13:22:02.000Z</time>
            </trkpt>
            <trkpt lat="52.53368806154254" lon="13.386652097743603">
                <time>2023-05-05T13:22:03.000Z</time>
            </trkpt>
            <trkpt lat="52.533676468687986" lon="13.386665983091659">
                <time>2023-05-05T13:22:04.000Z</time>
            </trkpt>
            <trkpt lat="52.53366491698077" lon="13.386679044251288">
                <time>2023-05-05T13:22:05.000Z</time>
            </trkpt>
            <trkpt lat="52.53365346799872" lon="13.386691256661402">
                <time>2023-05-05T13:22:06.000Z</time>
            </trkpt>
            <trkpt lat="52.5336419809943" lon="13.38670271944648">
                <time>2023-05-05T13:22:07.000Z</time>
            </trkpt>
            <trkpt lat="52.53363039737144" lon="13.386713311356589">
                <time>2023-05-05T13:22:08.000Z</time>
            </trkpt>
            <trkpt lat="52.5336187378719" lon="13.386723034653398">
                <time>2023-05-05T13:22:09.000Z</time>
            </trkpt>
            <trkpt lat="52.53360702318761" lon="13.386731872932144">
                <time>2023-05-05T13:22:10.000Z</time>
            </trkpt>
            <trkpt lat="52.53359527589671" lon="13.386739865848757">
                <time>2023-05-05T13:22:11.000Z</time>
            </trkpt>
            <trkpt lat="52.53358352602865" lon="13.386747289858812">
                <time>2023-05-05T13:22:12.000Z</time>
            </trkpt>
            <trkpt lat="52.533571832409805" lon="13.38675448721091">
                <time>2023-05-05T13:22:13.000Z</time>
            </trkpt>
            <trkpt lat="52.5335601360644" lon="13.386761763281312">
                <time>2023-05-05T13:22:14.000Z</time>
            </trkpt>
            <trkpt lat="52.533548526501924" lon="13.386769400512357">
                <time>2023-05-05T13:22:15.000Z</time>
            </trkpt>
            <trkpt lat="52.533537153483714" lon="13.38677745282588">
                <time>2023-05-05T13:22:16.000Z</time>
            </trkpt>
            <trkpt lat="52.53352605593478" lon="13.386785969026823">
                <time>2023-05-05T13:22:17.000Z</time>
            </trkpt>
            <trkpt lat="52.53351527709408" lon="13.386794931594933">
                <time>2023-05-05T13:22:18.000Z</time>
            </trkpt>
            <trkpt lat="52.53350485741797" lon="13.386804353547596">
                <time>2023-05-05T13:22:19.000Z</time>
            </trkpt>
            <trkpt lat="52.53349470902793" lon="13.386814351662572">
                <time>2023-05-05T13:22:20.000Z</time>
            </trkpt>
            <trkpt lat="52.53348469026757" lon="13.38682500592716">
                <time>2023-05-05T13:22:21.000Z</time>
            </trkpt>
            <trkpt lat="52.53347482273768" lon="13.38683623722393">
                <time>2023-05-05T13:22:22.000Z</time>
            </trkpt>
            <trkpt lat="52.533465106176806" lon="13.386847709485496">
                <time>2023-05-05T13:22:23.000Z</time>
            </trkpt>
            <trkpt lat="52.533455540709454" lon="13.38685902945805">
                <time>2023-05-05T13:22:24.000Z</time>
            </trkpt>
            <trkpt lat="52.53344612749348" lon="13.38686983109943">
                <time>2023-05-05T13:22:25.000Z</time>
            </trkpt>
            <trkpt lat="52.533436834158806" lon="13.386879680312775">
                <time>2023-05-05T13:22:26.000Z</time>
            </trkpt>
            <trkpt lat="52.533427552875764" lon="13.386888473900564">
                <time>2023-05-05T13:22:27.000Z</time>
            </trkpt>
            <trkpt lat="52.533418373259636" lon="13.386895938968577">
                <time>2023-05-05T13:22:28.000Z</time>
            </trkpt>
            <trkpt lat="52.53340935470949" lon="13.386901893713558">
                <time>2023-05-05T13:22:29.000Z</time>
            </trkpt>
            <trkpt lat="52.53340067145102" lon="13.38690653210674">
                <time>2023-05-05T13:22:30.000Z</time>
            </trkpt>
            <trkpt lat="52.53339247755328" lon="13.386909867738597">
                <time>2023-05-05T13:22:31.000Z</time>
            </trkpt>
            <trkpt lat="52.53338486605533" lon="13.38691172627653">
                <time>2023-05-05T13:22:32.000Z</time>
            </trkpt>
            <trkpt lat="52.533377681008126" lon="13.38691223025993">
                <time>2023-05-05T13:22:33.000Z</time>
            </trkpt>
            <trkpt lat="52.53337079863352" lon="13.386911298473452">
                <time>2023-05-05T13:22:34.000Z</time>
            </trkpt>
            <trkpt lat="52.53336412236911" lon="13.386908656917626">
                <time>2023-05-05T13:22:35.000Z</time>
            </trkpt>
            <trkpt lat="52.53335765552658" lon="13.38690416410009">
                <time>2023-05-05T13:22:36.000Z</time>
            </trkpt>
            <trkpt lat="52.53335139089739" lon="13.386897908993404">
                <time>2023-05-05T13:22:37.000Z</time>
            </trkpt>
            <trkpt lat="52.53334523704853" lon="13.386889940811859">
                <time>2023-05-05T13:22:38.000Z</time>
            </trkpt>
            <trkpt lat="52.53333913994689" lon="13.386880786186232">
                <time>2023-05-05T13:22:39.000Z</time>
            </trkpt>
            <trkpt lat="52.53333285289521" lon="13.386870660681053">
                <time>2023-05-05T13:22:40.000Z</time>
            </trkpt>
            <trkpt lat="52.533326206348995" lon="13.386859309167962">
                <time>2023-05-05T13:22:41.000Z</time>
            </trkpt>
            <trkpt lat="52.53331905454338" lon="13.386846645652435">
                <time>2023-05-05T13:22:42.000Z</time>
            </trkpt>
            <trkpt lat="52.53331139442807" lon="13.386832782317263">
                <time>2023-05-05T13:22:43.000Z</time>
            </trkpt>
            <trkpt lat="52.53330341518124" lon="13.386817663981855">
                <time>2023-05-05T13:22:44.000Z</time>
            </trkpt>
            <trkpt lat="52.533295278167664" lon="13.386801486582334">
                <time>2023-05-05T13:22:45.000Z</time>
            </trkpt>
            <trkpt lat="52.53328699765509" lon="13.386784720453408">
                <time>2023-05-05T13:22:46.000Z</time>
            </trkpt>
            <trkpt lat="52.53327853737658" lon="13.386767714894756">
                <time>2023-05-05T13:22:47.000Z</time>
            </trkpt>
            <trkpt lat="52.53326990876126" lon="13.386750660510698">
                <time>2023-05-05T13:22:48.000Z</time>
            </trkpt>
            <trkpt lat="52.53326111346499" lon="13.386733614375071">
                <time>2023-05-05T13:22:49.000Z</time>
            </trkpt>
            <trkpt lat="52.53325209347065" lon="13.386716405573369">
                <time>2023-05-05T13:22:50.000Z</time>
            </trkpt>
            <trkpt lat="52.533242949125444" lon="13.386699132534176">
                <time>2023-05-05T13:22:51.000Z</time>
            </trkpt>
            <trkpt lat="52.5332337421815" lon="13.386681975034458">
                <time>2023-05-05T13:22:52.000Z</time>
            </trkpt>
            <trkpt lat="52.53322458876023" lon="13.386665050466009">
                <time>2023-05-05T13:22:53.000Z</time>
            </trkpt>
            <trkpt lat="52.53321559849655" lon="13.386648453890496">
                <time>2023-05-05T13:22:54.000Z</time>
            </trkpt>
            <trkpt lat="52.53320685295058" lon="13.386632223418548">
                <time>2023-05-05T13:22:55.000Z</time>
            </trkpt>
            <trkpt lat="52.53319847541495" lon="13.386616624269037">
                <time>2023-05-05T13:22:56.000Z</time>
            </trkpt>
            <trkpt lat="52.53319054322922" lon="13.386601259360718">
                <time>2023-05-05T13:22:57.000Z</time>
            </trkpt>
            <trkpt lat="52.533183117597716" lon="13.386586350275593">
                <time>2023-05-05T13:22:58.000Z</time>
            </trkpt>
            <trkpt lat="52.53317615749759" lon="13.38657181496937">
                <time>2023-05-05T13:22:59.000Z</time>
            </trkpt>
            <trkpt lat="52.53316957962574" lon="13.38655771444567">
                <time>2023-05-05T13:23:00.000Z</time>
            </trkpt>
            <trkpt lat="52.53316324792825" lon="13.386543924169517">
                <time>2023-05-05T13:23:01.000Z</time>
            </trkpt>
            <trkpt lat="52.53315709224924" lon="13.386530432924674">
                <time>2023-05-05T13:23:02.000Z</time>
            </trkpt>
            <trkpt lat="52.53315105788329" lon="13.38651712465998">
                <time>2023-05-05T13:23:03.000Z</time>
            </trkpt>
            <trkpt lat="52.53314507442549" lon="13.38650382959687">
                <time>2023-05-05T13:23:04.000Z</time>
            </trkpt>
            <trkpt lat="52.53313905791288" lon="13.386490379860277">
                <time>2023-05-05T13:23:05.000Z</time>
            </trkpt>
            <trkpt lat="52.53313289182564" lon="13.386476724997618">
                <time>2023-05-05T13:23:06.000Z</time>
            </trkpt>
            <trkpt lat="52.53312641887016" lon="13.38646256240599">
                <time>2023-05-05T13:23:07.000Z</time>
            </trkpt>
            <trkpt lat="52.53311966798028" lon="13.386448407223623">
                <time>2023-05-05T13:23:08.000Z</time>
            </trkpt>
            <trkpt lat="52.53311253999155" lon="13.386433934394683">
                <time>2023-05-05T13:23:09.000Z</time>
            </trkpt>
            <trkpt lat="52.53310506987611" lon="13.386419212874442">
                <time>2023-05-05T13:23:10.000Z</time>
            </trkpt>
            <trkpt lat="52.533097446700026" lon="13.38640418228354">
                <time>2023-05-05T13:23:11.000Z</time>
            </trkpt>
            <trkpt lat="52.53308976556907" lon="13.386388883239885">
                <time>2023-05-05T13:23:12.000Z</time>
            </trkpt>
            <trkpt lat="52.53308213824714" lon="13.386373356760508">
                <time>2023-05-05T13:23:13.000Z</time>
            </trkpt>
            <trkpt lat="52.53307457056083" lon="13.386357768254134">
                <time>2023-05-05T13:23:14.000Z</time>
            </trkpt>
            <trkpt lat="52.533067115746455" lon="13.386342258916352">
                <time>2023-05-05T13:23:15.000Z</time>
            </trkpt>
            <trkpt lat="52.53305979215536" lon="13.386327032420029">
                <time>2023-05-05T13:23:16.000Z</time>
            </trkpt>
            <trkpt lat="52.53305268737349" lon="13.38631212498254">
                <time>2023-05-05T13:23:17.000Z</time>
            </trkpt>
            <trkpt lat="52.53304579300951" lon="13.38629751413049">
                <time>2023-05-05T13:23:18.000Z</time>
            </trkpt>
            <trkpt lat="52.53303896885123" lon="13.386282894211304">
                <time>2023-05-05T13:23:19.000Z</time>
            </trkpt>
            <trkpt lat="52.53303212666531" lon="13.386268249403543">
                <time>2023-05-05T13:23:20.000Z</time>
            </trkpt>
            <trkpt lat="52.53302533825106" lon="13.386253720698114">
                <time>2023-05-05T13:23:21.000Z</time>
            </trkpt>
            <trkpt lat="52.533018369983715" lon="13.386239113765606">
                <time>2023-05-05T13:23:22.000Z</time>
            </trkpt>
            <trkpt lat="52.533011332207884" lon="13.386224665364722">
                <time>2023-05-05T13:23:23.000Z</time>
            </trkpt>
            <trkpt lat="52.53300417320614" lon="13.386210211212445">
                <time>2023-05-05T13:23:24.000Z</time>
            </trkpt>
            <trkpt lat="52.5329969174179" lon="13.386195505124759">
                <time>2023-05-05T13:23:25.000Z</time>
            </trkpt>
            <trkpt lat="52.53298953561048" lon="13.386180457893715">
                <time>2023-05-05T13:23:26.000Z</time>
            </trkpt>
            <trkpt lat="52.532982099670356" lon="13.386165169953726">
                <time>2023-05-05T13:23:27.000Z</time>
            </trkpt>
            <trkpt lat="52.532974482657046" lon="13.386149528968485">
                <time>2023-05-05T13:23:28.000Z</time>
            </trkpt>
            <trkpt lat="52.532966688803555" lon="13.386133546983162">
                <time>2023-05-05T13:23:29.000Z</time>
            </trkpt>
            <trkpt lat="52.53295877592782" lon="13.386117360884922">
                <time>2023-05-05T13:23:30.000Z</time>
            </trkpt>
            <trkpt lat="52.53295084284568" lon="13.386101123832647">
                <time>2023-05-05T13:23:31.000Z</time>
            </trkpt>
            <trkpt lat="52.532942882497984" lon="13.386084638339797">
                <time>2023-05-05T13:23:32.000Z</time>
            </trkpt>
            <trkpt lat="52.53293496293657" lon="13.386068255691407">
                <time>2023-05-05T13:23:33.000Z</time>
            </trkpt>
            <trkpt lat="52.53292697023126" lon="13.386051701785677">
                <time>2023-05-05T13:23:34.000Z</time>
            </trkpt>
            <trkpt lat="52.5329189069592" lon="13.386035104002577">
                <time>2023-05-05T13:23:35.000Z</time>
            </trkpt>
            <trkpt lat="52.53291076037157" lon="13.386018512646295">
                <time>2023-05-05T13:23:36.000Z</time>
            </trkpt>
            <trkpt lat="52.53290253938257" lon="13.386001815754065">
                <time>2023-05-05T13:23:37.000Z</time>
            </trkpt>
            <trkpt lat="52.5328942864717" lon="13.385984564620298">
                <time>2023-05-05T13:23:38.000Z</time>
            </trkpt>
            <trkpt lat="52.53288604907357" lon="13.385966778023993">
                <time>2023-05-05T13:23:39.000Z</time>
            </trkpt>
            <trkpt lat="52.53287794057056" lon="13.385948759202552">
                <time>2023-05-05T13:23:40.000Z</time>
            </trkpt>
            <trkpt lat="52.53286997168214" lon="13.38593036746696">
                <time>2023-05-05T13:23:41.000Z</time>
            </trkpt>
            <trkpt lat="52.532862103128494" lon="13.38591157036587">
                <time>2023-05-05T13:23:42.000Z</time>
            </trkpt>
            <trkpt lat="52.53285415359987" lon="13.385892596445377">
                <time>2023-05-05T13:23:43.000Z</time>
            </trkpt>
            <trkpt lat="52.5328462488789" lon="13.385873460390966">
                <time>2023-05-05T13:23:44.000Z</time>
            </trkpt>
            <trkpt lat="52.532838411151516" lon="13.385854207850452">
                <time>2023-05-05T13:23:45.000Z</time>
            </trkpt>
            <trkpt lat="52.53283065864456" lon="13.385834867248185">
                <time>2023-05-05T13:23:46.000Z</time>
            </trkpt>
            <trkpt lat="52.532823046001205" lon="13.38581560011429">
                <time>2023-05-05T13:23:47.000Z</time>
            </trkpt>
            <trkpt lat="52.53281555472071" lon="13.38579637114731">
                <time>2023-05-05T13:23:48.000Z</time>
            </trkpt>
            <trkpt lat="52.53280796341671" lon="13.385777417842785">
                <time>2023-05-05T13:23:49.000Z</time>
            </trkpt>
            <trkpt lat="52.53280030107285" lon="13.385758846637236">
                <time>2023-05-05T13:23:50.000Z</time>
            </trkpt>
            <trkpt lat="52.53279251096681" lon="13.385740498098466">
                <time>2023-05-05T13:23:51.000Z</time>
            </trkpt>
            <trkpt lat="52.5327846377693" lon="13.385722632768505">
                <time>2023-05-05T13:23:52.000Z</time>
            </trkpt>
            <trkpt lat="52.53277681470806" lon="13.385705260415506">
                <time>2023-05-05T13:23:53.000Z</time>
            </trkpt>
            <trkpt lat="52.53276920043375" lon="13.38568823278257">
                <time>2023-05-05T13:23:54.000Z</time>
            </trkpt>
            <trkpt lat="52.532761714606366" lon="13.385671471202562">
                <time>2023-05-05T13:23:55.000Z</time>
            </trkpt>
            <trkpt lat="52.53275427180627" lon="13.385654984220691">
                <time>2023-05-05T13:23:56.000Z</time>
            </trkpt>
            <trkpt lat="52.53274690411718" lon="13.385638814706306">
                <time>2023-05-05T13:23:57.000Z</time>
            </trkpt>
            <trkpt lat="52.532739514702804" lon="13.385622964675457">
                <time>2023-05-05T13:23:58.000Z</time>
            </trkpt>
            <trkpt lat="52.532732080543035" lon="13.385607540111828">
                <time>2023-05-05T13:23:59.000Z</time>
            </trkpt>
            <trkpt lat="52.53272475246993" lon="13.385592587551004">
                <time>2023-05-05T13:24:00.000Z</time>
            </trkpt>
            <trkpt lat="52.5327174796625" lon="13.385578043072751">
                <time>2023-05-05T13:24:01.000Z</time>
            </trkpt>
            <trkpt lat="52.532710181457" lon="13.385563806109618">
                <time>2023-05-05T13:24:02.000Z</time>
            </trkpt>
            <trkpt lat="52.532702824848435" lon="13.385549722215826">
                <time>2023-05-05T13:24:03.000Z</time>
            </trkpt>
            <trkpt lat="52.5326953675565" lon="13.385535710370469">
                <time>2023-05-05T13:24:04.000Z</time>
            </trkpt>
            <trkpt lat="52.53268776469886" lon="13.385521735423037">
                <time>2023-05-05T13:24:05.000Z</time>
            </trkpt>
            <trkpt lat="52.53268012111719" lon="13.385507681938948">
                <time>2023-05-05T13:24:06.000Z</time>
            </trkpt>
            <trkpt lat="52.53267249846401" lon="13.385493521642248">
                <time>2023-05-05T13:24:07.000Z</time>
            </trkpt>
            <trkpt lat="52.53266485804465" lon="13.385479179856976">
                <time>2023-05-05T13:24:08.000Z</time>
            </trkpt>
            <trkpt lat="52.53265720654475" lon="13.38546459729112">
                <time>2023-05-05T13:24:09.000Z</time>
            </trkpt>
            <trkpt lat="52.53264956808004" lon="13.385449821613664">
                <time>2023-05-05T13:24:10.000Z</time>
            </trkpt>
            <trkpt lat="52.532641875270954" lon="13.385434811656639">
                <time>2023-05-05T13:24:11.000Z</time>
            </trkpt>
            <trkpt lat="52.532634330716796" lon="13.385419932418358">
                <time>2023-05-05T13:24:12.000Z</time>
            </trkpt>
            <trkpt lat="52.532627044575385" lon="13.385405326698553">
                <time>2023-05-05T13:24:13.000Z</time>
            </trkpt>
            <trkpt lat="52.53262006702034" lon="13.385391220610229">
                <time>2023-05-05T13:24:14.000Z</time>
            </trkpt>
            <trkpt lat="52.53261352621221" lon="13.385377932012316">
                <time>2023-05-05T13:24:15.000Z</time>
            </trkpt>
            <trkpt lat="52.532607333768276" lon="13.385365876406873">
                <time>2023-05-05T13:24:16.000Z</time>
            </trkpt>
            <trkpt lat="52.53260135287518" lon="13.385355397060765">
                <time>2023-05-05T13:24:17.000Z</time>
            </trkpt>
            <trkpt lat="52.53259563241175" lon="13.385346493078536">
                <time>2023-05-05T13:24:18.000Z</time>
            </trkpt>
            <trkpt lat="52.53259001000472" lon="13.385339497736316">
                <time>2023-05-05T13:24:19.000Z</time>
            </trkpt>
            <trkpt lat="52.53258438301607" lon="13.38533451074958">
                <time>2023-05-05T13:24:20.000Z</time>
            </trkpt>
            <trkpt lat="52.53257856576613" lon="13.385331589455694">
                <time>2023-05-05T13:24:21.000Z</time>
            </trkpt>
            <trkpt lat="52.532572463136674" lon="13.385330740345438">
                <time>2023-05-05T13:24:22.000Z</time>
            </trkpt>
            <trkpt lat="52.53256586670182" lon="13.385331683714009">
                <time>2023-05-05T13:24:23.000Z</time>
            </trkpt>
            <trkpt lat="52.53255870146263" lon="13.385334366563173">
                <time>2023-05-05T13:24:24.000Z</time>
            </trkpt>
            <trkpt lat="52.53255102949488" lon="13.385338591641766">
                <time>2023-05-05T13:24:25.000Z</time>
            </trkpt>
            <trkpt lat="52.53254276196769" lon="13.385344108741323">
                <time>2023-05-05T13:24:26.000Z</time>
            </trkpt>
            <trkpt lat="52.53253409094759" lon="13.385350551093087">
                <time>2023-05-05T13:24:27.000Z</time>
            </trkpt>
            <trkpt lat="52.53252521399161" lon="13.385357554297418">
                <time>2023-05-05T13:24:28.000Z</time>
            </trkpt>
            <trkpt lat="52.53251608835879" lon="13.385365131366576">
                <time>2023-05-05T13:24:29.000Z</time>
            </trkpt>
            <trkpt lat="52.532506963273775" lon="13.385372869303222">
                <time>2023-05-05T13:24:30.000Z</time>
            </trkpt>
            <trkpt lat="52.53249787633565" lon="13.38538068819937">
                <time>2023-05-05T13:24:31.000Z</time>
            </trkpt>
            <trkpt lat="52.53248894105128" lon="13.385388514586653">
                <time>2023-05-05T13:24:32.000Z</time>
            </trkpt>
            <trkpt lat="52.53248025858961" lon="13.385396274725503">
                <time>2023-05-05T13:24:33.000Z</time>
            </trkpt>
            <trkpt lat="52.53247185536957" lon="13.38540377206577">
                <time>2023-05-05T13:24:34.000Z</time>
            </trkpt>
            <trkpt lat="52.53246375183412" lon="13.385410764442751">
                <time>2023-05-05T13:24:35.000Z</time>
            </trkpt>
            <trkpt lat="52.53245605011084" lon="13.385417133668973">
                <time>2023-05-05T13:24:36.000Z</time>
            </trkpt>
            <trkpt lat="52.53244865601525" lon="13.385422690925918">
                <time>2023-05-05T13:24:37.000Z</time>
            </trkpt>
            <trkpt lat="52.532441653298676" lon="13.3854274062951">
                <time>2023-05-05T13:24:38.000Z</time>
            </trkpt>
            <trkpt lat="52.532434984940025" lon="13.385431094127917">
                <time>2023-05-05T13:24:39.000Z</time>
            </trkpt>
            <trkpt lat="52.53242875182185" lon="13.385433860996487">
                <time>2023-05-05T13:24:40.000Z</time>
            </trkpt>
            <trkpt lat="52.53242294215398" lon="13.385435861558944">
                <time>2023-05-05T13:24:41.000Z</time>
            </trkpt>
            <trkpt lat="52.53241769343449" lon="13.385437092653047">
                <time>2023-05-05T13:24:42.000Z</time>
            </trkpt>
            <trkpt lat="52.532413101790034" lon="13.385437584302178">
                <time>2023-05-05T13:24:43.000Z</time>
            </trkpt>
            <trkpt lat="52.532409191236745" lon="13.385437391188022">
                <time>2023-05-05T13:24:44.000Z</time>
            </trkpt>
            <trkpt lat="52.532405989214446" lon="13.38543668683471">
                <time>2023-05-05T13:24:45.000Z</time>
            </trkpt>
            <trkpt lat="52.532403511011786" lon="13.385435659495345">
                <time>2023-05-05T13:24:46.000Z</time>
            </trkpt>
            <trkpt lat="52.53240155685564" lon="13.385434449035118">
                <time>2023-05-05T13:24:47.000Z</time>
            </trkpt>
            <trkpt lat="52.532400165639885" lon="13.38543325965138">
                <time>2023-05-05T13:24:48.000Z</time>
            </trkpt>
            <trkpt lat="52.53239916445857" lon="13.385432107743776">
                <time>2023-05-05T13:24:49.000Z</time>
            </trkpt>
            <trkpt lat="52.53239850445777" lon="13.385431286392674">
                <time>2023-05-05T13:24:50.000Z</time>
            </trkpt>
            <trkpt lat="52.53239807933915" lon="13.385430706745753">
                <time>2023-05-05T13:24:51.000Z</time>
            </trkpt>
            <trkpt lat="52.53239782642932" lon="13.38543031294188">
                <time>2023-05-05T13:24:52.000Z</time>
            </trkpt>
            <trkpt lat="52.53239770292507" lon="13.38543006229848">
                <time>2023-05-05T13:24:53.000Z</time>
            </trkpt>
            <trkpt lat="52.532397723492515" lon="13.385429897557504">
                <time>2023-05-05T13:24:54.000Z</time>
            </trkpt>
            <trkpt lat="52.532397794457665" lon="13.385429755075021">
                <time>2023-05-05T13:24:55.000Z</time>
            </trkpt>
            <trkpt lat="52.53239792162224" lon="13.38542964796307">
                <time>2023-05-05T13:24:56.000Z</time>
            </trkpt>
            <trkpt lat="52.53239812346207" lon="13.385429548738813">
                <time>2023-05-05T13:24:57.000Z</time>
            </trkpt>
            <trkpt lat="52.532398740211484" lon="13.385429342446095">
                <time>2023-05-05T13:24:58.000Z</time>
            </trkpt>
            <trkpt lat="52.532399567266744" lon="13.385429106767054">
                <time>2023-05-05T13:24:59.000Z</time>
            </trkpt>
            <trkpt lat="52.53240057868198" lon="13.3854287822664">
                <time>2023-05-05T13:25:00.000Z</time>
            </trkpt>
            <trkpt lat="52.53240173787904" lon="13.385428365331604">
                <time>2023-05-05T13:25:01.000Z</time>
            </trkpt>
            <trkpt lat="52.53240303920561" lon="13.385427790717152">
                <time>2023-05-05T13:25:02.000Z</time>
            </trkpt>
            <trkpt lat="52.532404442572584" lon="13.385427014681262">
                <time>2023-05-05T13:25:03.000Z</time>
            </trkpt>
            <trkpt lat="52.53240589920077" lon="13.385426013046617">
                <time>2023-05-05T13:25:04.000Z</time>
            </trkpt>
            <trkpt lat="52.53240735348836" lon="13.385424866099845">
                <time>2023-05-05T13:25:05.000Z</time>
            </trkpt>
            <trkpt lat="52.53240887251607" lon="13.385423626706137">
                <time>2023-05-05T13:25:06.000Z</time>
            </trkpt>
            <trkpt lat="52.53241043409798" lon="13.385422283193863">
                <time>2023-05-05T13:25:07.000Z</time>
            </trkpt>
            <trkpt lat="52.532411951581906" lon="13.385420794896502">
                <time>2023-05-05T13:25:08.000Z</time>
            </trkpt>
            <trkpt lat="52.5324130815214" lon="13.385419280178057">
                <time>2023-05-05T13:25:09.000Z</time>
            </trkpt>
            <trkpt lat="52.53241396646927" lon="13.385417614897552">
                <time>2023-05-05T13:25:10.000Z</time>
            </trkpt>
            <trkpt lat="52.53241462806368" lon="13.385415858628427">
                <time>2023-05-05T13:25:11.000Z</time>
            </trkpt>
            <trkpt lat="52.532415082962736" lon="13.385414013281848">
                <time>2023-05-05T13:25:12.000Z</time>
            </trkpt>
            <trkpt lat="52.532415355693004" lon="13.385412137466718">
                <time>2023-05-05T13:25:13.000Z</time>
            </trkpt>
            <trkpt lat="52.532415484401376" lon="13.385410272875498">
                <time>2023-05-05T13:25:14.000Z</time>
            </trkpt>
            <trkpt lat="52.53241551363405" lon="13.385408452404702">
                <time>2023-05-05T13:25:15.000Z</time>
            </trkpt>
            <trkpt lat="52.53241544705131" lon="13.385406657505582">
                <time>2023-05-05T13:25:16.000Z</time>
            </trkpt>
            <trkpt lat="52.532415261869616" lon="13.385404650413967">
                <time>2023-05-05T13:25:17.000Z</time>
            </trkpt>
            <trkpt lat="52.53241498819314" lon="13.385402430600259">
                <time>2023-05-05T13:25:18.000Z</time>
            </trkpt>
            <trkpt lat="52.53241479235423" lon="13.38540010419652">
                <time>2023-05-05T13:25:19.000Z</time>
            </trkpt>
            <trkpt lat="52.53241478665212" lon="13.385397758376728">
                <time>2023-05-05T13:25:20.000Z</time>
            </trkpt>
            <trkpt lat="52.53241505141439" lon="13.385395457557463">
                <time>2023-05-05T13:25:21.000Z</time>
            </trkpt>
            <trkpt lat="52.532415685568935" lon="13.385393332631445">
                <time>2023-05-05T13:25:22.000Z</time>
            </trkpt>
            <trkpt lat="52.53241673600257" lon="13.385391431636078">
                <time>2023-05-05T13:25:23.000Z</time>
            </trkpt>
            <trkpt lat="52.532418149503876" lon="13.385389700915608">
                <time>2023-05-05T13:25:24.000Z</time>
            </trkpt>
            <trkpt lat="52.53241986915132" lon="13.385388033805812">
                <time>2023-05-05T13:25:25.000Z</time>
            </trkpt>
            <trkpt lat="52.532421841982504" lon="13.385386360686224">
                <time>2023-05-05T13:25:26.000Z</time>
            </trkpt>
            <trkpt lat="52.53242411962769" lon="13.385384688144843">
                <time>2023-05-05T13:25:27.000Z</time>
            </trkpt>
            <trkpt lat="52.53242673734535" lon="13.385383176002755">
                <time>2023-05-05T13:25:28.000Z</time>
            </trkpt>
            <trkpt lat="52.53242973106625" lon="13.385381715976235">
                <time>2023-05-05T13:25:29.000Z</time>
            </trkpt>
            <trkpt lat="52.53243307454574" lon="13.38538019598483">
                <time>2023-05-05T13:25:30.000Z</time>
            </trkpt>
            <trkpt lat="52.532436682401546" lon="13.38537843956476">
                <time>2023-05-05T13:25:31.000Z</time>
            </trkpt>
            <trkpt lat="52.53244038187709" lon="13.38537615274788">
                <time>2023-05-05T13:25:32.000Z</time>
            </trkpt>
            <trkpt lat="52.532444034627694" lon="13.385372923588363">
                <time>2023-05-05T13:25:33.000Z</time>
            </trkpt>
            <trkpt lat="52.53244750938027" lon="13.38536854438891">
                <time>2023-05-05T13:25:34.000Z</time>
            </trkpt>
            <trkpt lat="52.532450769730936" lon="13.385362891428128">
                <time>2023-05-05T13:25:35.000Z</time>
            </trkpt>
            <trkpt lat="52.53245383696924" lon="13.385355934360279">
                <time>2023-05-05T13:25:36.000Z</time>
            </trkpt>
            <trkpt lat="52.53245688909321" lon="13.38534763575911">
                <time>2023-05-05T13:25:37.000Z</time>
            </trkpt>
            <trkpt lat="52.53245984322302" lon="13.385337842499005">
                <time>2023-05-05T13:25:38.000Z</time>
            </trkpt>
            <trkpt lat="52.53246271957753" lon="13.385326519698088">
                <time>2023-05-05T13:25:39.000Z</time>
            </trkpt>
            <trkpt lat="52.53246540652978" lon="13.38531403875847">
                <time>2023-05-05T13:25:40.000Z</time>
            </trkpt>
            <trkpt lat="52.532467727065296" lon="13.385300302253201">
                <time>2023-05-05T13:25:41.000Z</time>
            </trkpt>
            <trkpt lat="52.53246956091684" lon="13.3852853181544">
                <time>2023-05-05T13:25:42.000Z</time>
            </trkpt>
            <trkpt lat="52.5324710269448" lon="13.385269273618242">
                <time>2023-05-05T13:25:43.000Z</time>
            </trkpt>
            <trkpt lat="52.53247199467291" lon="13.385252380057535">
                <time>2023-05-05T13:25:44.000Z</time>
            </trkpt>
            <trkpt lat="52.5324726041266" lon="13.385234670336814">
                <time>2023-05-05T13:25:45.000Z</time>
            </trkpt>
            <trkpt lat="52.53247288306944" lon="13.385216208412782">
                <time>2023-05-05T13:25:46.000Z</time>
            </trkpt>
            <trkpt lat="52.532472725912754" lon="13.385197045574944">
                <time>2023-05-05T13:25:47.000Z</time>
            </trkpt>
            <trkpt lat="52.532472052864335" lon="13.385177549339534">
                <time>2023-05-05T13:25:48.000Z</time>
            </trkpt>
            <trkpt lat="52.53247078511549" lon="13.385157666415534">
                <time>2023-05-05T13:25:49.000Z</time>
            </trkpt>
            <trkpt lat="52.532468808300294" lon="13.385137354683627">
                <time>2023-05-05T13:25:50.000Z</time>
            </trkpt>
            <trkpt lat="52.53246612731161" lon="13.385116195685463">
                <time>2023-05-05T13:25:51.000Z</time>
            </trkpt>
            <trkpt lat="52.532462827183096" lon="13.38509421033123">
                <time>2023-05-05T13:25:52.000Z</time>
            </trkpt>
            <trkpt lat="52.532458918497305" lon="13.385071417962793">
                <time>2023-05-05T13:25:53.000Z</time>
            </trkpt>
            <trkpt lat="52.53245437885662" lon="13.385047860386457">
                <time>2023-05-05T13:25:54.000Z</time>
            </trkpt>
            <trkpt lat="52.53244926408697" lon="13.385023622196638">
                <time>2023-05-05T13:25:55.000Z</time>
            </trkpt>
            <trkpt lat="52.53244343117489" lon="13.38499884502258">
                <time>2023-05-05T13:25:56.000Z</time>
            </trkpt>
            <trkpt lat="52.53243705514286" lon="13.384974031688067">
                <time>2023-05-05T13:25:57.000Z</time>
            </trkpt>
            <trkpt lat="52.532430208512274" lon="13.384949105503326">
                <time>2023-05-05T13:25:58.000Z</time>
            </trkpt>
            <trkpt lat="52.5324228253478" lon="13.384923736914372">
                <time>2023-05-05T13:25:59.000Z</time>
            </trkpt>
            <trkpt lat="52.53241503094651" lon="13.384897999485354">
                <time>2023-05-05T13:26:00.000Z</time>
            </trkpt>
            <trkpt lat="52.532406656510936" lon="13.384872147374578">
                <time>2023-05-05T13:26:01.000Z</time>
            </trkpt>
            <trkpt lat="52.532397656461534" lon="13.384846340166469">
                <time>2023-05-05T13:26:02.000Z</time>
            </trkpt>
            <trkpt lat="52.532387784486986" lon="13.384820983672972">
                <time>2023-05-05T13:26:03.000Z</time>
            </trkpt>
            <trkpt lat="52.53237693321825" lon="13.384796339352043">
                <time>2023-05-05T13:26:04.000Z</time>
            </trkpt>
            <trkpt lat="52.53236506239195" lon="13.384772579034752">
                <time>2023-05-05T13:26:05.000Z</time>
            </trkpt>
            <trkpt lat="52.53235230133897" lon="13.384749666324636">
                <time>2023-05-05T13:26:06.000Z</time>
            </trkpt>
            <trkpt lat="52.53233877976368" lon="13.384727706537605">
                <time>2023-05-05T13:26:07.000Z</time>
            </trkpt>
            <trkpt lat="52.53232447396122" lon="13.384706213358903">
                <time>2023-05-05T13:26:08.000Z</time>
            </trkpt>
            <trkpt lat="52.532309632907214" lon="13.384685360461042">
                <time>2023-05-05T13:26:09.000Z</time>
            </trkpt>
            <trkpt lat="52.53229438341766" lon="13.384665413130692">
                <time>2023-05-05T13:26:10.000Z</time>
            </trkpt>
            <trkpt lat="52.532278798972584" lon="13.384646635281918">
                <time>2023-05-05T13:26:11.000Z</time>
            </trkpt>
            <trkpt lat="52.532263238157654" lon="13.384629001632145">
                <time>2023-05-05T13:26:12.000Z</time>
            </trkpt>
            <trkpt lat="52.53224787335594" lon="13.384612483478158">
                <time>2023-05-05T13:26:13.000Z</time>
            </trkpt>
            <trkpt lat="52.53223301917962" lon="13.384596771148058">
                <time>2023-05-05T13:26:14.000Z</time>
            </trkpt>
            <trkpt lat="52.532218957372784" lon="13.384581487145516">
                <time>2023-05-05T13:26:15.000Z</time>
            </trkpt>
            <trkpt lat="52.53220594281236" lon="13.384566309218757">
                <time>2023-05-05T13:26:16.000Z</time>
            </trkpt>
            <trkpt lat="52.53219414247812" lon="13.384551122186481">
                <time>2023-05-05T13:26:17.000Z</time>
            </trkpt>
            <trkpt lat="52.53218369645776" lon="13.384535685997266">
                <time>2023-05-05T13:26:18.000Z</time>
            </trkpt>
            <trkpt lat="52.53217467735981" lon="13.384519636627562">
                <time>2023-05-05T13:26:19.000Z</time>
            </trkpt>
            <trkpt lat="52.53216691778125" lon="13.384503385508946">
                <time>2023-05-05T13:26:20.000Z</time>
            </trkpt>
            <trkpt lat="52.532160377060265" lon="13.384486594890559">
                <time>2023-05-05T13:26:21.000Z</time>
            </trkpt>
            <trkpt lat="52.53215482006567" lon="13.384469005453315">
                <time>2023-05-05T13:26:22.000Z</time>
            </trkpt>
            <trkpt lat="52.53214999413663" lon="13.384450480719403">
                <time>2023-05-05T13:26:23.000Z</time>
            </trkpt>
            <trkpt lat="52.532145653434924" lon="13.384431056010742">
                <time>2023-05-05T13:26:24.000Z</time>
            </trkpt>
            <trkpt lat="52.532141543780796" lon="13.384410875239992">
                <time>2023-05-05T13:26:25.000Z</time>
            </trkpt>
            <trkpt lat="52.53213747331936" lon="13.384390170801147">
                <time>2023-05-05T13:26:26.000Z</time>
            </trkpt>
            <trkpt lat="52.53213308565615" lon="13.38436883951203">
                <time>2023-05-05T13:26:27.000Z</time>
            </trkpt>
            <trkpt lat="52.53212820883141" lon="13.384347108281325">
                <time>2023-05-05T13:26:28.000Z</time>
            </trkpt>
            <trkpt lat="52.53212279436471" lon="13.384325195533906">
                <time>2023-05-05T13:26:29.000Z</time>
            </trkpt>
            <trkpt lat="52.532116737750556" lon="13.384303587993891">
                <time>2023-05-05T13:26:30.000Z</time>
            </trkpt>
            <trkpt lat="52.53210994835275" lon="13.384281955769978">
                <time>2023-05-05T13:26:31.000Z</time>
            </trkpt>
            <trkpt lat="52.5321024780879" lon="13.384260697284036">
                <time>2023-05-05T13:26:32.000Z</time>
            </trkpt>
            <trkpt lat="52.53209433320592" lon="13.384239900249867">
                <time>2023-05-05T13:26:33.000Z</time>
            </trkpt>
            <trkpt lat="52.53208557999074" lon="13.38421958618913">
                <time>2023-05-05T13:26:34.000Z</time>
            </trkpt>
            <trkpt lat="52.532076322773605" lon="13.384199776270423">
                <time>2023-05-05T13:26:35.000Z</time>
            </trkpt>
            <trkpt lat="52.53206677606845" lon="13.384180365940237">
                <time>2023-05-05T13:26:36.000Z</time>
            </trkpt>
            <trkpt lat="52.53205682095261" lon="13.384161108165138">
                <time>2023-05-05T13:26:37.000Z</time>
            </trkpt>
            <trkpt lat="52.53204673414041" lon="13.384142397872164">
                <time>2023-05-05T13:26:38.000Z</time>
            </trkpt>
            <trkpt lat="52.53203651261891" lon="13.384124244118215">
                <time>2023-05-05T13:26:39.000Z</time>
            </trkpt>
            <trkpt lat="52.532026086991685" lon="13.384106517589135">
                <time>2023-05-05T13:26:40.000Z</time>
            </trkpt>
            <trkpt lat="52.532015335920775" lon="13.384089219282716">
                <time>2023-05-05T13:26:41.000Z</time>
            </trkpt>
            <trkpt lat="52.532004358782274" lon="13.38407218731577">
                <time>2023-05-05T13:26:42.000Z</time>
            </trkpt>
            <trkpt lat="52.53199302183802" lon="13.384055172986761">
                <time>2023-05-05T13:26:43.000Z</time>
            </trkpt>
            <trkpt lat="52.531981504990874" lon="13.384038142130182">
                <time>2023-05-05T13:26:44.000Z</time>
            </trkpt>
            <trkpt lat="52.531969901815245" lon="13.38402112800585">
                <time>2023-05-05T13:26:45.000Z</time>
            </trkpt>
            <trkpt lat="52.531958329839384" lon="13.384004097415351">
                <time>2023-05-05T13:26:46.000Z</time>
            </trkpt>
            <trkpt lat="52.53194683726979" lon="13.38398703986905">
                <time>2023-05-05T13:26:47.000Z</time>
            </trkpt>
            <trkpt lat="52.53193568197142" lon="13.383970154966768">
                <time>2023-05-05T13:26:48.000Z</time>
            </trkpt>
            <trkpt lat="52.53192478665449" lon="13.383953316239342">
                <time>2023-05-05T13:26:49.000Z</time>
            </trkpt>
            <trkpt lat="52.531914142404815" lon="13.383936304704156">
                <time>2023-05-05T13:26:50.000Z</time>
            </trkpt>
            <trkpt lat="52.53190370726577" lon="13.383918966537129">
                <time>2023-05-05T13:26:51.000Z</time>
            </trkpt>
            <trkpt lat="52.53189355255111" lon="13.383901033694865">
                <time>2023-05-05T13:26:52.000Z</time>
            </trkpt>
            <trkpt lat="52.53188375420602" lon="13.383882807030288">
                <time>2023-05-05T13:26:53.000Z</time>
            </trkpt>
            <trkpt lat="52.53187435819598" lon="13.383864004356901">
                <time>2023-05-05T13:26:54.000Z</time>
            </trkpt>
            <trkpt lat="52.53186525764997" lon="13.383844592118113">
                <time>2023-05-05T13:26:55.000Z</time>
            </trkpt>
            <trkpt lat="52.53185639699107" lon="13.383824438564124">
                <time>2023-05-05T13:26:56.000Z</time>
            </trkpt>
            <trkpt lat="52.53184763189858" lon="13.383803642123517">
                <time>2023-05-05T13:26:57.000Z</time>
            </trkpt>
            <trkpt lat="52.53183886451527" lon="13.383782295053898">
                <time>2023-05-05T13:26:58.000Z</time>
            </trkpt>
            <trkpt lat="52.531830015883095" lon="13.38376052120458">
                <time>2023-05-05T13:26:59.000Z</time>
            </trkpt>
            <trkpt lat="52.531821103357395" lon="13.383738400890339">
                <time>2023-05-05T13:27:00.000Z</time>
            </trkpt>
            <trkpt lat="52.53181214324768" lon="13.38371614193896">
                <time>2023-05-05T13:27:01.000Z</time>
            </trkpt>
            <trkpt lat="52.531803102113194" lon="13.383694020232923">
                <time>2023-05-05T13:27:02.000Z</time>
            </trkpt>
            <trkpt lat="52.531793883416434" lon="13.383672359825153">
                <time>2023-05-05T13:27:03.000Z</time>
            </trkpt>
            <trkpt lat="52.53178436101373" lon="13.383650860998678">
                <time>2023-05-05T13:27:04.000Z</time>
            </trkpt>
            <trkpt lat="52.53177451782364" lon="13.383629821423712">
                <time>2023-05-05T13:27:05.000Z</time>
            </trkpt>
            <trkpt lat="52.53176413372971" lon="13.383609065815921">
                <time>2023-05-05T13:27:06.000Z</time>
            </trkpt>
            <trkpt lat="52.53175331029923" lon="13.383588685082053">
                <time>2023-05-05T13:27:07.000Z</time>
            </trkpt>
            <trkpt lat="52.53174232135811" lon="13.383568850576665">
                <time>2023-05-05T13:27:08.000Z</time>
            </trkpt>
            <trkpt lat="52.53173123612848" lon="13.383549370006868">
                <time>2023-05-05T13:27:09.000Z</time>
            </trkpt>
            <trkpt lat="52.53172008825032" lon="13.383530069735963">
                <time>2023-05-05T13:27:10.000Z</time>
            </trkpt>
            <trkpt lat="52.53170898043634" lon="13.383510803267264">
                <time>2023-05-05T13:27:11.000Z</time>
            </trkpt>
            <trkpt lat="52.53169799269042" lon="13.383491451806949">
                <time>2023-05-05T13:27:12.000Z</time>
            </trkpt>
            <trkpt lat="52.53168724871602" lon="13.383471897533404">
                <time>2023-05-05T13:27:13.000Z</time>
            </trkpt>
            <trkpt lat="52.53167690911848" lon="13.38345206327363">
                <time>2023-05-05T13:27:14.000Z</time>
            </trkpt>
            <trkpt lat="52.531667060350784" lon="13.383432128497581">
                <time>2023-05-05T13:27:15.000Z</time>
            </trkpt>
            <trkpt lat="52.5316576912079" lon="13.38341215368695">
                <time>2023-05-05T13:27:16.000Z</time>
            </trkpt>
            <trkpt lat="52.531648969814995" lon="13.3833924689633">
                <time>2023-05-05T13:27:17.000Z</time>
            </trkpt>
            <trkpt lat="52.531640742464035" lon="13.383373103482693">
                <time>2023-05-05T13:27:18.000Z</time>
            </trkpt>
            <trkpt lat="52.5316328089586" lon="13.38335375743605">
                <time>2023-05-05T13:27:19.000Z</time>
            </trkpt>
            <trkpt lat="52.53162512248659" lon="13.383334506921829">
                <time>2023-05-05T13:27:20.000Z</time>
            </trkpt>
            <trkpt lat="52.53161763359649" lon="13.383315399834157">
                <time>2023-05-05T13:27:21.000Z</time>
            </trkpt>
            <trkpt lat="52.531610184919984" lon="13.383296609727863">
                <time>2023-05-05T13:27:22.000Z</time>
            </trkpt>
            <trkpt lat="52.53160264720089" lon="13.383278270931658">
                <time>2023-05-05T13:27:23.000Z</time>
            </trkpt>
            <trkpt lat="52.531594862622676" lon="13.3832605231777">
                <time>2023-05-05T13:27:24.000Z</time>
            </trkpt>
            <trkpt lat="52.53158677986631" lon="13.38324338382249">
                <time>2023-05-05T13:27:25.000Z</time>
            </trkpt>
            <trkpt lat="52.531578456102345" lon="13.383226705652977">
                <time>2023-05-05T13:27:26.000Z</time>
            </trkpt>
            <trkpt lat="52.53157010051611" lon="13.383210358433963">
                <time>2023-05-05T13:27:27.000Z</time>
            </trkpt>
            <trkpt lat="52.53156195620682" lon="13.383194281550717">
                <time>2023-05-05T13:27:28.000Z</time>
            </trkpt>
            <trkpt lat="52.53155423557194" lon="13.38317844605185">
                <time>2023-05-05T13:27:29.000Z</time>
            </trkpt>
            <trkpt lat="52.531547002031886" lon="13.38316282791866">
                <time>2023-05-05T13:27:30.000Z</time>
            </trkpt>
            <trkpt lat="52.53154022476041" lon="13.383147483488154">
                <time>2023-05-05T13:27:31.000Z</time>
            </trkpt>
            <trkpt lat="52.53153392402614" lon="13.38313233283444">
                <time>2023-05-05T13:27:32.000Z</time>
            </trkpt>
            <trkpt lat="52.53152812726894" lon="13.38311718110618">
                <time>2023-05-05T13:27:33.000Z</time>
            </trkpt>
            <trkpt lat="52.53152283493701" lon="13.383101875410564">
                <time>2023-05-05T13:27:34.000Z</time>
            </trkpt>
            <trkpt lat="52.531518125764315" lon="13.383086431579267">
                <time>2023-05-05T13:27:35.000Z</time>
            </trkpt>
            <trkpt lat="52.531514012151085" lon="13.383070775785734">
                <time>2023-05-05T13:27:36.000Z</time>
            </trkpt>
            <trkpt lat="52.53151037988077" lon="13.383054931383471">
                <time>2023-05-05T13:27:37.000Z</time>
            </trkpt>
            <trkpt lat="52.53150710527482" lon="13.38303897481888">
                <time>2023-05-05T13:27:38.000Z</time>
            </trkpt>
            <trkpt lat="52.531504130963505" lon="13.383023156717456">
                <time>2023-05-05T13:27:39.000Z</time>
            </trkpt>
            <trkpt lat="52.53150149925202" lon="13.383007547242052">
                <time>2023-05-05T13:27:40.000Z</time>
            </trkpt>
            <trkpt lat="52.531499196420434" lon="13.382992229061214">
                <time>2023-05-05T13:27:41.000Z</time>
            </trkpt>
            <trkpt lat="52.53149735274582" lon="13.382977280361091">
                <time>2023-05-05T13:27:42.000Z</time>
            </trkpt>
            <trkpt lat="52.53149601262498" lon="13.382962763199378">
                <time>2023-05-05T13:27:43.000Z</time>
            </trkpt>
            <trkpt lat="52.531495051283734" lon="13.3829487657504">
                <time>2023-05-05T13:27:44.000Z</time>
            </trkpt>
            <trkpt lat="52.53149443304032" lon="13.382935508613713">
                <time>2023-05-05T13:27:45.000Z</time>
            </trkpt>
            <trkpt lat="52.53149418262049" lon="13.38292279992624">
                <time>2023-05-05T13:27:46.000Z</time>
            </trkpt>
            <trkpt lat="52.53149442151161" lon="13.38291023469602">
                <time>2023-05-05T13:27:47.000Z</time>
            </trkpt>
            <trkpt lat="52.5314953612396" lon="13.382897547499503">
                <time>2023-05-05T13:27:48.000Z</time>
            </trkpt>
            <trkpt lat="52.53149717595545" lon="13.382884689275908">
                <time>2023-05-05T13:27:49.000Z</time>
            </trkpt>
            <trkpt lat="52.53150001682738" lon="13.382871321880378">
                <time>2023-05-05T13:27:50.000Z</time>
            </trkpt>
            <trkpt lat="52.53150381575374" lon="13.38285715680194">
                <time>2023-05-05T13:27:51.000Z</time>
            </trkpt>
            <trkpt lat="52.531508651842" lon="13.382841948920879">
                <time>2023-05-05T13:27:52.000Z</time>
            </trkpt>
            <trkpt lat="52.531514374820354" lon="13.382825224658381">
                <time>2023-05-05T13:27:53.000Z</time>
            </trkpt>
            <trkpt lat="52.531520893604394" lon="13.382806741350844">
                <time>2023-05-05T13:27:54.000Z</time>
            </trkpt>
            <trkpt lat="52.531528041289064" lon="13.382786269004098">
                <time>2023-05-05T13:27:55.000Z</time>
            </trkpt>
            <trkpt lat="52.53153544081286" lon="13.38276362654148">
                <time>2023-05-05T13:27:56.000Z</time>
            </trkpt>
            <trkpt lat="52.53154218476807" lon="13.382739370455964">
                <time>2023-05-05T13:27:57.000Z</time>
            </trkpt>
            <trkpt lat="52.531548182742604" lon="13.382714469846421">
                <time>2023-05-05T13:27:58.000Z</time>
            </trkpt>
            <trkpt lat="52.531553071046275" lon="13.38268939397301">
                <time>2023-05-05T13:27:59.000Z</time>
            </trkpt>
            <trkpt lat="52.53155731252127" lon="13.382663737147869">
                <time>2023-05-05T13:28:00.000Z</time>
            </trkpt>
            <trkpt lat="52.531560996733084" lon="13.382637496403204">
                <time>2023-05-05T13:28:01.000Z</time>
            </trkpt>
            <trkpt lat="52.53156421374521" lon="13.382610888122242">
                <time>2023-05-05T13:28:02.000Z</time>
            </trkpt>
            <trkpt lat="52.531566764680925" lon="13.382583940754921">
                <time>2023-05-05T13:28:03.000Z</time>
            </trkpt>
            <trkpt lat="52.53156867070526" lon="13.382556898438507">
                <time>2023-05-05T13:28:04.000Z</time>
            </trkpt>
            <trkpt lat="52.53156983500683" lon="13.382529913615516">
                <time>2023-05-05T13:28:05.000Z</time>
            </trkpt>
            <trkpt lat="52.531570485695006" lon="13.382503400283646">
                <time>2023-05-05T13:28:06.000Z</time>
            </trkpt>
            <trkpt lat="52.53157106932735" lon="13.38247759918255">
                <time>2023-05-05T13:28:07.000Z</time>
            </trkpt>
            <trkpt lat="52.53157251395371" lon="13.38245220399446">
                <time>2023-05-05T13:28:08.000Z</time>
            </trkpt>
            <trkpt lat="52.53157478391722" lon="13.382426936401247">
                <time>2023-05-05T13:28:09.000Z</time>
            </trkpt>
            <trkpt lat="52.531577928221196" lon="13.382401583458234">
                <time>2023-05-05T13:28:10.000Z</time>
            </trkpt>
            <trkpt lat="52.53158117259848" lon="13.38237628291222">
                <time>2023-05-05T13:28:11.000Z</time>
            </trkpt>
            <trkpt lat="52.53158411815023" lon="13.382350851660256">
                <time>2023-05-05T13:28:12.000Z</time>
            </trkpt>
            <trkpt lat="52.531586455717395" lon="13.382325110017474">
                <time>2023-05-05T13:28:13.000Z</time>
            </trkpt>
            <trkpt lat="52.53158829989001" lon="13.382299063203106">
                <time>2023-05-05T13:28:14.000Z</time>
            </trkpt>
            <trkpt lat="52.531589804774505" lon="13.382272653764664">
                <time>2023-05-05T13:28:15.000Z</time>
            </trkpt>
            <trkpt lat="52.53159130622279" lon="13.382245842834214">
                <time>2023-05-05T13:28:16.000Z</time>
            </trkpt>
            <trkpt lat="52.53159300037259" lon="13.382218319222705">
                <time>2023-05-05T13:28:17.000Z</time>
            </trkpt>
            <trkpt lat="52.531595049472635" lon="13.38218978598652">
                <time>2023-05-05T13:28:18.000Z</time>
            </trkpt>
            <trkpt lat="52.53159743932991" lon="13.382159909872554">
                <time>2023-05-05T13:28:19.000Z</time>
            </trkpt>
            <trkpt lat="52.53160015791768" lon="13.38212834745532">
                <time>2023-05-05T13:28:20.000Z</time>
            </trkpt>
            <trkpt lat="52.531603266539875" lon="13.382094998198077">
                <time>2023-05-05T13:28:21.000Z</time>
            </trkpt>
            <trkpt lat="52.531606745625055" lon="13.382060038981633">
                <time>2023-05-05T13:28:22.000Z</time>
            </trkpt>
            <trkpt lat="52.53161064432593" lon="13.382023708212332">
                <time>2023-05-05T13:28:23.000Z</time>
            </trkpt>
            <trkpt lat="52.53161503965835" lon="13.381986252647295">
                <time>2023-05-05T13:28:24.000Z</time>
            </trkpt>
            <trkpt lat="52.53161981284909" lon="13.381948476191571">
                <time>2023-05-05T13:28:25.000Z</time>
            </trkpt>
            <trkpt lat="52.53162487719613" lon="13.381910383429899">
                <time>2023-05-05T13:28:26.000Z</time>
            </trkpt>
            <trkpt lat="52.531630136510586" lon="13.381872236306343">
                <time>2023-05-05T13:28:27.000Z</time>
            </trkpt>
            <trkpt lat="52.53163548115754" lon="13.381834326442947">
                <time>2023-05-05T13:28:28.000Z</time>
            </trkpt>
            <trkpt lat="52.531640845326116" lon="13.381796931073053">
                <time>2023-05-05T13:28:29.000Z</time>
            </trkpt>
            <trkpt lat="52.5316462593695" lon="13.381760541971154">
                <time>2023-05-05T13:28:30.000Z</time>
            </trkpt>
            <trkpt lat="52.5316518151938" lon="13.381725315263937">
                <time>2023-05-05T13:28:31.000Z</time>
            </trkpt>
            <trkpt lat="52.53165744198324" lon="13.381691796228138">
                <time>2023-05-05T13:28:32.000Z</time>
            </trkpt>
            <trkpt lat="52.531663286722846" lon="13.381660187062959">
                <time>2023-05-05T13:28:33.000Z</time>
            </trkpt>
            <trkpt lat="52.531669423042075" lon="13.381630582860765">
                <time>2023-05-05T13:28:34.000Z</time>
            </trkpt>
            <trkpt lat="52.53167595773725" lon="13.381602945695136">
                <time>2023-05-05T13:28:35.000Z</time>
            </trkpt>
            <trkpt lat="52.53168302795785" lon="13.381576630387082">
                <time>2023-05-05T13:28:36.000Z</time>
            </trkpt>
            <trkpt lat="52.53169071779137" lon="13.38155199552857">
                <time>2023-05-05T13:28:37.000Z</time>
            </trkpt>
            <trkpt lat="52.53169900328396" lon="13.38152898389225">
                <time>2023-05-05T13:28:38.000Z</time>
            </trkpt>
            <trkpt lat="52.531707916108466" lon="13.381507527525764">
                <time>2023-05-05T13:28:39.000Z</time>
            </trkpt>
            <trkpt lat="52.531717274967626" lon="13.381487556696078">
                <time>2023-05-05T13:28:40.000Z</time>
            </trkpt>
            <trkpt lat="52.53172702318891" lon="13.381468692507388">
                <time>2023-05-05T13:28:41.000Z</time>
            </trkpt>
            <trkpt lat="52.531736959181494" lon="13.381450829121848">
                <time>2023-05-05T13:28:42.000Z</time>
            </trkpt>
            <trkpt lat="52.531747159438346" lon="13.381433545112031">
                <time>2023-05-05T13:28:43.000Z</time>
            </trkpt>
            <trkpt lat="52.531757543631876" lon="13.381416741558137">
                <time>2023-05-05T13:28:44.000Z</time>
            </trkpt>
            <trkpt lat="52.53176807951654" lon="13.38140030087393">
                <time>2023-05-05T13:28:45.000Z</time>
            </trkpt>
            <trkpt lat="52.531778722048124" lon="13.381384231492051">
                <time>2023-05-05T13:28:46.000Z</time>
            </trkpt>
            <trkpt lat="52.53178949704798" lon="13.38136857694704">
                <time>2023-05-05T13:28:47.000Z</time>
            </trkpt>
            <trkpt lat="52.53180032685286" lon="13.381353109925977">
                <time>2023-05-05T13:28:48.000Z</time>
            </trkpt>
            <trkpt lat="52.53181121950547" lon="13.381337678579904">
                <time>2023-05-05T13:28:49.000Z</time>
            </trkpt>
            <trkpt lat="52.53182199724435" lon="13.381322399348864">
                <time>2023-05-05T13:28:50.000Z</time>
            </trkpt>
            <trkpt lat="52.531832852895484" lon="13.381307071097979">
                <time>2023-05-05T13:28:51.000Z</time>
            </trkpt>
            <trkpt lat="52.531843733745475" lon="13.38129166351476">
                <time>2023-05-05T13:28:52.000Z</time>
            </trkpt>
            <trkpt lat="52.53185467968421" lon="13.381276373190298">
                <time>2023-05-05T13:28:53.000Z</time>
            </trkpt>
            <trkpt lat="52.53186559778467" lon="13.381261252521586">
                <time>2023-05-05T13:28:54.000Z</time>
            </trkpt>
            <trkpt lat="52.531876436902174" lon="13.381246294692922">
                <time>2023-05-05T13:28:55.000Z</time>
            </trkpt>
            <trkpt lat="52.53188718620518" lon="13.381231547270959">
                <time>2023-05-05T13:28:56.000Z</time>
            </trkpt>
            <trkpt lat="52.531897892530715" lon="13.381216970282516">
                <time>2023-05-05T13:28:57.000Z</time>
            </trkpt>
            <trkpt lat="52.53190850254283" lon="13.38120239409231">
                <time>2023-05-05T13:28:58.000Z</time>
            </trkpt>
            <trkpt lat="52.53191907582736" lon="13.381187888719923">
                <time>2023-05-05T13:28:59.000Z</time>
            </trkpt>
            <trkpt lat="52.53192957585593" lon="13.381173510655868">
                <time>2023-05-05T13:29:00.000Z</time>
            </trkpt>
            <trkpt lat="52.53194018494674" lon="13.381159137422163">
                <time>2023-05-05T13:29:01.000Z</time>
            </trkpt>
            <trkpt lat="52.531950830615735" lon="13.381144882900408">
                <time>2023-05-05T13:29:02.000Z</time>
            </trkpt>
            <trkpt lat="52.531961592443466" lon="13.381130827159769">
                <time>2023-05-05T13:29:03.000Z</time>
            </trkpt>
            <trkpt lat="52.53197251101704" lon="13.381116737975107">
                <time>2023-05-05T13:29:04.000Z</time>
            </trkpt>
            <trkpt lat="52.53198378347015" lon="13.381102580264997">
                <time>2023-05-05T13:29:05.000Z</time>
            </trkpt>
            <trkpt lat="52.531995484552795" lon="13.38108833540394">
                <time>2023-05-05T13:29:06.000Z</time>
            </trkpt>
            <trkpt lat="52.532007596361794" lon="13.381073926065426">
                <time>2023-05-05T13:29:07.000Z</time>
            </trkpt>
            <trkpt lat="52.532020030427276" lon="13.381059380167233">
                <time>2023-05-05T13:29:08.000Z</time>
            </trkpt>
            <trkpt lat="52.53203270657109" lon="13.381044808643633">
                <time>2023-05-05T13:29:09.000Z</time>
            </trkpt>
            <trkpt lat="52.53204547534308" lon="13.38103019692171">
                <time>2023-05-05T13:29:10.000Z</time>
            </trkpt>
            <trkpt lat="52.53205826099731" lon="13.381015499399702">
                <time>2023-05-05T13:29:11.000Z</time>
            </trkpt>
            <trkpt lat="52.53207101485418" lon="13.38100060604391">
                <time>2023-05-05T13:29:12.000Z</time>
            </trkpt>
            <trkpt lat="52.53208364336419" lon="13.380985532327822">
                <time>2023-05-05T13:29:13.000Z</time>
            </trkpt>
            <trkpt lat="52.532096168787966" lon="13.380970285783507">
                <time>2023-05-05T13:29:14.000Z</time>
            </trkpt>
            <trkpt lat="52.53210855526945" lon="13.380954932684979">
                <time>2023-05-05T13:29:15.000Z</time>
            </trkpt>
            <trkpt lat="52.532120760005455" lon="13.380939517979044">
                <time>2023-05-05T13:29:16.000Z</time>
            </trkpt>
            <trkpt lat="52.53213276621332" lon="13.380924149447965">
                <time>2023-05-05T13:29:17.000Z</time>
            </trkpt>
            <trkpt lat="52.53214463915612" lon="13.380908940850542">
                <time>2023-05-05T13:29:18.000Z</time>
            </trkpt>
            <trkpt lat="52.5321564579164" lon="13.380893874666521">
                <time>2023-05-05T13:29:19.000Z</time>
            </trkpt>
            <trkpt lat="52.53216832092407" lon="13.380878974433621">
                <time>2023-05-05T13:29:20.000Z</time>
            </trkpt>
            <trkpt lat="52.53218022227782" lon="13.380864161597282">
                <time>2023-05-05T13:29:21.000Z</time>
            </trkpt>
            <trkpt lat="52.53219220017434" lon="13.380849493057365">
                <time>2023-05-05T13:29:22.000Z</time>
            </trkpt>
            <trkpt lat="52.53220420981843" lon="13.380834991410076">
                <time>2023-05-05T13:29:23.000Z</time>
            </trkpt>
            <trkpt lat="52.532216202630075" lon="13.38082054044051">
                <time>2023-05-05T13:29:24.000Z</time>
            </trkpt>
            <trkpt lat="52.532228074676475" lon="13.38080612279216">
                <time>2023-05-05T13:29:25.000Z</time>
            </trkpt>
            <trkpt lat="52.532239854891465" lon="13.380791857791007">
                <time>2023-05-05T13:29:26.000Z</time>
            </trkpt>
            <trkpt lat="52.532251543524076" lon="13.380777655011288">
                <time>2023-05-05T13:29:27.000Z</time>
            </trkpt>
            <trkpt lat="52.53226310947412" lon="13.3807634236179">
                <time>2023-05-05T13:29:28.000Z</time>
            </trkpt>
            <trkpt lat="52.5322745467905" lon="13.380749110272326">
                <time>2023-05-05T13:29:29.000Z</time>
            </trkpt>
            <trkpt lat="52.53228577454802" lon="13.380734702694026">
                <time>2023-05-05T13:29:30.000Z</time>
            </trkpt>
            <trkpt lat="52.53229673911199" lon="13.380720135918905">
                <time>2023-05-05T13:29:31.000Z</time>
            </trkpt>
            <trkpt lat="52.532307468818665" lon="13.380705435899852">
                <time>2023-05-05T13:29:32.000Z</time>
            </trkpt>
            <trkpt lat="52.532318008811835" lon="13.380690513070748">
                <time>2023-05-05T13:29:33.000Z</time>
            </trkpt>
            <trkpt lat="52.532328364320506" lon="13.380675436161717">
                <time>2023-05-05T13:29:34.000Z</time>
            </trkpt>
            <trkpt lat="52.532338679765004" lon="13.3806601903133">
                <time>2023-05-05T13:29:35.000Z</time>
            </trkpt>
            <trkpt lat="52.53234896864114" lon="13.380644727549493">
                <time>2023-05-05T13:29:36.000Z</time>
            </trkpt>
            <trkpt lat="52.532359199276044" lon="13.380628927152522">
                <time>2023-05-05T13:29:37.000Z</time>
            </trkpt>
            <trkpt lat="52.53236933875186" lon="13.380612794771439">
                <time>2023-05-05T13:29:38.000Z</time>
            </trkpt>
            <trkpt lat="52.53237942207806" lon="13.3805963818208">
                <time>2023-05-05T13:29:39.000Z</time>
            </trkpt>
            <trkpt lat="52.5323894533756" lon="13.380579682815293">
                <time>2023-05-05T13:29:40.000Z</time>
            </trkpt>
            <trkpt lat="52.53239954575297" lon="13.380562742824525">
                <time>2023-05-05T13:29:41.000Z</time>
            </trkpt>
            <trkpt lat="52.532409781031745" lon="13.380545634672139">
                <time>2023-05-05T13:29:42.000Z</time>
            </trkpt>
            <trkpt lat="52.53242022375286" lon="13.380528444117283">
                <time>2023-05-05T13:29:43.000Z</time>
            </trkpt>
            <trkpt lat="52.532430883079535" lon="13.380511299041386">
                <time>2023-05-05T13:29:44.000Z</time>
            </trkpt>
            <trkpt lat="52.53244185781518" lon="13.380494207836152">
                <time>2023-05-05T13:29:45.000Z</time>
            </trkpt>
            <trkpt lat="52.53245314600513" lon="13.380477373376216">
                <time>2023-05-05T13:29:46.000Z</time>
            </trkpt>
            <trkpt lat="52.53246476395895" lon="13.380460934186141">
                <time>2023-05-05T13:29:47.000Z</time>
            </trkpt>
            <trkpt lat="52.53247677534603" lon="13.380445101327593">
                <time>2023-05-05T13:29:48.000Z</time>
            </trkpt>
            <trkpt lat="52.532489182917864" lon="13.38043008131843">
                <time>2023-05-05T13:29:49.000Z</time>
            </trkpt>
            <trkpt lat="52.53250195835063" lon="13.380415944485247">
                <time>2023-05-05T13:29:50.000Z</time>
            </trkpt>
            <trkpt lat="52.532515038734346" lon="13.380402595162588">
                <time>2023-05-05T13:29:51.000Z</time>
            </trkpt>
            <trkpt lat="52.53252828645886" lon="13.380389988935809">
                <time>2023-05-05T13:29:52.000Z</time>
            </trkpt>
            <trkpt lat="52.53254157377446" lon="13.380377940327719">
                <time>2023-05-05T13:29:53.000Z</time>
            </trkpt>
            <trkpt lat="52.53255476986872" lon="13.380366165084599">
                <time>2023-05-05T13:29:54.000Z</time>
            </trkpt>
            <trkpt lat="52.532567789409136" lon="13.380354533237329">
                <time>2023-05-05T13:29:55.000Z</time>
            </trkpt>
            <trkpt lat="52.53258059188335" lon="13.380342934138183">
                <time>2023-05-05T13:29:56.000Z</time>
            </trkpt>
            <trkpt lat="52.532593173021" lon="13.38033119835655">
                <time>2023-05-05T13:29:57.000Z</time>
            </trkpt>
            <trkpt lat="52.5326055659267" lon="13.380319232396543">
                <time>2023-05-05T13:29:58.000Z</time>
            </trkpt>
            <trkpt lat="52.532617751464755" lon="13.380306897528909">
                <time>2023-05-05T13:29:59.000Z</time>
            </trkpt>
            <trkpt lat="52.532629739308845" lon="13.38029397823006">
                <time>2023-05-05T13:30:00.000Z</time>
            </trkpt>
            <trkpt lat="52.53264152757901" lon="13.38028037695152">
                <time>2023-05-05T13:30:01.000Z</time>
            </trkpt>
            <trkpt lat="52.53265310584213" lon="13.380266286866286">
                <time>2023-05-05T13:30:02.000Z</time>
            </trkpt>
            <trkpt lat="52.53266452908997" lon="13.38025180073342">
                <time>2023-05-05T13:30:03.000Z</time>
            </trkpt>
            <trkpt lat="52.532675945315994" lon="13.380237143900958">
                <time>2023-05-05T13:30:04.000Z</time>
            </trkpt>
            <trkpt lat="52.532687463495286" lon="13.380222627066727">
                <time>2023-05-05T13:30:05.000Z</time>
            </trkpt>
            <trkpt lat="52.532699190561125" lon="13.380208358258601">
                <time>2023-05-05T13:30:06.000Z</time>
            </trkpt>
            <trkpt lat="52.532711142636295" lon="13.380194377838649">
                <time>2023-05-05T13:30:07.000Z</time>
            </trkpt>
            <trkpt lat="52.532723296738034" lon="13.380180708321204">
                <time>2023-05-05T13:30:08.000Z</time>
            </trkpt>
            <trkpt lat="52.53273558833787" lon="13.380167294198195">
                <time>2023-05-05T13:30:09.000Z</time>
            </trkpt>
            <trkpt lat="52.5327479651208" lon="13.380154010658332">
                <time>2023-05-05T13:30:10.000Z</time>
            </trkpt>
            <trkpt lat="52.53276041870793" lon="13.380140890654415">
                <time>2023-05-05T13:30:11.000Z</time>
            </trkpt>
            <trkpt lat="52.53277296003039" lon="13.380127898859406">
                <time>2023-05-05T13:30:12.000Z</time>
            </trkpt>
            <trkpt lat="52.53278569148966" lon="13.380114955245075">
                <time>2023-05-05T13:30:13.000Z</time>
            </trkpt>
            <trkpt lat="52.53279850195679" lon="13.380102155804364">
                <time>2023-05-05T13:30:14.000Z</time>
            </trkpt>
            <trkpt lat="52.532811377848816" lon="13.380089514414284">
                <time>2023-05-05T13:30:15.000Z</time>
            </trkpt>
            <trkpt lat="52.53282426133536" lon="13.380076931070256">
                <time>2023-05-05T13:30:16.000Z</time>
            </trkpt>
            <trkpt lat="52.532837084065775" lon="13.380064318130112">
                <time>2023-05-05T13:30:17.000Z</time>
            </trkpt>
            <trkpt lat="52.53284977105355" lon="13.380051570513308">
                <time>2023-05-05T13:30:18.000Z</time>
            </trkpt>
            <trkpt lat="52.5328622629245" lon="13.380038532420638">
                <time>2023-05-05T13:30:19.000Z</time>
            </trkpt>
            <trkpt lat="52.53287457246483" lon="13.380025124642577">
                <time>2023-05-05T13:30:20.000Z</time>
            </trkpt>
            <trkpt lat="52.532886745640006" lon="13.380011315659056">
                <time>2023-05-05T13:30:21.000Z</time>
            </trkpt>
            <trkpt lat="52.532898791787574" lon="13.379997119674574">
                <time>2023-05-05T13:30:22.000Z</time>
            </trkpt>
            <trkpt lat="52.532910729308654" lon="13.379982631658692">
                <time>2023-05-05T13:30:23.000Z</time>
            </trkpt>
            <trkpt lat="52.53292252743925" lon="13.379967956364471">
                <time>2023-05-05T13:30:24.000Z</time>
            </trkpt>
            <trkpt lat="52.532934322619184" lon="13.379953062967742">
                <time>2023-05-05T13:30:25.000Z</time>
            </trkpt>
            <trkpt lat="52.53294603099753" lon="13.379938001000044">
                <time>2023-05-05T13:30:26.000Z</time>
            </trkpt>
            <trkpt lat="52.532957660716605" lon="13.379922830267638">
                <time>2023-05-05T13:30:27.000Z</time>
            </trkpt>
            <trkpt lat="52.53296922768755" lon="13.379907600015516">
                <time>2023-05-05T13:30:28.000Z</time>
            </trkpt>
            <trkpt lat="52.532980765189286" lon="13.379892368330662">
                <time>2023-05-05T13:30:29.000Z</time>
            </trkpt>
            <trkpt lat="52.532992297611415" lon="13.3798772345627">
                <time>2023-05-05T13:30:30.000Z</time>
            </trkpt>
            <trkpt lat="52.53300379527306" lon="13.37986232106681">
                <time>2023-05-05T13:30:31.000Z</time>
            </trkpt>
            <trkpt lat="52.53301527342551" lon="13.379847661287014">
                <time>2023-05-05T13:30:32.000Z</time>
            </trkpt>
            <trkpt lat="52.533026728694814" lon="13.37983314076862">
                <time>2023-05-05T13:30:33.000Z</time>
            </trkpt>
            <trkpt lat="52.53303815373547" lon="13.379818605800114">
                <time>2023-05-05T13:30:34.000Z</time>
            </trkpt>
            <trkpt lat="52.53304946746043" lon="13.379804022814671">
                <time>2023-05-05T13:30:35.000Z</time>
            </trkpt>
            <trkpt lat="52.533060631959366" lon="13.379789199990153">
                <time>2023-05-05T13:30:36.000Z</time>
            </trkpt>
            <trkpt lat="52.53307161071636" lon="13.379774109940938">
                <time>2023-05-05T13:30:37.000Z</time>
            </trkpt>
            <trkpt lat="52.53308241938111" lon="13.379758819432265">
                <time>2023-05-05T13:30:38.000Z</time>
            </trkpt>
            <trkpt lat="52.53309307634227" lon="13.379743438784379">
                <time>2023-05-05T13:30:39.000Z</time>
            </trkpt>
            <trkpt lat="52.5331035522925" lon="13.379728057235921">
                <time>2023-05-05T13:30:40.000Z</time>
            </trkpt>
            <trkpt lat="52.53311393862744" lon="13.379712765335453">
                <time>2023-05-05T13:30:41.000Z</time>
            </trkpt>
            <trkpt lat="52.53312428883241" lon="13.379697602216986">
                <time>2023-05-05T13:30:42.000Z</time>
            </trkpt>
            <trkpt lat="52.533134580211" lon="13.379682588675577">
                <time>2023-05-05T13:30:43.000Z</time>
            </trkpt>
            <trkpt lat="52.53314480804465" lon="13.37966782176848">
                <time>2023-05-05T13:30:44.000Z</time>
            </trkpt>
            <trkpt lat="52.53315500521389" lon="13.379653434002792">
                <time>2023-05-05T13:30:45.000Z</time>
            </trkpt>
            <trkpt lat="52.533165281440795" lon="13.379639309818572">
                <time>2023-05-05T13:30:46.000Z</time>
            </trkpt>
            <trkpt lat="52.53317570556157" lon="13.379625548278897">
                <time>2023-05-05T13:30:47.000Z</time>
            </trkpt>
            <trkpt lat="52.53318633819538" lon="13.37961223956391">
                <time>2023-05-05T13:30:48.000Z</time>
            </trkpt>
            <trkpt lat="52.53319717385177" lon="13.379599582864085">
                <time>2023-05-05T13:30:49.000Z</time>
            </trkpt>
            <trkpt lat="52.53320817508106" lon="13.379587888467897">
                <time>2023-05-05T13:30:50.000Z</time>
            </trkpt>
            <trkpt lat="52.5332193839768" lon="13.379577552422978">
                <time>2023-05-05T13:30:51.000Z</time>
            </trkpt>
            <trkpt lat="52.53323077748153" lon="13.37956958685105">
                <time>2023-05-05T13:30:52.000Z</time>
            </trkpt>
            <trkpt lat="52.53324229500097" lon="13.379564502090695">
                <time>2023-05-05T13:30:53.000Z</time>
            </trkpt>
            <trkpt lat="52.53325392940126" lon="13.379562647400663">
                <time>2023-05-05T13:30:54.000Z</time>
            </trkpt>
            <trkpt lat="52.533265681304904" lon="13.379564299379803">
                <time>2023-05-05T13:30:55.000Z</time>
            </trkpt>
            <trkpt lat="52.53327751381002" lon="13.379569650259604">
                <time>2023-05-05T13:30:56.000Z</time>
            </trkpt>
            <trkpt lat="52.533289425883254" lon="13.379578877043677">
                <time>2023-05-05T13:30:57.000Z</time>
            </trkpt>
            <trkpt lat="52.533301398451165" lon="13.379592020994659">
                <time>2023-05-05T13:30:58.000Z</time>
            </trkpt>
            <trkpt lat="52.53331338726636" lon="13.379608912845685">
                <time>2023-05-05T13:30:59.000Z</time>
            </trkpt>
            <trkpt lat="52.533325180242635" lon="13.379628712116135">
                <time>2023-05-05T13:31:00.000Z</time>
            </trkpt>
            <trkpt lat="52.53333689092424" lon="13.379650977074748">
                <time>2023-05-05T13:31:01.000Z</time>
            </trkpt>
            <trkpt lat="52.53334845093561" lon="13.37967522002008">
                <time>2023-05-05T13:31:02.000Z</time>
            </trkpt>
            <trkpt lat="52.533359584795036" lon="13.379699873422219">
                <time>2023-05-05T13:31:03.000Z</time>
            </trkpt>
            <trkpt lat="52.533370211776536" lon="13.379724085174962">
                <time>2023-05-05T13:31:04.000Z</time>
            </trkpt>
            <trkpt lat="52.53338022686414" lon="13.379747324594955">
                <time>2023-05-05T13:31:05.000Z</time>
            </trkpt>
            <trkpt lat="52.53338947872776" lon="13.379769434573069">
                <time>2023-05-05T13:31:06.000Z</time>
            </trkpt>
            <trkpt lat="52.533397891521865" lon="13.379789882747605">
                <time>2023-05-05T13:31:07.000Z</time>
            </trkpt>
            <trkpt lat="52.533405319282316" lon="13.379808595025935">
                <time>2023-05-05T13:31:08.000Z</time>
            </trkpt>
            <trkpt lat="52.533411583874155" lon="13.379825542303161">
                <time>2023-05-05T13:31:09.000Z</time>
            </trkpt>
            <trkpt lat="52.533416704955975" lon="13.3798403528062">
                <time>2023-05-05T13:31:10.000Z</time>
            </trkpt>
            <trkpt lat="52.53342091414806" lon="13.37985329380068">
                <time>2023-05-05T13:31:11.000Z</time>
            </trkpt>
            <trkpt lat="52.53342412751233" lon="13.379864238469493">
                <time>2023-05-05T13:31:12.000Z</time>
            </trkpt>
            <trkpt lat="52.533426370285" lon="13.379873287390314">
                <time>2023-05-05T13:31:13.000Z</time>
            </trkpt>
            <trkpt lat="52.53342786999028" lon="13.379880893551576">
                <time>2023-05-05T13:31:14.000Z</time>
            </trkpt>
            <trkpt lat="52.53342869140567" lon="13.379887500895041">
                <time>2023-05-05T13:31:15.000Z</time>
            </trkpt>
            <trkpt lat="52.533428810278515" lon="13.379893331862347">
                <time>2023-05-05T13:31:16.000Z</time>
            </trkpt>
            <trkpt lat="52.53342866382886" lon="13.379898504878895">
                <time>2023-05-05T13:31:17.000Z</time>
            </trkpt>
            <trkpt lat="52.533429474387944" lon="13.379904320045235">
                <time>2023-05-05T13:31:18.000Z</time>
            </trkpt>
            <trkpt lat="52.53342897493023" lon="13.379905712782035">
                <time>2023-05-05T13:31:19.000Z</time>
            </trkpt>
            <trkpt lat="52.53342761610945" lon="13.37990857795638">
                <time>2023-05-05T13:31:20.000Z</time>
            </trkpt>
            <trkpt lat="52.53342476768035" lon="13.379911218437657">
                <time>2023-05-05T13:31:21.000Z</time>
            </trkpt>
            <trkpt lat="52.53342506582114" lon="13.379916478687022">
                <time>2023-05-05T13:31:22.000Z</time>
            </trkpt>
        </trkseg>
    </trk>
</gpx>