<?xml version="1.0" encoding="UTF-8"?><gpx creator="Health" xsi:schemaLocation="http://www.topografix.com/GPX/1/0 http://www.topografix.com/GPX/1/0/gpx.xsd" version="1.0" xmlns="http://www.topografix.com/GPX/1/0" xmlns:xsi="http://www.w3.org/2001/XMLSchema-instance"><metadata><time>2023-04-28T07:50:28.000Z</time></metadata><trk><type>Ходьба на улице</type><extensions><totalTime>2699.0</totalTime><cumulativeDecrease>-0.10000000149011612</cumulativeDecrease><cumulativeClimb>-0.10000000149011612</cumulativeClimb><totalDistance>2000.0</totalDistance></extensions><trkseg><trkpt lat="52.51049444049024" lon="13.401678575088345"><time>2023-04-28T07:50:28.000Z</time></trkpt><trkpt lat="52.5106358852857" lon="13.401644034101283"><time>2023-04-28T07:50:38.000Z</time></trkpt><trkpt lat="52.510909135171" lon="13.401400143286242"><time>2023-04-28T07:51:00.000Z</time></trkpt><trkpt lat="52.5110077856072" lon="13.401544338546664"><time>2023-04-28T07:51:07.000Z</time></trkpt><trkpt lat="52.511090314830994" lon="13.40181088471134"><time>2023-04-28T07:51:21.000Z</time></trkpt><trkpt lat="52.51129720564748" lon="13.402122890175452"><time>2023-04-28T07:51:44.000Z</time></trkpt><trkpt lat="52.51134732030311" lon="13.402255217348761"><time>2023-04-28T07:51:51.000Z</time></trkpt><trkpt lat="52.51138232124912" lon="13.402565790380784"><time>2023-04-28T07:52:06.000Z</time></trkpt><trkpt lat="52.51137549125801" lon="13.402982127012438"><time>2023-04-28T07:52:25.000Z</time></trkpt><trkpt lat="52.51141319699718" lon="13.4032162313722"><time>2023-04-28T07:52:38.000Z</time></trkpt><trkpt lat="52.51134222887725" lon="13.403466076463838"><time>2023-04-28T07:53:24.000Z</time></trkpt><trkpt lat="52.51135919470258" lon="13.403892147253885"><time>2023-04-28T07:53:45.000Z</time></trkpt><trkpt lat="52.5114037802952" lon="13.40415894137892"><time>2023-04-28T07:53:58.000Z</time></trkpt><trkpt lat="52.5113470570037" lon="13.404556169351043"><time>2023-04-28T07:54:18.000Z</time></trkpt><trkpt lat="52.51136869417856" lon="13.405069785272172"><time>2023-04-28T07:54:42.000Z</time></trkpt><trkpt lat="52.511402471498634" lon="13.405143901436007"><time>2023-04-28T07:54:48.000Z</time></trkpt><trkpt lat="52.511518283125945" lon="13.405192921831"><time>2023-04-28T07:55:02.000Z</time></trkpt><trkpt lat="52.511586420757254" lon="13.405388002607735"><time>2023-04-28T07:55:14.000Z</time></trkpt><trkpt lat="52.51165922004575" lon="13.405819727954407"><time>2023-04-28T07:55:38.000Z</time></trkpt><trkpt lat="52.51161127376767" lon="13.405998167462535"><time>2023-04-28T07:55:54.000Z</time></trkpt><trkpt lat="52.51169914303503" lon="13.406227617046083"><time>2023-04-28T07:57:16.000Z</time></trkpt><trkpt lat="52.51175487552849" lon="13.406244116511738"><time>2023-04-28T07:58:18.000Z</time></trkpt><trkpt lat="52.511849542342205" lon="13.40678783111319"><time>2023-04-28T08:00:10.000Z</time></trkpt><trkpt lat="52.51185077724785" lon="13.406904004066662"><time>2023-04-28T08:00:21.000Z</time></trkpt><trkpt lat="52.51182940072681" lon="13.40692120129616"><time>2023-04-28T08:01:57.000Z</time></trkpt><trkpt lat="52.51184696826187" lon="13.406995596135944"><time>2023-04-28T08:02:09.000Z</time></trkpt><trkpt lat="52.51234362200175" lon="13.407907304225363"><time>2023-04-28T08:04:46.000Z</time></trkpt><trkpt lat="52.512388089698874" lon="13.408105856269794"><time>2023-04-28T08:05:02.000Z</time></trkpt><trkpt lat="52.51232281485775" lon="13.40829001040442"><time>2023-04-28T08:05:33.000Z</time></trkpt><trkpt lat="52.51234964401727" lon="13.408276409185042"><time>2023-04-28T08:05:41.000Z</time></trkpt><trkpt lat="52.51240160458851" lon="13.408077014341716"><time>2023-04-28T08:05:54.000Z</time></trkpt><trkpt lat="52.512500050856715" lon="13.407955029062533"><time>2023-04-28T08:06:06.000Z</time></trkpt><trkpt lat="52.51255655243813" lon="13.407930462743229"><time>2023-04-28T08:06:13.000Z</time></trkpt><trkpt lat="52.51260859480602" lon="13.407999107689877"><time>2023-04-28T08:06:20.000Z</time></trkpt><trkpt lat="52.512601354356214" lon="13.40814781210766"><time>2023-04-28T08:06:28.000Z</time></trkpt><trkpt lat="52.5124296910513" lon="13.408400238966397"><time>2023-04-28T08:07:16.000Z</time></trkpt><trkpt lat="52.5124131877445" lon="13.408484021808466"><time>2023-04-28T08:07:23.000Z</time></trkpt><trkpt lat="52.51279283985861" lon="13.409006824851172"><time>2023-04-28T08:08:02.000Z</time></trkpt><trkpt lat="52.51288520299411" lon="13.409564917560749"><time>2023-04-28T08:08:31.000Z</time></trkpt><trkpt lat="52.513168716415066" lon="13.410539241925447"><time>2023-04-28T08:09:28.000Z</time></trkpt><trkpt lat="52.5131965784537" lon="13.410787558298546"><time>2023-04-28T08:09:42.000Z</time></trkpt><trkpt lat="52.51333670452198" lon="13.411044348973553"><time>2023-04-28T08:10:23.000Z</time></trkpt><trkpt lat="52.51324287965376" lon="13.411214805948822"><time>2023-04-28T08:10:51.000Z</time></trkpt><trkpt lat="52.51306543719604" lon="13.411367463666176"><time>2023-04-28T08:11:05.000Z</time></trkpt><trkpt lat="52.512736519686584" lon="13.411354673824825"><time>2023-04-28T08:11:37.000Z</time></trkpt><trkpt lat="52.512704080744356" lon="13.411302696371745"><time>2023-04-28T08:11:46.000Z</time></trkpt><trkpt lat="52.512700546505556" lon="13.411255182397944"><time>2023-04-28T08:11:54.000Z</time></trkpt><trkpt lat="52.512732468448" lon="13.41130897505982"><time>2023-04-28T08:12:21.000Z</time></trkpt><trkpt lat="52.5127959653631" lon="13.41124166946788"><time>2023-04-28T08:12:36.000Z</time></trkpt><trkpt lat="52.51283840214965" lon="13.411308997889028"><time>2023-04-28T08:12:46.000Z</time></trkpt><trkpt lat="52.51288931852471" lon="13.41166039977623"><time>2023-04-28T08:14:31.000Z</time></trkpt><trkpt lat="52.512954966941294" lon="13.411398336207709"><time>2023-04-28T08:15:01.000Z</time></trkpt><trkpt lat="52.51311584284608" lon="13.411128592777521"><time>2023-04-28T08:15:20.000Z</time></trkpt><trkpt lat="52.51331884386348" lon="13.411111081707714"><time>2023-04-28T08:15:36.000Z</time></trkpt><trkpt lat="52.513454397186436" lon="13.411274431597263"><time>2023-04-28T08:15:49.000Z</time></trkpt><trkpt lat="52.513777295618574" lon="13.41230976298231"><time>2023-04-28T08:16:52.000Z</time></trkpt><trkpt lat="52.51385060530834" lon="13.41288975819394"><time>2023-04-28T08:17:29.000Z</time></trkpt><trkpt lat="52.51390014747437" lon="13.41281791744391"><time>2023-04-28T08:18:01.000Z</time></trkpt><trkpt lat="52.51386538167015" lon="13.412679851186624"><time>2023-04-28T08:19:03.000Z</time></trkpt><trkpt lat="52.51426698863617" lon="13.413969014601912"><time>2023-04-28T08:21:13.000Z</time></trkpt><trkpt lat="52.514247155426595" lon="13.41417708372772"><time>2023-04-28T08:21:27.000Z</time></trkpt><trkpt lat="52.51410461025907" lon="13.414379892166869"><time>2023-04-28T08:21:44.000Z</time></trkpt><trkpt lat="52.51407846654819" lon="13.414486571429409"><time>2023-04-28T08:21:51.000Z</time></trkpt><trkpt lat="52.514328492547925" lon="13.415298308183303"><time>2023-04-28T08:22:48.000Z</time></trkpt><trkpt lat="52.51439320651536" lon="13.415307130899885"><time>2023-04-28T08:23:06.000Z</time></trkpt><trkpt lat="52.51437563822394" lon="13.415462773372305"><time>2023-04-28T08:23:20.000Z</time></trkpt><trkpt lat="52.51433053210817" lon="13.415481551454711"><time>2023-04-28T08:24:09.000Z</time></trkpt><trkpt lat="52.514368033442786" lon="13.415502239871294"><time>2023-04-28T08:24:44.000Z</time></trkpt><trkpt lat="52.51429891384676" lon="13.415515703147891"><time>2023-04-28T08:30:09.000Z</time></trkpt></trkseg></trk></gpx>