<?xml version="1.0" encoding="UTF-8"?><gpx creator="Health" xsi:schemaLocation="http://www.topografix.com/GPX/1/0 http://www.topografix.com/GPX/1/0/gpx.xsd" version="1.0" xmlns="http://www.topografix.com/GPX/1/0" xmlns:xsi="http://www.w3.org/2001/XMLSchema-instance"><metadata><time>2023-05-12T16:40:18.000Z</time></metadata><trk><type>Ходьба на улице</type><extensions><totalTime>1257.0</totalTime><cumulativeDecrease>-0.10000000149011612</cumulativeDecrease><cumulativeClimb>-0.10000000149011612</cumulativeClimb><totalDistance>850.0</totalDistance></extensions><trkseg><trkpt lat="52.521337338605115" lon="13.369997908942135"><time>2023-05-12T16:40:18.000Z</time></trkpt><trkpt lat="52.521341577707865" lon="13.370018872249409"><time>2023-05-12T16:40:19.000Z</time></trkpt><trkpt lat="52.52134263453293" lon="13.370048677443975"><time>2023-05-12T16:40:20.000Z</time></trkpt><trkpt lat="52.52133893478298" lon="13.370079826284389"><time>2023-05-12T16:40:21.000Z</time></trkpt><trkpt lat="52.52133218388086" lon="13.370110923269703"><time>2023-05-12T16:40:22.000Z</time></trkpt><trkpt lat="52.52130494839755" lon="13.370134270368228"><time>2023-05-12T16:40:23.000Z</time></trkpt><trkpt lat="52.52129444379496" lon="13.370159648812686"><time>2023-05-12T16:40:24.000Z</time></trkpt><trkpt lat="52.521282405754214" lon="13.37018458758994"><time>2023-05-12T16:40:25.000Z</time></trkpt><trkpt lat="52.5212693051149" lon="13.370208431707356"><time>2023-05-12T16:40:26.000Z</time></trkpt><trkpt lat="52.521255619860796" lon="13.370230968949624"><time>2023-05-12T16:40:27.000Z</time></trkpt><trkpt lat="52.52124165937917" lon="13.370252123988651"><time>2023-05-12T16:40:28.000Z</time></trkpt><trkpt lat="52.52122820205359" lon="13.370271897298569"><time>2023-05-12T16:40:29.000Z</time></trkpt><trkpt lat="52.521215401496285" lon="13.370290448981018"><time>2023-05-12T16:40:30.000Z</time></trkpt><trkpt lat="52.52120324885509" lon="13.370307778200925"><time>2023-05-12T16:40:31.000Z</time></trkpt><trkpt lat="52.52119186895629" lon="13.37032416521721"><time>2023-05-12T16:40:32.000Z</time></trkpt><trkpt lat="52.52118135698969" lon="13.370339789163763"><time>2023-05-12T16:40:33.000Z</time></trkpt><trkpt lat="52.521171383241615" lon="13.370355110641889"><time>2023-05-12T16:40:34.000Z</time></trkpt><trkpt lat="52.52116197975923" lon="13.370370352999863"><time>2023-05-12T16:40:35.000Z</time></trkpt><trkpt lat="52.52115312738037" lon="13.370385310287942"><time>2023-05-12T16:40:36.000Z</time></trkpt><trkpt lat="52.52114456449263" lon="13.37039981772075"><time>2023-05-12T16:40:37.000Z</time></trkpt><trkpt lat="52.52113633819214" lon="13.370413816338948"><time>2023-05-12T16:40:38.000Z</time></trkpt><trkpt lat="52.521128335368076" lon="13.370427405505342"><time>2023-05-12T16:40:39.000Z</time></trkpt><trkpt lat="52.521120305639506" lon="13.370440990945214"><time>2023-05-12T16:40:40.000Z</time></trkpt><trkpt lat="52.52111223358862" lon="13.370454543386069"><time>2023-05-12T16:40:41.000Z</time></trkpt><trkpt lat="52.52110417843865" lon="13.370468018416572"><time>2023-05-12T16:40:42.000Z</time></trkpt><trkpt lat="52.52109624799593" lon="13.370481176434474"><time>2023-05-12T16:40:43.000Z</time></trkpt><trkpt lat="52.52108835617007" lon="13.370494138212813"><time>2023-05-12T16:40:44.000Z</time></trkpt><trkpt lat="52.52108050627433" lon="13.37050701838367"><time>2023-05-12T16:40:45.000Z</time></trkpt><trkpt lat="52.5210726712844" lon="13.370519864038807"><time>2023-05-12T16:40:46.000Z</time></trkpt><trkpt lat="52.521064844668665" lon="13.370532693452759"><time>2023-05-12T16:40:47.000Z</time></trkpt><trkpt lat="52.52105710593144" lon="13.370545725720403"><time>2023-05-12T16:40:48.000Z</time></trkpt><trkpt lat="52.521049345934244" lon="13.370559153244796"><time>2023-05-12T16:40:49.000Z</time></trkpt><trkpt lat="52.52104165790754" lon="13.370573071114888"><time>2023-05-12T16:40:50.000Z</time></trkpt><trkpt lat="52.521034158722834" lon="13.370587284740811"><time>2023-05-12T16:40:51.000Z</time></trkpt><trkpt lat="52.52102702643885" lon="13.370601545054386"><time>2023-05-12T16:40:52.000Z</time></trkpt><trkpt lat="52.52102022237647" lon="13.370616046484349"><time>2023-05-12T16:40:53.000Z</time></trkpt><trkpt lat="52.52101361089576" lon="13.370631082180267"><time>2023-05-12T16:40:54.000Z</time></trkpt><trkpt lat="52.521007284866144" lon="13.370646433476956"><time>2023-05-12T16:40:55.000Z</time></trkpt><trkpt lat="52.52100126754428" lon="13.370661970577924"><time>2023-05-12T16:40:56.000Z</time></trkpt><trkpt lat="52.52099554563352" lon="13.370677548519721"><time>2023-05-12T16:40:57.000Z</time></trkpt><trkpt lat="52.52099009249394" lon="13.3706930398231"><time>2023-05-12T16:40:58.000Z</time></trkpt><trkpt lat="52.52098463185321" lon="13.370707985790943"><time>2023-05-12T16:40:59.000Z</time></trkpt><trkpt lat="52.52097906046638" lon="13.370722049757534"><time>2023-05-12T16:41:00.000Z</time></trkpt><trkpt lat="52.52097323195849" lon="13.370734915498032"><time>2023-05-12T16:41:01.000Z</time></trkpt><trkpt lat="52.520967034388256" lon="13.3707464770841"><time>2023-05-12T16:41:02.000Z</time></trkpt><trkpt lat="52.520960438743984" lon="13.370756931686293"><time>2023-05-12T16:41:03.000Z</time></trkpt><trkpt lat="52.52095353550001" lon="13.370766093843054"><time>2023-05-12T16:41:04.000Z</time></trkpt><trkpt lat="52.520946397803385" lon="13.370774123551804"><time>2023-05-12T16:41:06.000Z</time></trkpt><trkpt lat="52.5209390895694" lon="13.370781155795981"><time>2023-05-12T16:41:07.000Z</time></trkpt><trkpt lat="52.520931572557814" lon="13.370787258711834"><time>2023-05-12T16:41:08.000Z</time></trkpt><trkpt lat="52.52092385895719" lon="13.370792593156159"><time>2023-05-12T16:41:09.000Z</time></trkpt><trkpt lat="52.52091592171362" lon="13.370797455091958"><time>2023-05-12T16:41:10.000Z</time></trkpt><trkpt lat="52.520908054741135" lon="13.370802062212505"><time>2023-05-12T16:41:11.000Z</time></trkpt><trkpt lat="52.52090045674524" lon="13.370806677200436"><time>2023-05-12T16:41:12.000Z</time></trkpt><trkpt lat="52.52089328548644" lon="13.370811675746348"><time>2023-05-12T16:41:13.000Z</time></trkpt><trkpt lat="52.52088663708207" lon="13.370817272003704"><time>2023-05-12T16:41:14.000Z</time></trkpt><trkpt lat="52.520880383517834" lon="13.370823673869914"><time>2023-05-12T16:41:15.000Z</time></trkpt><trkpt lat="52.52087454362441" lon="13.370831025556475"><time>2023-05-12T16:41:16.000Z</time></trkpt><trkpt lat="52.52086898526654" lon="13.370838967383786"><time>2023-05-12T16:41:17.000Z</time></trkpt><trkpt lat="52.520863506389645" lon="13.370847354511163"><time>2023-05-12T16:41:18.000Z</time></trkpt><trkpt lat="52.52085811770696" lon="13.370856104095767"><time>2023-05-12T16:41:19.000Z</time></trkpt><trkpt lat="52.520852720088264" lon="13.370865046830271"><time>2023-05-12T16:41:20.000Z</time></trkpt><trkpt lat="52.52084703323056" lon="13.370873992240098"><time>2023-05-12T16:41:21.000Z</time></trkpt><trkpt lat="52.5208408913524" lon="13.370883019111618"><time>2023-05-12T16:41:22.000Z</time></trkpt><trkpt lat="52.520834152837864" lon="13.370892087079731"><time>2023-05-12T16:41:23.000Z</time></trkpt><trkpt lat="52.520826687792685" lon="13.370900901649538"><time>2023-05-12T16:41:24.000Z</time></trkpt><trkpt lat="52.520818664684406" lon="13.370909301524328"><time>2023-05-12T16:41:25.000Z</time></trkpt><trkpt lat="52.52081005871258" lon="13.37091712270137"><time>2023-05-12T16:41:26.000Z</time></trkpt><trkpt lat="52.52080075826271" lon="13.37092412584441"><time>2023-05-12T16:41:27.000Z</time></trkpt><trkpt lat="52.52079079993789" lon="13.370930414457122"><time>2023-05-12T16:41:28.000Z</time></trkpt><trkpt lat="52.520780304176554" lon="13.37093601270946"><time>2023-05-12T16:41:29.000Z</time></trkpt><trkpt lat="52.52076928140871" lon="13.37094085739124"><time>2023-05-12T16:41:30.000Z</time></trkpt><trkpt lat="52.52075780024024" lon="13.37094496704043"><time>2023-05-12T16:41:31.000Z</time></trkpt><trkpt lat="52.5207460115281" lon="13.37094855388201"><time>2023-05-12T16:41:32.000Z</time></trkpt><trkpt lat="52.520734125799116" lon="13.37095153002943"><time>2023-05-12T16:41:33.000Z</time></trkpt><trkpt lat="52.52072224647568" lon="13.370953924517325"><time>2023-05-12T16:41:34.000Z</time></trkpt><trkpt lat="52.520710533534405" lon="13.370955920423501"><time>2023-05-12T16:41:35.000Z</time></trkpt><trkpt lat="52.520699008837525" lon="13.37095756836419"><time>2023-05-12T16:41:36.000Z</time></trkpt><trkpt lat="52.52068778271095" lon="13.37095892325762"><time>2023-05-12T16:41:37.000Z</time></trkpt><trkpt lat="52.52067693294245" lon="13.370959993354823"><time>2023-05-12T16:41:38.000Z</time></trkpt><trkpt lat="52.52066649281094" lon="13.370960753201897"><time>2023-05-12T16:41:39.000Z</time></trkpt><trkpt lat="52.52065655787039" lon="13.370961222758876"><time>2023-05-12T16:41:40.000Z</time></trkpt><trkpt lat="52.520646943318816" lon="13.370961306476433"><time>2023-05-12T16:41:41.000Z</time></trkpt><trkpt lat="52.52063763919619" lon="13.370961003638422"><time>2023-05-12T16:41:42.000Z</time></trkpt><trkpt lat="52.52062866512378" lon="13.370960223294206"><time>2023-05-12T16:41:43.000Z</time></trkpt><trkpt lat="52.5206199464761" lon="13.370958983951057"><time>2023-05-12T16:41:44.000Z</time></trkpt><trkpt lat="52.52061133749448" lon="13.370957261423682"><time>2023-05-12T16:41:45.000Z</time></trkpt><trkpt lat="52.52060270188225" lon="13.370955060274953"><time>2023-05-12T16:41:46.000Z</time></trkpt><trkpt lat="52.520593826077885" lon="13.370952407733801"><time>2023-05-12T16:41:47.000Z</time></trkpt><trkpt lat="52.52058468216221" lon="13.370949425831629"><time>2023-05-12T16:41:48.000Z</time></trkpt><trkpt lat="52.52057524909467" lon="13.370946245797223"><time>2023-05-12T16:41:49.000Z</time></trkpt><trkpt lat="52.52056564937731" lon="13.37094294138858"><time>2023-05-12T16:41:50.000Z</time></trkpt><trkpt lat="52.520555717891625" lon="13.370939448602648"><time>2023-05-12T16:41:51.000Z</time></trkpt><trkpt lat="52.52054565271756" lon="13.370935882907855"><time>2023-05-12T16:41:52.000Z</time></trkpt><trkpt lat="52.52053544564433" lon="13.370932272382277"><time>2023-05-12T16:41:53.000Z</time></trkpt><trkpt lat="52.52052506891457" lon="13.370928718667598"><time>2023-05-12T16:41:54.000Z</time></trkpt><trkpt lat="52.52051447262238" lon="13.370925180488188"><time>2023-05-12T16:41:55.000Z</time></trkpt><trkpt lat="52.52050388653922" lon="13.370921777266638"><time>2023-05-12T16:41:56.000Z</time></trkpt><trkpt lat="52.520493314823376" lon="13.370918417433353"><time>2023-05-12T16:41:57.000Z</time></trkpt><trkpt lat="52.52048274808133" lon="13.370915063738467"><time>2023-05-12T16:41:58.000Z</time></trkpt><trkpt lat="52.5204721601182" lon="13.370911628280084"><time>2023-05-12T16:41:59.000Z</time></trkpt><trkpt lat="52.52046143591445" lon="13.370908113656787"><time>2023-05-12T16:42:00.000Z</time></trkpt><trkpt lat="52.520450460668364" lon="13.370904646038298"><time>2023-05-12T16:42:01.000Z</time></trkpt><trkpt lat="52.52043928490215" lon="13.370901470387734"><time>2023-05-12T16:42:02.000Z</time></trkpt><trkpt lat="52.52042804723441" lon="13.370898651429416"><time>2023-05-12T16:42:03.000Z</time></trkpt><trkpt lat="52.520416708677864" lon="13.370896084564992"><time>2023-05-12T16:42:04.000Z</time></trkpt><trkpt lat="52.52040537351397" lon="13.370893638887946"><time>2023-05-12T16:42:05.000Z</time></trkpt><trkpt lat="52.52039413659322" lon="13.37089119929815"><time>2023-05-12T16:42:06.000Z</time></trkpt><trkpt lat="52.52038296461804" lon="13.370888644608222"><time>2023-05-12T16:42:07.000Z</time></trkpt><trkpt lat="52.52037193916099" lon="13.37088594250971"><time>2023-05-12T16:42:08.000Z</time></trkpt><trkpt lat="52.520361129014695" lon="13.37088322570973"><time>2023-05-12T16:42:09.000Z</time></trkpt><trkpt lat="52.52035055480264" lon="13.370880559244632"><time>2023-05-12T16:42:10.000Z</time></trkpt><trkpt lat="52.52034026938761" lon="13.370877849074127"><time>2023-05-12T16:42:11.000Z</time></trkpt><trkpt lat="52.520330224563125" lon="13.370874966972126"><time>2023-05-12T16:42:12.000Z</time></trkpt><trkpt lat="52.52032044376012" lon="13.370871753524357"><time>2023-05-12T16:42:13.000Z</time></trkpt><trkpt lat="52.5203107318929" lon="13.370868245218498"><time>2023-05-12T16:42:14.000Z</time></trkpt><trkpt lat="52.520301115069195" lon="13.37086458327358"><time>2023-05-12T16:42:15.000Z</time></trkpt><trkpt lat="52.52029159714227" lon="13.370861014028748"><time>2023-05-12T16:42:16.000Z</time></trkpt><trkpt lat="52.52028220747552" lon="13.370857751796036"><time>2023-05-12T16:42:17.000Z</time></trkpt><trkpt lat="52.520272903832215" lon="13.370854880006549"><time>2023-05-12T16:42:18.000Z</time></trkpt><trkpt lat="52.520263795753934" lon="13.37085235691404"><time>2023-05-12T16:42:19.000Z</time></trkpt><trkpt lat="52.52025486314633" lon="13.370849936337942"><time>2023-05-12T16:42:20.000Z</time></trkpt><trkpt lat="52.520246047786834" lon="13.370847450924986"><time>2023-05-12T16:42:21.000Z</time></trkpt><trkpt lat="52.520237295997184" lon="13.370844906803336"><time>2023-05-12T16:42:22.000Z</time></trkpt><trkpt lat="52.52022857477857" lon="13.37084224598557"><time>2023-05-12T16:42:23.000Z</time></trkpt><trkpt lat="52.52021985559554" lon="13.370839609394027"><time>2023-05-12T16:42:24.000Z</time></trkpt><trkpt lat="52.520211193807135" lon="13.370837126635926"><time>2023-05-12T16:42:25.000Z</time></trkpt><trkpt lat="52.52020268711494" lon="13.370834794708566"><time>2023-05-12T16:42:26.000Z</time></trkpt><trkpt lat="52.52019436048124" lon="13.370832554309883"><time>2023-05-12T16:42:27.000Z</time></trkpt><trkpt lat="52.52018614874262" lon="13.370830314468769"><time>2023-05-12T16:42:28.000Z</time></trkpt><trkpt lat="52.52017793572165" lon="13.370828030124246"><time>2023-05-12T16:42:29.000Z</time></trkpt><trkpt lat="52.52016951848289" lon="13.37082571080107"><time>2023-05-12T16:42:30.000Z</time></trkpt><trkpt lat="52.52016095625734" lon="13.370823543648852"><time>2023-05-12T16:42:31.000Z</time></trkpt><trkpt lat="52.52015221582212" lon="13.3708216373531"><time>2023-05-12T16:42:32.000Z</time></trkpt><trkpt lat="52.52014335348247" lon="13.37082012231902"><time>2023-05-12T16:42:33.000Z</time></trkpt><trkpt lat="52.52013443480644" lon="13.370818997242209"><time>2023-05-12T16:42:34.000Z</time></trkpt><trkpt lat="52.52012547169627" lon="13.370818118412465"><time>2023-05-12T16:42:35.000Z</time></trkpt><trkpt lat="52.520116431321235" lon="13.37081732838492"><time>2023-05-12T16:42:36.000Z</time></trkpt><trkpt lat="52.52010736716665" lon="13.370816598682511"><time>2023-05-12T16:42:37.000Z</time></trkpt><trkpt lat="52.52009813875887" lon="13.370815839111664"><time>2023-05-12T16:42:38.000Z</time></trkpt><trkpt lat="52.52008871553308" lon="13.37081510680555"><time>2023-05-12T16:42:39.000Z</time></trkpt><trkpt lat="52.5200791129273" lon="13.37081437066805"><time>2023-05-12T16:42:40.000Z</time></trkpt><trkpt lat="52.52006936852817" lon="13.370813682722114"><time>2023-05-12T16:42:41.000Z</time></trkpt><trkpt lat="52.52005954561917" lon="13.37081301305838"><time>2023-05-12T16:42:42.000Z</time></trkpt><trkpt lat="52.52004969574342" lon="13.370812323158383"><time>2023-05-12T16:42:43.000Z</time></trkpt><trkpt lat="52.52003985719719" lon="13.370811539821693"><time>2023-05-12T16:42:44.000Z</time></trkpt><trkpt lat="52.520030044771126" lon="13.370810786041403"><time>2023-05-12T16:42:45.000Z</time></trkpt><trkpt lat="52.52002032948016" lon="13.370810061577094"><time>2023-05-12T16:42:46.000Z</time></trkpt><trkpt lat="52.520010694516756" lon="13.370809396992888"><time>2023-05-12T16:42:47.000Z</time></trkpt><trkpt lat="52.52000104548483" lon="13.370808673311224"><time>2023-05-12T16:42:48.000Z</time></trkpt><trkpt lat="52.51999147122776" lon="13.370807888409244"><time>2023-05-12T16:42:49.000Z</time></trkpt><trkpt lat="52.51998203727005" lon="13.37080707692287"><time>2023-05-12T16:42:50.000Z</time></trkpt><trkpt lat="52.51997285206385" lon="13.370806334994812"><time>2023-05-12T16:42:51.000Z</time></trkpt><trkpt lat="52.51996402894178" lon="13.37080574185136"><time>2023-05-12T16:42:52.000Z</time></trkpt><trkpt lat="52.51995555115854" lon="13.370805380534849"><time>2023-05-12T16:42:53.000Z</time></trkpt><trkpt lat="52.519947577451966" lon="13.370805218342952"><time>2023-05-12T16:42:54.000Z</time></trkpt><trkpt lat="52.519940204073215" lon="13.370805181972925"><time>2023-05-12T16:42:55.000Z</time></trkpt><trkpt lat="52.51993333286628" lon="13.370805147945724"><time>2023-05-12T16:42:56.000Z</time></trkpt><trkpt lat="52.519927013145725" lon="13.370805095574934"><time>2023-05-12T16:42:57.000Z</time></trkpt><trkpt lat="52.51992122230229" lon="13.370804933807607"><time>2023-05-12T16:42:58.000Z</time></trkpt><trkpt lat="52.5199159320993" lon="13.370804774106876"><time>2023-05-12T16:42:59.000Z</time></trkpt><trkpt lat="52.51991119171439" lon="13.370804883135106"><time>2023-05-12T16:43:00.000Z</time></trkpt><trkpt lat="52.519907055280264" lon="13.370805185430891"><time>2023-05-12T16:43:01.000Z</time></trkpt><trkpt lat="52.51990357194962" lon="13.370805709634986"><time>2023-05-12T16:43:02.000Z</time></trkpt><trkpt lat="52.519900687589754" lon="13.370806376316482"><time>2023-05-12T16:43:03.000Z</time></trkpt><trkpt lat="52.51989828019039" lon="13.370807069101524"><time>2023-05-12T16:43:04.000Z</time></trkpt><trkpt lat="52.519896254894796" lon="13.370807773871796"><time>2023-05-12T16:43:05.000Z</time></trkpt><trkpt lat="52.519894528561686" lon="13.370808514945594"><time>2023-05-12T16:43:06.000Z</time></trkpt><trkpt lat="52.5198932146357" lon="13.37080927117101"><time>2023-05-12T16:43:07.000Z</time></trkpt><trkpt lat="52.51989218478196" lon="13.370810030455397"><time>2023-05-12T16:43:08.000Z</time></trkpt><trkpt lat="52.51989151529424" lon="13.370810858955371"><time>2023-05-12T16:43:09.000Z</time></trkpt><trkpt lat="52.519891206458894" lon="13.370811749223003"><time>2023-05-12T16:43:10.000Z</time></trkpt><trkpt lat="52.519891033129625" lon="13.370812493560384"><time>2023-05-12T16:43:11.000Z</time></trkpt><trkpt lat="52.519891218049864" lon="13.37081309610582"><time>2023-05-12T16:43:12.000Z</time></trkpt><trkpt lat="52.51989143621168" lon="13.370813561038538"><time>2023-05-12T16:43:13.000Z</time></trkpt><trkpt lat="52.519891668541625" lon="13.370813922094165"><time>2023-05-12T16:43:14.000Z</time></trkpt><trkpt lat="52.519891914118396" lon="13.370814200066537"><time>2023-05-12T16:43:15.000Z</time></trkpt><trkpt lat="52.51989214745679" lon="13.370814469388877"><time>2023-05-12T16:43:16.000Z</time></trkpt><trkpt lat="52.51989240025457" lon="13.370814763019286"><time>2023-05-12T16:43:17.000Z</time></trkpt><trkpt lat="52.5198926782761" lon="13.370815131666069"><time>2023-05-12T16:43:18.000Z</time></trkpt><trkpt lat="52.519892995415624" lon="13.37081559650671"><time>2023-05-12T16:43:19.000Z</time></trkpt><trkpt lat="52.519893363799454" lon="13.370816161490247"><time>2023-05-12T16:43:20.000Z</time></trkpt><trkpt lat="52.51989377991669" lon="13.37081676285404"><time>2023-05-12T16:43:21.000Z</time></trkpt><trkpt lat="52.519894363424534" lon="13.370817393329201"><time>2023-05-12T16:43:22.000Z</time></trkpt><trkpt lat="52.51989480096827" lon="13.370818093050637"><time>2023-05-12T16:43:23.000Z</time></trkpt><trkpt lat="52.519895307821294" lon="13.370818791242586"><time>2023-05-12T16:43:24.000Z</time></trkpt><trkpt lat="52.519895869230325" lon="13.370819472917127"><time>2023-05-12T16:43:25.000Z</time></trkpt><trkpt lat="52.5198964691971" lon="13.370820162996159"><time>2023-05-12T16:43:26.000Z</time></trkpt><trkpt lat="52.51989711794308" lon="13.370820824940854"><time>2023-05-12T16:43:27.000Z</time></trkpt><trkpt lat="52.51989774198821" lon="13.370821427235638"><time>2023-05-12T16:43:28.000Z</time></trkpt><trkpt lat="52.51989829241632" lon="13.370821934738165"><time>2023-05-12T16:43:29.000Z</time></trkpt><trkpt lat="52.51989875937946" lon="13.370822347514935"><time>2023-05-12T16:43:30.000Z</time></trkpt><trkpt lat="52.519899110271005" lon="13.37082266280878"><time>2023-05-12T16:43:31.000Z</time></trkpt><trkpt lat="52.51989918818326" lon="13.37082292008451"><time>2023-05-12T16:43:32.000Z</time></trkpt><trkpt lat="52.5198987142481" lon="13.370823096732344"><time>2023-05-12T16:43:33.000Z</time></trkpt><trkpt lat="52.51989751117715" lon="13.370823188706053"><time>2023-05-12T16:43:34.000Z</time></trkpt><trkpt lat="52.51989540903999" lon="13.370823176485521"><time>2023-05-12T16:43:35.000Z</time></trkpt><trkpt lat="52.51989226046567" lon="13.370823030504114"><time>2023-05-12T16:43:36.000Z</time></trkpt><trkpt lat="52.51988827496321" lon="13.370822748577591"><time>2023-05-12T16:43:37.000Z</time></trkpt><trkpt lat="52.51988330056761" lon="13.370822344665696"><time>2023-05-12T16:43:38.000Z</time></trkpt><trkpt lat="52.51987730138542" lon="13.37082187895033"><time>2023-05-12T16:43:39.000Z</time></trkpt><trkpt lat="52.51987051202497" lon="13.370821371335266"><time>2023-05-12T16:43:40.000Z</time></trkpt><trkpt lat="52.519862871966666" lon="13.370820906341164"><time>2023-05-12T16:43:41.000Z</time></trkpt><trkpt lat="52.51985442591854" lon="13.370820539873513"><time>2023-05-12T16:43:42.000Z</time></trkpt><trkpt lat="52.51984539145727" lon="13.370820283257661"><time>2023-05-12T16:43:43.000Z</time></trkpt><trkpt lat="52.519836055506154" lon="13.370820076311704"><time>2023-05-12T16:43:44.000Z</time></trkpt><trkpt lat="52.51982653985136" lon="13.370819802805018"><time>2023-05-12T16:43:45.000Z</time></trkpt><trkpt lat="52.51981698298698" lon="13.37081936182741"><time>2023-05-12T16:43:46.000Z</time></trkpt><trkpt lat="52.519807539791344" lon="13.370818804869833"><time>2023-05-12T16:43:47.000Z</time></trkpt><trkpt lat="52.51979804969645" lon="13.370818170322867"><time>2023-05-12T16:43:48.000Z</time></trkpt><trkpt lat="52.51978868601912" lon="13.370817429443452"><time>2023-05-12T16:43:49.000Z</time></trkpt><trkpt lat="52.51977958709162" lon="13.370816504780315"><time>2023-05-12T16:43:50.000Z</time></trkpt><trkpt lat="52.51977053567341" lon="13.37081532255499"><time>2023-05-12T16:43:51.000Z</time></trkpt><trkpt lat="52.51976160549355" lon="13.37081362789084"><time>2023-05-12T16:43:52.000Z</time></trkpt><trkpt lat="52.51975271814179" lon="13.370811176039588"><time>2023-05-12T16:43:53.000Z</time></trkpt><trkpt lat="52.51974387709168" lon="13.370807875881791"><time>2023-05-12T16:43:54.000Z</time></trkpt><trkpt lat="52.51973512721311" lon="13.370803788126231"><time>2023-05-12T16:43:55.000Z</time></trkpt><trkpt lat="52.51972652958591" lon="13.370799064836445"><time>2023-05-12T16:43:56.000Z</time></trkpt><trkpt lat="52.51971814904982" lon="13.370793858781893"><time>2023-05-12T16:43:57.000Z</time></trkpt><trkpt lat="52.519710035766" lon="13.370788196746453"><time>2023-05-12T16:43:58.000Z</time></trkpt><trkpt lat="52.51970213186674" lon="13.370781989462438"><time>2023-05-12T16:43:59.000Z</time></trkpt><trkpt lat="52.51969437710633" lon="13.370775266880127"><time>2023-05-12T16:44:00.000Z</time></trkpt><trkpt lat="52.5196866839611" lon="13.37076808660841"><time>2023-05-12T16:44:01.000Z</time></trkpt><trkpt lat="52.51967911629969" lon="13.37076052673798"><time>2023-05-12T16:44:02.000Z</time></trkpt><trkpt lat="52.51967173025926" lon="13.370752791989624"><time>2023-05-12T16:44:03.000Z</time></trkpt><trkpt lat="52.519664578042786" lon="13.370745245976638"><time>2023-05-12T16:44:04.000Z</time></trkpt><trkpt lat="52.519657604857684" lon="13.37073817527538"><time>2023-05-12T16:44:05.000Z</time></trkpt><trkpt lat="52.51965087658951" lon="13.370731646656305"><time>2023-05-12T16:44:06.000Z</time></trkpt><trkpt lat="52.51964434259155" lon="13.37072570591189"><time>2023-05-12T16:44:07.000Z</time></trkpt><trkpt lat="52.51963783897165" lon="13.370720387529712"><time>2023-05-12T16:44:08.000Z</time></trkpt><trkpt lat="52.51963132793153" lon="13.370715665288571"><time>2023-05-12T16:44:09.000Z</time></trkpt><trkpt lat="52.51962471110353" lon="13.370711638957943"><time>2023-05-12T16:44:10.000Z</time></trkpt><trkpt lat="52.51961802394535" lon="13.370708337383196"><time>2023-05-12T16:44:11.000Z</time></trkpt><trkpt lat="52.519611290834106" lon="13.370705861796795"><time>2023-05-12T16:44:12.000Z</time></trkpt><trkpt lat="52.519604437331104" lon="13.370704307359295"><time>2023-05-12T16:44:13.000Z</time></trkpt><trkpt lat="52.51959752815159" lon="13.370703597299768"><time>2023-05-12T16:44:14.000Z</time></trkpt><trkpt lat="52.51959047028141" lon="13.37070345030041"><time>2023-05-12T16:44:15.000Z</time></trkpt><trkpt lat="52.51958314386416" lon="13.370703720911814"><time>2023-05-12T16:44:16.000Z</time></trkpt><trkpt lat="52.519575459296995" lon="13.3707042889134"><time>2023-05-12T16:44:17.000Z</time></trkpt><trkpt lat="52.5195674477299" lon="13.370705083207133"><time>2023-05-12T16:44:18.000Z</time></trkpt><trkpt lat="52.5195592529482" lon="13.370705994544824"><time>2023-05-12T16:44:19.000Z</time></trkpt><trkpt lat="52.519551040213564" lon="13.370707023555665"><time>2023-05-12T16:44:20.000Z</time></trkpt><trkpt lat="52.519542912089314" lon="13.370708078838861"><time>2023-05-12T16:44:21.000Z</time></trkpt><trkpt lat="52.51953485377236" lon="13.370709277842481"><time>2023-05-12T16:44:22.000Z</time></trkpt><trkpt lat="52.51952696594606" lon="13.370710464190768"><time>2023-05-12T16:44:23.000Z</time></trkpt><trkpt lat="52.5195192507394" lon="13.370711606107262"><time>2023-05-12T16:44:24.000Z</time></trkpt><trkpt lat="52.51951148773708" lon="13.370712783012642"><time>2023-05-12T16:44:25.000Z</time></trkpt><trkpt lat="52.51950378880259" lon="13.37071438886948"><time>2023-05-12T16:44:26.000Z</time></trkpt><trkpt lat="52.51949636272288" lon="13.37071630100183"><time>2023-05-12T16:44:27.000Z</time></trkpt><trkpt lat="52.51948911957141" lon="13.370718443759017"><time>2023-05-12T16:44:28.000Z</time></trkpt><trkpt lat="52.51948198672717" lon="13.37072086012008"><time>2023-05-12T16:44:29.000Z</time></trkpt><trkpt lat="52.51947489926329" lon="13.370723471252605"><time>2023-05-12T16:44:30.000Z</time></trkpt><trkpt lat="52.519467646649794" lon="13.370726327225482"><time>2023-05-12T16:44:31.000Z</time></trkpt><trkpt lat="52.519460238846726" lon="13.370729623715585"><time>2023-05-12T16:44:32.000Z</time></trkpt><trkpt lat="52.51945263438304" lon="13.370733209309027"><time>2023-05-12T16:44:33.000Z</time></trkpt><trkpt lat="52.519444854523385" lon="13.37073704076077"><time>2023-05-12T16:44:34.000Z</time></trkpt><trkpt lat="52.51943683862367" lon="13.370741027442447"><time>2023-05-12T16:44:35.000Z</time></trkpt><trkpt lat="52.5194285825256" lon="13.370744961359447"><time>2023-05-12T16:44:36.000Z</time></trkpt><trkpt lat="52.51941999864323" lon="13.370748336047665"><time>2023-05-12T16:44:37.000Z</time></trkpt><trkpt lat="52.51941095495649" lon="13.370751274305805"><time>2023-05-12T16:44:38.000Z</time></trkpt><trkpt lat="52.51940155331904" lon="13.370753663836943"><time>2023-05-12T16:44:39.000Z</time></trkpt><trkpt lat="52.519392034800745" lon="13.370755522007634"><time>2023-05-12T16:44:40.000Z</time></trkpt><trkpt lat="52.519382388121876" lon="13.370756865289254"><time>2023-05-12T16:44:41.000Z</time></trkpt><trkpt lat="52.51937261141493" lon="13.370757644170487"><time>2023-05-12T16:44:42.000Z</time></trkpt><trkpt lat="52.51936266386872" lon="13.370757623913763"><time>2023-05-12T16:44:43.000Z</time></trkpt><trkpt lat="52.519352560037326" lon="13.37075669955243"><time>2023-05-12T16:44:44.000Z</time></trkpt><trkpt lat="52.5193421083273" lon="13.3707548920082"><time>2023-05-12T16:44:45.000Z</time></trkpt><trkpt lat="52.519331265213346" lon="13.370752308667285"><time>2023-05-12T16:44:46.000Z</time></trkpt><trkpt lat="52.51932009212388" lon="13.370749145927823"><time>2023-05-12T16:44:47.000Z</time></trkpt><trkpt lat="52.51930866964794" lon="13.370745586632314"><time>2023-05-12T16:44:48.000Z</time></trkpt><trkpt lat="52.51929723980159" lon="13.370741670475752"><time>2023-05-12T16:44:49.000Z</time></trkpt><trkpt lat="52.51928572096244" lon="13.370737923897632"><time>2023-05-12T16:44:50.000Z</time></trkpt><trkpt lat="52.51927394398445" lon="13.370734305509785"><time>2023-05-12T16:44:51.000Z</time></trkpt><trkpt lat="52.51926195647652" lon="13.370730916227522"><time>2023-05-12T16:44:52.000Z</time></trkpt><trkpt lat="52.51924996809708" lon="13.37072775597411"><time>2023-05-12T16:44:53.000Z</time></trkpt><trkpt lat="52.51923792791308" lon="13.37072495576349"><time>2023-05-12T16:44:54.000Z</time></trkpt><trkpt lat="52.51922582184354" lon="13.37072257518419"><time>2023-05-12T16:44:55.000Z</time></trkpt><trkpt lat="52.5192136680406" lon="13.370720607806232"><time>2023-05-12T16:44:56.000Z</time></trkpt><trkpt lat="52.51920171787028" lon="13.370718850044433"><time>2023-05-12T16:44:57.000Z</time></trkpt><trkpt lat="52.519190009628886" lon="13.370717474889165"><time>2023-05-12T16:44:58.000Z</time></trkpt><trkpt lat="52.519178614704856" lon="13.37071651093003"><time>2023-05-12T16:44:59.000Z</time></trkpt><trkpt lat="52.5191673744724" lon="13.370715927500596"><time>2023-05-12T16:45:00.000Z</time></trkpt><trkpt lat="52.51915635317366" lon="13.370715439400529"><time>2023-05-12T16:45:01.000Z</time></trkpt><trkpt lat="52.519145467791866" lon="13.370715122377698"><time>2023-05-12T16:45:02.000Z</time></trkpt><trkpt lat="52.519134729345275" lon="13.370714823667761"><time>2023-05-12T16:45:03.000Z</time></trkpt><trkpt lat="52.51912400629937" lon="13.37071434762454"><time>2023-05-12T16:45:04.000Z</time></trkpt><trkpt lat="52.5191134415182" lon="13.370713422332214"><time>2023-05-12T16:45:05.000Z</time></trkpt><trkpt lat="52.51910320472052" lon="13.370711856666558"><time>2023-05-12T16:45:06.000Z</time></trkpt><trkpt lat="52.519093534038" lon="13.370709479146226"><time>2023-05-12T16:45:07.000Z</time></trkpt><trkpt lat="52.51908441428159" lon="13.370706394016612"><time>2023-05-12T16:45:08.000Z</time></trkpt><trkpt lat="52.51907600006819" lon="13.370702387605094"><time>2023-05-12T16:45:09.000Z</time></trkpt><trkpt lat="52.51906824093783" lon="13.370697490649718"><time>2023-05-12T16:45:10.000Z</time></trkpt><trkpt lat="52.51906118718861" lon="13.370691617775554"><time>2023-05-12T16:45:11.000Z</time></trkpt><trkpt lat="52.51905489027649" lon="13.370684901899445"><time>2023-05-12T16:45:12.000Z</time></trkpt><trkpt lat="52.519049579979175" lon="13.370677133891185"><time>2023-05-12T16:45:13.000Z</time></trkpt><trkpt lat="52.51904522062732" lon="13.370668467696758"><time>2023-05-12T16:45:14.000Z</time></trkpt><trkpt lat="52.5190417976544" lon="13.370659000502393"><time>2023-05-12T16:45:15.000Z</time></trkpt><trkpt lat="52.51903928145427" lon="13.370648910751402"><time>2023-05-12T16:45:16.000Z</time></trkpt><trkpt lat="52.51903752311214" lon="13.370638366206292"><time>2023-05-12T16:45:17.000Z</time></trkpt><trkpt lat="52.5190362520018" lon="13.370627589542664"><time>2023-05-12T16:45:18.000Z</time></trkpt><trkpt lat="52.51903534201692" lon="13.370616535781387"><time>2023-05-12T16:45:19.000Z</time></trkpt><trkpt lat="52.51903467963817" lon="13.370605155948255"><time>2023-05-12T16:45:20.000Z</time></trkpt><trkpt lat="52.51903421973419" lon="13.370593581829617"><time>2023-05-12T16:45:21.000Z</time></trkpt><trkpt lat="52.51903394052989" lon="13.37058175639973"><time>2023-05-12T16:45:22.000Z</time></trkpt><trkpt lat="52.51903385313071" lon="13.370569466804426"><time>2023-05-12T16:45:23.000Z</time></trkpt><trkpt lat="52.51903386134772" lon="13.370556862981823"><time>2023-05-12T16:45:24.000Z</time></trkpt><trkpt lat="52.519033974717665" lon="13.370543962656551"><time>2023-05-12T16:45:25.000Z</time></trkpt><trkpt lat="52.519034183180906" lon="13.370530841609728"><time>2023-05-12T16:45:26.000Z</time></trkpt><trkpt lat="52.51903445566218" lon="13.37051762310556"><time>2023-05-12T16:45:27.000Z</time></trkpt><trkpt lat="52.519034817459946" lon="13.370504336194028"><time>2023-05-12T16:45:28.000Z</time></trkpt><trkpt lat="52.519035241084545" lon="13.370490934540435"><time>2023-05-12T16:45:29.000Z</time></trkpt><trkpt lat="52.5190356952366" lon="13.370477490345166"><time>2023-05-12T16:45:30.000Z</time></trkpt><trkpt lat="52.51903605192985" lon="13.370464052313878"><time>2023-05-12T16:45:31.000Z</time></trkpt><trkpt lat="52.519036331881146" lon="13.370450457121619"><time>2023-05-12T16:45:32.000Z</time></trkpt><trkpt lat="52.51903642966366" lon="13.370436786608623"><time>2023-05-12T16:45:33.000Z</time></trkpt><trkpt lat="52.51903634271267" lon="13.370423091030494"><time>2023-05-12T16:45:34.000Z</time></trkpt><trkpt lat="52.519036072347895" lon="13.37040925369878"><time>2023-05-12T16:45:35.000Z</time></trkpt><trkpt lat="52.51903567641215" lon="13.370395307819678"><time>2023-05-12T16:45:36.000Z</time></trkpt><trkpt lat="52.51903516339635" lon="13.370381235126326"><time>2023-05-12T16:45:37.000Z</time></trkpt><trkpt lat="52.51903455638287" lon="13.370366888043895"><time>2023-05-12T16:45:38.000Z</time></trkpt><trkpt lat="52.51903389045585" lon="13.370352298440917"><time>2023-05-12T16:45:39.000Z</time></trkpt><trkpt lat="52.51903322333363" lon="13.370337512726262"><time>2023-05-12T16:45:40.000Z</time></trkpt><trkpt lat="52.519032587037685" lon="13.370322582205448"><time>2023-05-12T16:45:41.000Z</time></trkpt><trkpt lat="52.519032012244864" lon="13.370307433193368"><time>2023-05-12T16:45:42.000Z</time></trkpt><trkpt lat="52.5190314652654" lon="13.370292004780463"><time>2023-05-12T16:45:43.000Z</time></trkpt><trkpt lat="52.51903097458496" lon="13.370276244126607"><time>2023-05-12T16:45:44.000Z</time></trkpt><trkpt lat="52.519030536144825" lon="13.370260129207729"><time>2023-05-12T16:45:45.000Z</time></trkpt><trkpt lat="52.51903011807294" lon="13.370243906276015"><time>2023-05-12T16:45:46.000Z</time></trkpt><trkpt lat="52.5190296715901" lon="13.37022738708333"><time>2023-05-12T16:45:47.000Z</time></trkpt><trkpt lat="52.51902919027207" lon="13.370210558354108"><time>2023-05-12T16:45:48.000Z</time></trkpt><trkpt lat="52.519028675164684" lon="13.370193462830798"><time>2023-05-12T16:45:49.000Z</time></trkpt><trkpt lat="52.51902810639768" lon="13.370176372142758"><time>2023-05-12T16:45:50.000Z</time></trkpt><trkpt lat="52.51902753197837" lon="13.370158918203332"><time>2023-05-12T16:45:51.000Z</time></trkpt><trkpt lat="52.51902695733495" lon="13.370141304802639"><time>2023-05-12T16:45:52.000Z</time></trkpt><trkpt lat="52.51902644217776" lon="13.370123798175195"><time>2023-05-12T16:45:53.000Z</time></trkpt><trkpt lat="52.519025989918106" lon="13.370106437016819"><time>2023-05-12T16:45:54.000Z</time></trkpt><trkpt lat="52.519025602747185" lon="13.370089255498028"><time>2023-05-12T16:45:55.000Z</time></trkpt><trkpt lat="52.51902522391777" lon="13.370072338865306"><time>2023-05-12T16:45:56.000Z</time></trkpt><trkpt lat="52.51902485303149" lon="13.370055540178441"><time>2023-05-12T16:45:57.000Z</time></trkpt><trkpt lat="52.51902451518757" lon="13.370038984925213"><time>2023-05-12T16:45:58.000Z</time></trkpt><trkpt lat="52.519024149206594" lon="13.370022656047256"><time>2023-05-12T16:45:59.000Z</time></trkpt><trkpt lat="52.51902372588079" lon="13.370006646948015"><time>2023-05-12T16:46:00.000Z</time></trkpt><trkpt lat="52.51902326480651" lon="13.369990699463616"><time>2023-05-12T16:46:01.000Z</time></trkpt><trkpt lat="52.51902275009752" lon="13.369975248825863"><time>2023-05-12T16:46:02.000Z</time></trkpt><trkpt lat="52.519022113975865" lon="13.369960015480787"><time>2023-05-12T16:46:03.000Z</time></trkpt><trkpt lat="52.519021387043715" lon="13.36994489101216"><time>2023-05-12T16:46:04.000Z</time></trkpt><trkpt lat="52.519020600376344" lon="13.369929808186992"><time>2023-05-12T16:46:05.000Z</time></trkpt><trkpt lat="52.51901972145427" lon="13.369914761488308"><time>2023-05-12T16:46:06.000Z</time></trkpt><trkpt lat="52.519018785112685" lon="13.369899609183552"><time>2023-05-12T16:46:07.000Z</time></trkpt><trkpt lat="52.519017809254706" lon="13.369884413771556"><time>2023-05-12T16:46:08.000Z</time></trkpt><trkpt lat="52.51901680984129" lon="13.369869106957815"><time>2023-05-12T16:46:09.000Z</time></trkpt><trkpt lat="52.51901584147823" lon="13.369853732136987"><time>2023-05-12T16:46:10.000Z</time></trkpt><trkpt lat="52.51901496402527" lon="13.36983816964222"><time>2023-05-12T16:46:11.000Z</time></trkpt><trkpt lat="52.51901411647727" lon="13.369822393539415"><time>2023-05-12T16:46:12.000Z</time></trkpt><trkpt lat="52.51901329868483" lon="13.36980631503788"><time>2023-05-12T16:46:13.000Z</time></trkpt><trkpt lat="52.51901260203115" lon="13.369789903045977"><time>2023-05-12T16:46:14.000Z</time></trkpt><trkpt lat="52.51901193289202" lon="13.369773081538325"><time>2023-05-12T16:46:15.000Z</time></trkpt><trkpt lat="52.51901122261801" lon="13.369755905323178"><time>2023-05-12T16:46:16.000Z</time></trkpt><trkpt lat="52.51901050487399" lon="13.36973861137222"><time>2023-05-12T16:46:17.000Z</time></trkpt><trkpt lat="52.519009777269545" lon="13.369721277742899"><time>2023-05-12T16:46:18.000Z</time></trkpt><trkpt lat="52.51900896368522" lon="13.369703813054878"><time>2023-05-12T16:46:19.000Z</time></trkpt><trkpt lat="52.519008056650996" lon="13.369686420872881"><time>2023-05-12T16:46:20.000Z</time></trkpt><trkpt lat="52.519007087789944" lon="13.369669101656012"><time>2023-05-12T16:46:21.000Z</time></trkpt><trkpt lat="52.51900608708172" lon="13.369651957746756"><time>2023-05-12T16:46:22.000Z</time></trkpt><trkpt lat="52.51900505738983" lon="13.369635002337562"><time>2023-05-12T16:46:23.000Z</time></trkpt><trkpt lat="52.51900402817105" lon="13.369618289267322"><time>2023-05-12T16:46:24.000Z</time></trkpt><trkpt lat="52.51900299885267" lon="13.369601816252038"><time>2023-05-12T16:46:25.000Z</time></trkpt><trkpt lat="52.519002029070315" lon="13.36958551962882"><time>2023-05-12T16:46:26.000Z</time></trkpt><trkpt lat="52.51900114128384" lon="13.369569472470216"><time>2023-05-12T16:46:27.000Z</time></trkpt><trkpt lat="52.51900034839145" lon="13.369553356558965"><time>2023-05-12T16:46:28.000Z</time></trkpt><trkpt lat="52.518999677857934" lon="13.36953721239828"><time>2023-05-12T16:46:29.000Z</time></trkpt><trkpt lat="52.518999156923925" lon="13.369520988965263"><time>2023-05-12T16:46:30.000Z</time></trkpt><trkpt lat="52.518998767761" lon="13.369504804467612"><time>2023-05-12T16:46:31.000Z</time></trkpt><trkpt lat="52.51899846684386" lon="13.369488649352439"><time>2023-05-12T16:46:32.000Z</time></trkpt><trkpt lat="52.51899822571175" lon="13.369472544162926"><time>2023-05-12T16:46:33.000Z</time></trkpt><trkpt lat="52.51899813656956" lon="13.36945660276897"><time>2023-05-12T16:46:34.000Z</time></trkpt><trkpt lat="52.51899822446674" lon="13.369440999864345"><time>2023-05-12T16:46:35.000Z</time></trkpt><trkpt lat="52.51899852354127" lon="13.36942584517041"><time>2023-05-12T16:46:36.000Z</time></trkpt><trkpt lat="52.518999120993136" lon="13.369411302357394"><time>2023-05-12T16:46:37.000Z</time></trkpt><trkpt lat="52.518999995209086" lon="13.369397476427759"><time>2023-05-12T16:46:38.000Z</time></trkpt><trkpt lat="52.51900107607059" lon="13.36938460574073"><time>2023-05-12T16:46:39.000Z</time></trkpt><trkpt lat="52.51900228329984" lon="13.369372819253881"><time>2023-05-12T16:46:40.000Z</time></trkpt><trkpt lat="52.519003610572256" lon="13.369362280545367"><time>2023-05-12T16:46:41.000Z</time></trkpt><trkpt lat="52.519005010627524" lon="13.369352562750784"><time>2023-05-12T16:46:42.000Z</time></trkpt><trkpt lat="52.51900646989512" lon="13.369343798618168"><time>2023-05-12T16:46:43.000Z</time></trkpt><trkpt lat="52.519007833098314" lon="13.369335767753352"><time>2023-05-12T16:46:44.000Z</time></trkpt><trkpt lat="52.51900908975418" lon="13.369328192444845"><time>2023-05-12T16:46:45.000Z</time></trkpt><trkpt lat="52.51901017108877" lon="13.369320959387998"><time>2023-05-12T16:46:46.000Z</time></trkpt><trkpt lat="52.51901097618218" lon="13.369313832985865"><time>2023-05-12T16:46:47.000Z</time></trkpt><trkpt lat="52.51901142137023" lon="13.369306653312645"><time>2023-05-12T16:46:48.000Z</time></trkpt><trkpt lat="52.51901160373822" lon="13.369299282617503"><time>2023-05-12T16:46:49.000Z</time></trkpt><trkpt lat="52.51901155276781" lon="13.369291588638356"><time>2023-05-12T16:46:50.000Z</time></trkpt><trkpt lat="52.51901132244233" lon="13.36928353158303"><time>2023-05-12T16:46:51.000Z</time></trkpt><trkpt lat="52.519010916372274" lon="13.369275092591282"><time>2023-05-12T16:46:52.000Z</time></trkpt><trkpt lat="52.51901035086716" lon="13.36926661590975"><time>2023-05-12T16:46:53.000Z</time></trkpt><trkpt lat="52.51900963377054" lon="13.369258139253798"><time>2023-05-12T16:46:54.000Z</time></trkpt><trkpt lat="52.519008901459976" lon="13.369249912594455"><time>2023-05-12T16:46:55.000Z</time></trkpt><trkpt lat="52.51900813526045" lon="13.369242218390236"><time>2023-05-12T16:46:56.000Z</time></trkpt><trkpt lat="52.519007389205065" lon="13.369235074698274"><time>2023-05-12T16:46:57.000Z</time></trkpt><trkpt lat="52.51900673316338" lon="13.369228716302173"><time>2023-05-12T16:46:58.000Z</time></trkpt><trkpt lat="52.51900614051722" lon="13.369223225512776"><time>2023-05-12T16:46:59.000Z</time></trkpt><trkpt lat="52.51900569540388" lon="13.369219066797303"><time>2023-05-12T16:47:00.000Z</time></trkpt><trkpt lat="52.51900550678599" lon="13.369216227336727"><time>2023-05-12T16:47:01.000Z</time></trkpt><trkpt lat="52.51900550036177" lon="13.369214509750764"><time>2023-05-12T16:47:02.000Z</time></trkpt><trkpt lat="52.51900558108773" lon="13.369213722495727"><time>2023-05-12T16:47:03.000Z</time></trkpt><trkpt lat="52.519005767738534" lon="13.369213660861067"><time>2023-05-12T16:47:04.000Z</time></trkpt><trkpt lat="52.519006109865266" lon="13.36921417922345"><time>2023-05-12T16:47:05.000Z</time></trkpt><trkpt lat="52.51900660126782" lon="13.369215163244924"><time>2023-05-12T16:47:06.000Z</time></trkpt><trkpt lat="52.519007215153714" lon="13.369216474013482"><time>2023-05-12T16:47:07.000Z</time></trkpt><trkpt lat="52.519007868805005" lon="13.369218016276482"><time>2023-05-12T16:47:08.000Z</time></trkpt><trkpt lat="52.51900843871741" lon="13.369219623872532"><time>2023-05-12T16:47:09.000Z</time></trkpt><trkpt lat="52.519008908432006" lon="13.369221292847472"><time>2023-05-12T16:47:10.000Z</time></trkpt><trkpt lat="52.51900910212951" lon="13.369222503381058"><time>2023-05-12T16:47:11.000Z</time></trkpt><trkpt lat="52.519008938934554" lon="13.369223307230236"><time>2023-05-12T16:47:12.000Z</time></trkpt><trkpt lat="52.51900851222235" lon="13.369223844053858"><time>2023-05-12T16:47:13.000Z</time></trkpt><trkpt lat="52.51900798727943" lon="13.369224223299614"><time>2023-05-12T16:47:14.000Z</time></trkpt><trkpt lat="52.519007409399" lon="13.369224548588825"><time>2023-05-12T16:47:15.000Z</time></trkpt><trkpt lat="52.51900675071791" lon="13.369224821757898"><time>2023-05-12T16:47:16.000Z</time></trkpt><trkpt lat="52.51900609567222" lon="13.36922505805564"><time>2023-05-12T16:47:17.000Z</time></trkpt><trkpt lat="52.51900543056691" lon="13.369225256827294"><time>2023-05-12T16:47:18.000Z</time></trkpt><trkpt lat="52.51900480520208" lon="13.369225386531706"><time>2023-05-12T16:47:19.000Z</time></trkpt><trkpt lat="52.51900430072701" lon="13.369225539183509"><time>2023-05-12T16:47:20.000Z</time></trkpt><trkpt lat="52.51900393459664" lon="13.369225684914262"><time>2023-05-12T16:47:21.000Z</time></trkpt><trkpt lat="52.51900369866864" lon="13.369225828199886"><time>2023-05-12T16:47:22.000Z</time></trkpt><trkpt lat="52.519003596404126" lon="13.369225950732597"><time>2023-05-12T16:47:23.000Z</time></trkpt><trkpt lat="52.51900356926307" lon="13.369226055479293"><time>2023-05-12T16:47:24.000Z</time></trkpt><trkpt lat="52.51900357812749" lon="13.369226069791996"><time>2023-05-12T16:47:25.000Z</time></trkpt><trkpt lat="52.519003614929765" lon="13.369225885962235"><time>2023-05-12T16:47:26.000Z</time></trkpt><trkpt lat="52.5190036770305" lon="13.369225446340188"><time>2023-05-12T16:47:27.000Z</time></trkpt><trkpt lat="52.51900370093454" lon="13.369224749340107"><time>2023-05-12T16:47:28.000Z</time></trkpt><trkpt lat="52.51900373457452" lon="13.369223788823591"><time>2023-05-12T16:47:29.000Z</time></trkpt><trkpt lat="52.51900375648656" lon="13.36922265121421"><time>2023-05-12T16:47:30.000Z</time></trkpt><trkpt lat="52.519003745655034" lon="13.369221381332517"><time>2023-05-12T16:47:31.000Z</time></trkpt><trkpt lat="52.519003685919806" lon="13.369220040654602"><time>2023-05-12T16:47:32.000Z</time></trkpt><trkpt lat="52.5190033533298" lon="13.36921854409711"><time>2023-05-12T16:47:33.000Z</time></trkpt><trkpt lat="52.519002543380886" lon="13.36921687528074"><time>2023-05-12T16:47:34.000Z</time></trkpt><trkpt lat="52.519001367948995" lon="13.369215057920185"><time>2023-05-12T16:47:35.000Z</time></trkpt><trkpt lat="52.51899966617978" lon="13.369213012676612"><time>2023-05-12T16:47:36.000Z</time></trkpt><trkpt lat="52.51899727353371" lon="13.369210785260645"><time>2023-05-12T16:47:37.000Z</time></trkpt><trkpt lat="52.51899416508581" lon="13.369208501253736"><time>2023-05-12T16:47:38.000Z</time></trkpt><trkpt lat="52.51899053864211" lon="13.369206227421227"><time>2023-05-12T16:47:39.000Z</time></trkpt><trkpt lat="52.518986353217116" lon="13.3692041125733"><time>2023-05-12T16:47:40.000Z</time></trkpt><trkpt lat="52.51898175519827" lon="13.36920229323311"><time>2023-05-12T16:47:41.000Z</time></trkpt><trkpt lat="52.51897684112304" lon="13.369200787468019"><time>2023-05-12T16:47:42.000Z</time></trkpt><trkpt lat="52.518971721373376" lon="13.36919971308928"><time>2023-05-12T16:47:43.000Z</time></trkpt><trkpt lat="52.51896672385808" lon="13.369199097980585"><time>2023-05-12T16:47:44.000Z</time></trkpt><trkpt lat="52.51896216114749" lon="13.369198951942913"><time>2023-05-12T16:47:45.000Z</time></trkpt><trkpt lat="52.51895795978648" lon="13.369199142703955"><time>2023-05-12T16:47:46.000Z</time></trkpt><trkpt lat="52.51895429514611" lon="13.369199755602828"><time>2023-05-12T16:47:47.000Z</time></trkpt><trkpt lat="52.518951324221206" lon="13.369200753844932"><time>2023-05-12T16:47:48.000Z</time></trkpt><trkpt lat="52.518948983566446" lon="13.369202387360382"><time>2023-05-12T16:47:49.000Z</time></trkpt><trkpt lat="52.51894703157661" lon="13.3692045681245"><time>2023-05-12T16:47:50.000Z</time></trkpt><trkpt lat="52.518945503933466" lon="13.369207122512622"><time>2023-05-12T16:47:51.000Z</time></trkpt><trkpt lat="52.518944299293814" lon="13.369209863354673"><time>2023-05-12T16:47:52.000Z</time></trkpt><trkpt lat="52.51894338167706" lon="13.369212753651441"><time>2023-05-12T16:47:53.000Z</time></trkpt><trkpt lat="52.51894265218021" lon="13.36921555051663"><time>2023-05-12T16:47:54.000Z</time></trkpt><trkpt lat="52.518942107566254" lon="13.36921836122903"><time>2023-05-12T16:47:55.000Z</time></trkpt><trkpt lat="52.51894163516245" lon="13.36922116917915"><time>2023-05-12T16:47:56.000Z</time></trkpt><trkpt lat="52.518941261039146" lon="13.369224068668172"><time>2023-05-12T16:47:57.000Z</time></trkpt><trkpt lat="52.51894097135193" lon="13.369227097043154"><time>2023-05-12T16:47:58.000Z</time></trkpt><trkpt lat="52.51894076042358" lon="13.369230276519993"><time>2023-05-12T16:47:59.000Z</time></trkpt><trkpt lat="52.51894065843296" lon="13.36923323862582"><time>2023-05-12T16:48:00.000Z</time></trkpt><trkpt lat="52.51894067055928" lon="13.369235989560428"><time>2023-05-12T16:48:01.000Z</time></trkpt><trkpt lat="52.51894069548425" lon="13.369238482165548"><time>2023-05-12T16:48:02.000Z</time></trkpt><trkpt lat="52.518940711096576" lon="13.36924064694425"><time>2023-05-12T16:48:03.000Z</time></trkpt><trkpt lat="52.51894069812365" lon="13.369242435940278"><time>2023-05-12T16:48:04.000Z</time></trkpt><trkpt lat="52.51894066159527" lon="13.369243945245183"><time>2023-05-12T16:48:05.000Z</time></trkpt><trkpt lat="52.51894054830002" lon="13.36924516842899"><time>2023-05-12T16:48:06.000Z</time></trkpt><trkpt lat="52.51894036027973" lon="13.369246137529036"><time>2023-05-12T16:48:07.000Z</time></trkpt><trkpt lat="52.518940072958024" lon="13.369246854008308"><time>2023-05-12T16:48:08.000Z</time></trkpt><trkpt lat="52.51893967266478" lon="13.369247352472037"><time>2023-05-12T16:48:09.000Z</time></trkpt><trkpt lat="52.518939169011404" lon="13.369247653739638"><time>2023-05-12T16:48:10.000Z</time></trkpt><trkpt lat="52.518938620961244" lon="13.369247862905649"><time>2023-05-12T16:48:11.000Z</time></trkpt><trkpt lat="52.518938222162" lon="13.369247886630568"><time>2023-05-12T16:48:12.000Z</time></trkpt><trkpt lat="52.51893792331156" lon="13.369247763100363"><time>2023-05-12T16:48:13.000Z</time></trkpt><trkpt lat="52.51893775578401" lon="13.369247319626474"><time>2023-05-12T16:48:14.000Z</time></trkpt><trkpt lat="52.518937679266145" lon="13.369246598737783"><time>2023-05-12T16:48:15.000Z</time></trkpt><trkpt lat="52.51893765252348" lon="13.36924554027285"><time>2023-05-12T16:48:16.000Z</time></trkpt><trkpt lat="52.51893761537261" lon="13.36924419470979"><time>2023-05-12T16:48:17.000Z</time></trkpt><trkpt lat="52.51893764609927" lon="13.369242687665862"><time>2023-05-12T16:48:18.000Z</time></trkpt><trkpt lat="52.51893776539543" lon="13.36924115365901"><time>2023-05-12T16:48:19.000Z</time></trkpt><trkpt lat="52.518937952519316" lon="13.369239605983983"><time>2023-05-12T16:48:20.000Z</time></trkpt><trkpt lat="52.51893818359181" lon="13.369238055137451"><time>2023-05-12T16:48:21.000Z</time></trkpt><trkpt lat="52.51893866224552" lon="13.369236279973286"><time>2023-05-12T16:48:22.000Z</time></trkpt><trkpt lat="52.51893904500913" lon="13.369234359538751"><time>2023-05-12T16:48:23.000Z</time></trkpt><trkpt lat="52.51893935103078" lon="13.36923250916383"><time>2023-05-12T16:48:24.000Z</time></trkpt><trkpt lat="52.5189395978401" lon="13.369230993607987"><time>2023-05-12T16:48:25.000Z</time></trkpt><trkpt lat="52.51893984474903" lon="13.369229766250067"><time>2023-05-12T16:48:26.000Z</time></trkpt><trkpt lat="52.51893998662953" lon="13.3692289776497"><time>2023-05-12T16:48:27.000Z</time></trkpt><trkpt lat="52.51893991083377" lon="13.369228575962973"><time>2023-05-12T16:48:28.000Z</time></trkpt><trkpt lat="52.518939450730606" lon="13.369228318073404"><time>2023-05-12T16:48:29.000Z</time></trkpt><trkpt lat="52.518938529627846" lon="13.369227880528188"><time>2023-05-12T16:48:30.000Z</time></trkpt><trkpt lat="52.51893717364566" lon="13.369227057905732"><time>2023-05-12T16:48:31.000Z</time></trkpt><trkpt lat="52.51893531445831" lon="13.369225758708062"><time>2023-05-12T16:48:32.000Z</time></trkpt><trkpt lat="52.5189332343328" lon="13.369223820605159"><time>2023-05-12T16:48:33.000Z</time></trkpt><trkpt lat="52.5189314892873" lon="13.369221617799063"><time>2023-05-12T16:48:34.000Z</time></trkpt><trkpt lat="52.518930167567596" lon="13.369218992972787"><time>2023-05-12T16:48:35.000Z</time></trkpt><trkpt lat="52.51892911618776" lon="13.369216162254315"><time>2023-05-12T16:48:36.000Z</time></trkpt><trkpt lat="52.518928225039765" lon="13.369213659510605"><time>2023-05-12T16:48:37.000Z</time></trkpt><trkpt lat="52.51892750104583" lon="13.36921126319142"><time>2023-05-12T16:48:38.000Z</time></trkpt><trkpt lat="52.518927040220554" lon="13.369208852631145"><time>2023-05-12T16:48:39.000Z</time></trkpt><trkpt lat="52.51892694281155" lon="13.36920676460803"><time>2023-05-12T16:48:40.000Z</time></trkpt><trkpt lat="52.51892725553132" lon="13.369205290169242"><time>2023-05-12T16:48:41.000Z</time></trkpt><trkpt lat="52.51892800848402" lon="13.369204523114663"><time>2023-05-12T16:48:42.000Z</time></trkpt><trkpt lat="52.51892929497014" lon="13.369204596294633"><time>2023-05-12T16:48:43.000Z</time></trkpt><trkpt lat="52.518930540968775" lon="13.369205790934876"><time>2023-05-12T16:48:44.000Z</time></trkpt><trkpt lat="52.51893124275186" lon="13.369207815236273"><time>2023-05-12T16:48:45.000Z</time></trkpt><trkpt lat="52.51893141672852" lon="13.369210648686334"><time>2023-05-12T16:48:46.000Z</time></trkpt><trkpt lat="52.51893103553362" lon="13.369214282471336"><time>2023-05-12T16:48:47.000Z</time></trkpt><trkpt lat="52.51893015113354" lon="13.369218333237916"><time>2023-05-12T16:48:48.000Z</time></trkpt><trkpt lat="52.518928897938785" lon="13.36922303478753"><time>2023-05-12T16:48:49.000Z</time></trkpt><trkpt lat="52.518927349529" lon="13.369228506619498"><time>2023-05-12T16:48:50.000Z</time></trkpt><trkpt lat="52.518925544175566" lon="13.369234522579786"><time>2023-05-12T16:48:51.000Z</time></trkpt><trkpt lat="52.51892360378915" lon="13.369240672556714"><time>2023-05-12T16:48:52.000Z</time></trkpt><trkpt lat="52.518921642387085" lon="13.369247035551497"><time>2023-05-12T16:48:53.000Z</time></trkpt><trkpt lat="52.51891970966988" lon="13.369253373844337"><time>2023-05-12T16:48:54.000Z</time></trkpt><trkpt lat="52.51891793658692" lon="13.36925975013899"><time>2023-05-12T16:48:55.000Z</time></trkpt><trkpt lat="52.5189163703985" lon="13.369265986375797"><time>2023-05-12T16:48:56.000Z</time></trkpt><trkpt lat="52.51891498224545" lon="13.369272090897864"><time>2023-05-12T16:48:57.000Z</time></trkpt><trkpt lat="52.51891387312239" lon="13.369277630625664"><time>2023-05-12T16:48:58.000Z</time></trkpt><trkpt lat="52.51891309681344" lon="13.369282473808648"><time>2023-05-12T16:48:59.000Z</time></trkpt><trkpt lat="52.518912580759846" lon="13.369286115210384"><time>2023-05-12T16:49:00.000Z</time></trkpt><trkpt lat="52.51891238200763" lon="13.369288322809547"><time>2023-05-12T16:49:01.000Z</time></trkpt><trkpt lat="52.51891245023378" lon="13.369289263923603"><time>2023-05-12T16:49:02.000Z</time></trkpt><trkpt lat="52.51891271917925" lon="13.369289028475004"><time>2023-05-12T16:49:03.000Z</time></trkpt><trkpt lat="52.51891306083287" lon="13.369287527615517"><time>2023-05-12T16:49:04.000Z</time></trkpt><trkpt lat="52.51891368928531" lon="13.36928539551357"><time>2023-05-12T16:49:05.000Z</time></trkpt><trkpt lat="52.518914582126506" lon="13.369282658907014"><time>2023-05-12T16:49:06.000Z</time></trkpt><trkpt lat="52.51891573920705" lon="13.369279422782968"><time>2023-05-12T16:49:07.000Z</time></trkpt><trkpt lat="52.51891705637006" lon="13.36927569207773"><time>2023-05-12T16:49:08.000Z</time></trkpt><trkpt lat="52.518918478212875" lon="13.369271684510148"><time>2023-05-12T16:49:09.000Z</time></trkpt><trkpt lat="52.51891972214482" lon="13.369267326358026"><time>2023-05-12T16:49:10.000Z</time></trkpt><trkpt lat="52.51892066919343" lon="13.369262968318441"><time>2023-05-12T16:49:11.000Z</time></trkpt><trkpt lat="52.5189212711522" lon="13.369258871513857"><time>2023-05-12T16:49:12.000Z</time></trkpt><trkpt lat="52.51892147737444" lon="13.36925491450112"><time>2023-05-12T16:49:13.000Z</time></trkpt><trkpt lat="52.5189212261329" lon="13.369251213654087"><time>2023-05-12T16:49:14.000Z</time></trkpt><trkpt lat="52.518920515385794" lon="13.369247847206672"><time>2023-05-12T16:49:15.000Z</time></trkpt><trkpt lat="52.51891913741687" lon="13.369244490442584"><time>2023-05-12T16:49:16.000Z</time></trkpt><trkpt lat="52.518917064611976" lon="13.369241120102403"><time>2023-05-12T16:49:17.000Z</time></trkpt><trkpt lat="52.518914493258215" lon="13.369237652258839"><time>2023-05-12T16:49:18.000Z</time></trkpt><trkpt lat="52.51891168107114" lon="13.36923395127369"><time>2023-05-12T16:49:19.000Z</time></trkpt><trkpt lat="52.518908890273224" lon="13.369230009074965"><time>2023-05-12T16:49:20.000Z</time></trkpt><trkpt lat="52.51890649859825" lon="13.369225825816118"><time>2023-05-12T16:49:21.000Z</time></trkpt><trkpt lat="52.51890479232213" lon="13.36922140600376"><time>2023-05-12T16:49:22.000Z</time></trkpt><trkpt lat="52.51890365115271" lon="13.369216719196539"><time>2023-05-12T16:49:23.000Z</time></trkpt><trkpt lat="52.51890268251575" lon="13.369211398911458"><time>2023-05-12T16:49:24.000Z</time></trkpt><trkpt lat="52.518901924334045" lon="13.369205722015975"><time>2023-05-12T16:49:25.000Z</time></trkpt><trkpt lat="52.51890099536288" lon="13.369199920454685"><time>2023-05-12T16:49:26.000Z</time></trkpt><trkpt lat="52.51889975753145" lon="13.369193787706205"><time>2023-05-12T16:49:27.000Z</time></trkpt><trkpt lat="52.51889807854579" lon="13.3691870394398"><time>2023-05-12T16:49:28.000Z</time></trkpt><trkpt lat="52.518895600467616" lon="13.36917907725346"><time>2023-05-12T16:49:29.000Z</time></trkpt><trkpt lat="52.51889248945501" lon="13.369169934253625"><time>2023-05-12T16:49:30.000Z</time></trkpt><trkpt lat="52.51888870900449" lon="13.369159645388258"><time>2023-05-12T16:49:31.000Z</time></trkpt><trkpt lat="52.51888437191328" lon="13.369148549655666"><time>2023-05-12T16:49:32.000Z</time></trkpt><trkpt lat="52.51887958184032" lon="13.369137071398388"><time>2023-05-12T16:49:33.000Z</time></trkpt><trkpt lat="52.51887412581544" lon="13.369125820747904"><time>2023-05-12T16:49:34.000Z</time></trkpt><trkpt lat="52.51886861874546" lon="13.369115373977287"><time>2023-05-12T16:49:35.000Z</time></trkpt><trkpt lat="52.51886329053255" lon="13.36910548070117"><time>2023-05-12T16:49:36.000Z</time></trkpt><trkpt lat="52.51885847521093" lon="13.369096115158724"><time>2023-05-12T16:49:37.000Z</time></trkpt><trkpt lat="52.51885432616493" lon="13.369087330979113"><time>2023-05-12T16:49:38.000Z</time></trkpt><trkpt lat="52.51885095957818" lon="13.369079393341263"><time>2023-05-12T16:49:39.000Z</time></trkpt><trkpt lat="52.51884852579722" lon="13.369073049887051"><time>2023-05-12T16:49:40.000Z</time></trkpt><trkpt lat="52.51884675151906" lon="13.369068549866256"><time>2023-05-12T16:49:41.000Z</time></trkpt><trkpt lat="52.51884549578449" lon="13.369065882321827"><time>2023-05-12T16:49:42.000Z</time></trkpt><trkpt lat="52.51884451746142" lon="13.369065074999337"><time>2023-05-12T16:49:43.000Z</time></trkpt><trkpt lat="52.51884364297157" lon="13.369066082039819"><time>2023-05-12T16:49:44.000Z</time></trkpt><trkpt lat="52.51884334148172" lon="13.369068425159528"><time>2023-05-12T16:49:45.000Z</time></trkpt><trkpt lat="52.518843431968506" lon="13.369071644142089"><time>2023-05-12T16:49:46.000Z</time></trkpt><trkpt lat="52.5188439020317" lon="13.36907586109053"><time>2023-05-12T16:49:47.000Z</time></trkpt><trkpt lat="52.51884473976907" lon="13.369080742945442"><time>2023-05-12T16:49:48.000Z</time></trkpt><trkpt lat="52.518846065472786" lon="13.36908631180507"><time>2023-05-12T16:49:49.000Z</time></trkpt><trkpt lat="52.51884800882231" lon="13.369092631099557"><time>2023-05-12T16:49:50.000Z</time></trkpt><trkpt lat="52.518850739536404" lon="13.36909964955791"><time>2023-05-12T16:49:51.000Z</time></trkpt><trkpt lat="52.51885435644338" lon="13.369107243409502"><time>2023-05-12T16:49:52.000Z</time></trkpt><trkpt lat="52.5188588928346" lon="13.36911525541408"><time>2023-05-12T16:49:53.000Z</time></trkpt><trkpt lat="52.518864387927664" lon="13.36912333232202"><time>2023-05-12T16:49:54.000Z</time></trkpt><trkpt lat="52.51887084154826" lon="13.369131076027326"><time>2023-05-12T16:49:55.000Z</time></trkpt><trkpt lat="52.518877911743964" lon="13.369138255050899"><time>2023-05-12T16:49:56.000Z</time></trkpt><trkpt lat="52.518885704265294" lon="13.369145201377922"><time>2023-05-12T16:49:57.000Z</time></trkpt><trkpt lat="52.51889396777114" lon="13.369151882536256"><time>2023-05-12T16:49:58.000Z</time></trkpt><trkpt lat="52.51890276503452" lon="13.36915845098332"><time>2023-05-12T16:49:59.000Z</time></trkpt><trkpt lat="52.51891186311543" lon="13.369164889552053"><time>2023-05-12T16:50:00.000Z</time></trkpt><trkpt lat="52.51892114655232" lon="13.36917113316517"><time>2023-05-12T16:50:01.000Z</time></trkpt><trkpt lat="52.51893056108801" lon="13.369177174604937"><time>2023-05-12T16:50:02.000Z</time></trkpt><trkpt lat="52.51893991043535" lon="13.369182946645635"><time>2023-05-12T16:50:03.000Z</time></trkpt><trkpt lat="52.51894908286783" lon="13.369188553982807"><time>2023-05-12T16:50:04.000Z</time></trkpt><trkpt lat="52.51895801105567" lon="13.369194078784062"><time>2023-05-12T16:50:05.000Z</time></trkpt><trkpt lat="52.51896661509463" lon="13.369199554918028"><time>2023-05-12T16:50:06.000Z</time></trkpt><trkpt lat="52.51897493562159" lon="13.369204949784683"><time>2023-05-12T16:50:07.000Z</time></trkpt><trkpt lat="52.518982891561976" lon="13.369210092265865"><time>2023-05-12T16:50:08.000Z</time></trkpt><trkpt lat="52.51899037138845" lon="13.369214902321948"><time>2023-05-12T16:50:09.000Z</time></trkpt><trkpt lat="52.51899733361752" lon="13.369219334943102"><time>2023-05-12T16:50:10.000Z</time></trkpt><trkpt lat="52.51900373004269" lon="13.369223363151058"><time>2023-05-12T16:50:11.000Z</time></trkpt><trkpt lat="52.51900951768648" lon="13.369226957501951"><time>2023-05-12T16:50:12.000Z</time></trkpt><trkpt lat="52.51901461268549" lon="13.369230085006992"><time>2023-05-12T16:50:13.000Z</time></trkpt><trkpt lat="52.51901905077131" lon="13.369232763933041"><time>2023-05-12T16:50:14.000Z</time></trkpt><trkpt lat="52.519022873651515" lon="13.369234994597246"><time>2023-05-12T16:50:15.000Z</time></trkpt><trkpt lat="52.519026098507155" lon="13.369236756870766"><time>2023-05-12T16:50:16.000Z</time></trkpt><trkpt lat="52.51902876888842" lon="13.369238083282017"><time>2023-05-12T16:50:17.000Z</time></trkpt><trkpt lat="52.51903101422578" lon="13.369239122257527"><time>2023-05-12T16:50:18.000Z</time></trkpt><trkpt lat="52.51903280060537" lon="13.369239917349255"><time>2023-05-12T16:50:19.000Z</time></trkpt><trkpt lat="52.51903423156161" lon="13.3692405241353"><time>2023-05-12T16:50:20.000Z</time></trkpt><trkpt lat="52.519035323653036" lon="13.369240974131241"><time>2023-05-12T16:50:21.000Z</time></trkpt><trkpt lat="52.51903614306397" lon="13.369241318828028"><time>2023-05-12T16:50:22.000Z</time></trkpt><trkpt lat="52.51903674641715" lon="13.369241583669334"><time>2023-05-12T16:50:23.000Z</time></trkpt><trkpt lat="52.519037175046655" lon="13.369241797904643"><time>2023-05-12T16:50:24.000Z</time></trkpt><trkpt lat="52.51903747529149" lon="13.369241992302683"><time>2023-05-12T16:50:25.000Z</time></trkpt><trkpt lat="52.51903768743994" lon="13.369242191012951"><time>2023-05-12T16:50:26.000Z</time></trkpt><trkpt lat="52.519037840176864" lon="13.36924240387735"><time>2023-05-12T16:50:27.000Z</time></trkpt><trkpt lat="52.51903790929941" lon="13.369242590095972"><time>2023-05-12T16:50:28.000Z</time></trkpt><trkpt lat="52.519037934498265" lon="13.369242767761756"><time>2023-05-12T16:50:29.000Z</time></trkpt><trkpt lat="52.51903793036485" lon="13.369242951417595"><time>2023-05-12T16:50:30.000Z</time></trkpt><trkpt lat="52.519037914080215" lon="13.369243115123634"><time>2023-05-12T16:50:31.000Z</time></trkpt><trkpt lat="52.5190378650271" lon="13.369243267110441"><time>2023-05-12T16:50:32.000Z</time></trkpt><trkpt lat="52.51903783240803" lon="13.369243401505615"><time>2023-05-12T16:50:33.000Z</time></trkpt><trkpt lat="52.51903781034659" lon="13.369243563313864"><time>2023-05-12T16:50:34.000Z</time></trkpt><trkpt lat="52.519037801457266" lon="13.369243703320558"><time>2023-05-12T16:50:35.000Z</time></trkpt><trkpt lat="52.51903779244345" lon="13.369243814210773"><time>2023-05-12T16:50:36.000Z</time></trkpt><trkpt lat="52.51903777282221" lon="13.369243884229467"><time>2023-05-12T16:50:37.000Z</time></trkpt><trkpt lat="52.51903773318133" lon="13.36924391467082"><time>2023-05-12T16:50:38.000Z</time></trkpt><trkpt lat="52.519037709849975" lon="13.369243945945975"><time>2023-05-12T16:50:39.000Z</time></trkpt><trkpt lat="52.51903768487523" lon="13.369243965507012"><time>2023-05-12T16:50:40.000Z</time></trkpt><trkpt lat="52.519037624691805" lon="13.36924402318752"><time>2023-05-12T16:50:41.000Z</time></trkpt><trkpt lat="52.51903753318411" lon="13.369244112173872"><time>2023-05-12T16:50:42.000Z</time></trkpt><trkpt lat="52.51903747135728" lon="13.369244207441854"><time>2023-05-12T16:50:43.000Z</time></trkpt><trkpt lat="52.51903738037249" lon="13.36924433037868"><time>2023-05-12T16:50:44.000Z</time></trkpt><trkpt lat="52.51903726037913" lon="13.369244403926954"><time>2023-05-12T16:50:45.000Z</time></trkpt><trkpt lat="52.51903713859297" lon="13.369244497102763"><time>2023-05-12T16:50:46.000Z</time></trkpt><trkpt lat="52.51903701200111" lon="13.369244609578727"><time>2023-05-12T16:50:47.000Z</time></trkpt><trkpt lat="52.51903683204842" lon="13.369244785505298"><time>2023-05-12T16:50:48.000Z</time></trkpt><trkpt lat="52.51903661663807" lon="13.369245000093565"><time>2023-05-12T16:50:49.000Z</time></trkpt><trkpt lat="52.51903637189545" lon="13.369245264305686"><time>2023-05-12T16:50:50.000Z</time></trkpt><trkpt lat="52.51903609684946" lon="13.36924554842157"><time>2023-05-12T16:50:51.000Z</time></trkpt><trkpt lat="52.5190358325603" lon="13.369245788520006"><time>2023-05-12T16:50:52.000Z</time></trkpt><trkpt lat="52.51903562113394" lon="13.369246003645383"><time>2023-05-12T16:50:53.000Z</time></trkpt><trkpt lat="52.519035444766864" lon="13.3692462168832"><time>2023-05-12T16:50:54.000Z</time></trkpt><trkpt lat="52.51903532327951" lon="13.369246436254302"><time>2023-05-12T16:50:55.000Z</time></trkpt><trkpt lat="52.51903526073057" lon="13.369246709940024"><time>2023-05-12T16:50:56.000Z</time></trkpt><trkpt lat="52.5190352238038" lon="13.369247019177315"><time>2023-05-12T16:50:57.000Z</time></trkpt><trkpt lat="52.51903520186684" lon="13.369247373649506"><time>2023-05-12T16:50:58.000Z</time></trkpt><trkpt lat="52.519035259809264" lon="13.36924773059752"><time>2023-05-12T16:50:59.000Z</time></trkpt><trkpt lat="52.519035378956026" lon="13.3692480584444"><time>2023-05-12T16:51:00.000Z</time></trkpt><trkpt lat="52.51903553555246" lon="13.369248331726011"><time>2023-05-12T16:51:01.000Z</time></trkpt><trkpt lat="52.51903574419" lon="13.369248555107538"><time>2023-05-12T16:51:02.000Z</time></trkpt><trkpt lat="52.51903599540663" lon="13.369248689610133"><time>2023-05-12T16:51:03.000Z</time></trkpt><trkpt lat="52.519036214701394" lon="13.36924880928849"><time>2023-05-12T16:51:04.000Z</time></trkpt><trkpt lat="52.519036401850194" lon="13.369248873373392"><time>2023-05-12T16:51:05.000Z</time></trkpt><trkpt lat="52.519036580557874" lon="13.369248872166175"><time>2023-05-12T16:51:06.000Z</time></trkpt><trkpt lat="52.519036732747004" lon="13.369248812107038"><time>2023-05-12T16:51:07.000Z</time></trkpt><trkpt lat="52.519036861953374" lon="13.369248744763665"><time>2023-05-12T16:51:08.000Z</time></trkpt><trkpt lat="52.519037010531996" lon="13.369248658529363"><time>2023-05-12T16:51:09.000Z</time></trkpt><trkpt lat="52.51903713311496" lon="13.369248514558285"><time>2023-05-12T16:51:10.000Z</time></trkpt><trkpt lat="52.51903723475698" lon="13.369248354177214"><time>2023-05-12T16:51:11.000Z</time></trkpt><trkpt lat="52.51903735298242" lon="13.369248168997002"><time>2023-05-12T16:51:12.000Z</time></trkpt><trkpt lat="52.51903747155647" lon="13.3692479612684"><time>2023-05-12T16:51:13.000Z</time></trkpt><trkpt lat="52.51903763176342" lon="13.36924774525807"><time>2023-05-12T16:51:14.000Z</time></trkpt><trkpt lat="52.51903784707417" lon="13.36924750939513"><time>2023-05-12T16:51:15.000Z</time></trkpt><trkpt lat="52.51903809370919" lon="13.369247299676664"><time>2023-05-12T16:51:16.000Z</time></trkpt><trkpt lat="52.519038327906635" lon="13.36924711874218"><time>2023-05-12T16:51:17.000Z</time></trkpt><trkpt lat="52.519038561095634" lon="13.36924695933814"><time>2023-05-12T16:51:18.000Z</time></trkpt><trkpt lat="52.51903879137132" lon="13.369246762771196"><time>2023-05-12T16:51:19.000Z</time></trkpt><trkpt lat="52.51903899642325" lon="13.369246526800834"><time>2023-05-12T16:51:20.000Z</time></trkpt><trkpt lat="52.51903921382561" lon="13.369246275494701"><time>2023-05-12T16:51:21.000Z</time></trkpt><trkpt lat="52.51903944685275" lon="13.3692460003818"><time>2023-05-12T16:51:22.000Z</time></trkpt><trkpt lat="52.519039684249854" lon="13.369245690489747"><time>2023-05-12T16:51:23.000Z</time></trkpt><trkpt lat="52.51903992578036" lon="13.369245379252357"><time>2023-05-12T16:51:24.000Z</time></trkpt><trkpt lat="52.519040120262225" lon="13.36924511272299"><time>2023-05-12T16:51:25.000Z</time></trkpt><trkpt lat="52.51904029201034" lon="13.369244871857251"><time>2023-05-12T16:51:26.000Z</time></trkpt><trkpt lat="52.5190404626006" lon="13.369244662993044"><time>2023-05-12T16:51:27.000Z</time></trkpt><trkpt lat="52.519040655102906" lon="13.369244497783098"><time>2023-05-12T16:51:28.000Z</time></trkpt><trkpt lat="52.519040872492816" lon="13.369244349683946"><time>2023-05-12T16:51:29.000Z</time></trkpt><trkpt lat="52.519041109977074" lon="13.369244220030685"><time>2023-05-12T16:51:30.000Z</time></trkpt><trkpt lat="52.51904133892061" lon="13.369244114496228"><time>2023-05-12T16:51:31.000Z</time></trkpt><trkpt lat="52.51904153388803" lon="13.369244060979604"><time>2023-05-12T16:51:32.000Z</time></trkpt><trkpt lat="52.51904167965294" lon="13.36924409331363"><time>2023-05-12T16:51:33.000Z</time></trkpt><trkpt lat="52.519041767612386" lon="13.369244249080669"><time>2023-05-12T16:51:34.000Z</time></trkpt><trkpt lat="52.51904180499982" lon="13.369244513077946"><time>2023-05-12T16:51:35.000Z</time></trkpt><trkpt lat="52.5190418190808" lon="13.369244895531018"><time>2023-05-12T16:51:36.000Z</time></trkpt><trkpt lat="52.51904181650365" lon="13.369245269640977"><time>2023-05-12T16:51:37.000Z</time></trkpt><trkpt lat="52.5190418156446" lon="13.369245672841844"><time>2023-05-12T16:51:38.000Z</time></trkpt><trkpt lat="52.51904179052045" lon="13.369246041764853"><time>2023-05-12T16:51:39.000Z</time></trkpt><trkpt lat="52.51904174495336" lon="13.369246394185797"><time>2023-05-12T16:51:40.000Z</time></trkpt><trkpt lat="52.51904168738443" lon="13.3692467305139"><time>2023-05-12T16:51:41.000Z</time></trkpt><trkpt lat="52.51904162660341" lon="13.369247034932549"><time>2023-05-12T16:51:42.000Z</time></trkpt><trkpt lat="52.519041568349735" lon="13.369247274836601"><time>2023-05-12T16:51:43.000Z</time></trkpt><trkpt lat="52.519041514690116" lon="13.369247423549593"><time>2023-05-12T16:51:44.000Z</time></trkpt><trkpt lat="52.51904146510165" lon="13.369247475142854"><time>2023-05-12T16:51:45.000Z</time></trkpt><trkpt lat="52.51904141704454" lon="13.369247421554615"><time>2023-05-12T16:51:46.000Z</time></trkpt><trkpt lat="52.519041357321754" lon="13.369247238159657"><time>2023-05-12T16:51:47.000Z</time></trkpt><trkpt lat="52.519041269250266" lon="13.369247033080796"><time>2023-05-12T16:51:48.000Z</time></trkpt><trkpt lat="52.51904113246183" lon="13.369246800430288"><time>2023-05-12T16:51:49.000Z</time></trkpt><trkpt lat="52.51904096771064" lon="13.369246579314854"><time>2023-05-12T16:51:50.000Z</time></trkpt><trkpt lat="52.51904077053957" lon="13.369246375995669"><time>2023-05-12T16:51:51.000Z</time></trkpt><trkpt lat="52.519040539404834" lon="13.369246191352572"><time>2023-05-12T16:51:52.000Z</time></trkpt><trkpt lat="52.51904028884805" lon="13.36924603465454"><time>2023-05-12T16:51:53.000Z</time></trkpt><trkpt lat="52.519040031393956" lon="13.369245919247488"><time>2023-05-12T16:51:54.000Z</time></trkpt><trkpt lat="52.51903977446277" lon="13.36924585191946"><time>2023-05-12T16:51:55.000Z</time></trkpt><trkpt lat="52.51903952053203" lon="13.369245833376374"><time>2023-05-12T16:51:56.000Z</time></trkpt><trkpt lat="52.51903926950215" lon="13.369245861265176"><time>2023-05-12T16:51:57.000Z</time></trkpt><trkpt lat="52.51903902419929" lon="13.369245934250761"><time>2023-05-12T16:51:58.000Z</time></trkpt><trkpt lat="52.51903878483507" lon="13.369246050675768"><time>2023-05-12T16:51:59.000Z</time></trkpt><trkpt lat="52.51903856038599" lon="13.369246207353335"><time>2023-05-12T16:52:00.000Z</time></trkpt><trkpt lat="52.51903835647945" lon="13.369246434842474"><time>2023-05-12T16:52:01.000Z</time></trkpt><trkpt lat="52.51903817886737" lon="13.36924673654488"><time>2023-05-12T16:52:02.000Z</time></trkpt><trkpt lat="52.51903802859555" lon="13.36924709562087"><time>2023-05-12T16:52:03.000Z</time></trkpt><trkpt lat="52.51903790529048" lon="13.369247520981366"><time>2023-05-12T16:52:04.000Z</time></trkpt><trkpt lat="52.51903780927587" lon="13.369247971974795"><time>2023-05-12T16:52:05.000Z</time></trkpt><trkpt lat="52.51903774602974" lon="13.369248424666518"><time>2023-05-12T16:52:06.000Z</time></trkpt><trkpt lat="52.51903771248937" lon="13.369248873506395"><time>2023-05-12T16:52:07.000Z</time></trkpt><trkpt lat="52.51903770641376" lon="13.36924931469373"><time>2023-05-12T16:52:08.000Z</time></trkpt><trkpt lat="52.5190377254623" lon="13.369249752617485"><time>2023-05-12T16:52:09.000Z</time></trkpt><trkpt lat="52.519037770282395" lon="13.369250194781849"><time>2023-05-12T16:52:10.000Z</time></trkpt><trkpt lat="52.51903783325463" lon="13.369250609113681"><time>2023-05-12T16:52:11.000Z</time></trkpt><trkpt lat="52.519037912660906" lon="13.36925097279859"><time>2023-05-12T16:52:12.000Z</time></trkpt><trkpt lat="52.51903800875021" lon="13.36925128768321"><time>2023-05-12T16:52:13.000Z</time></trkpt><trkpt lat="52.51903811995384" lon="13.369251569763197"><time>2023-05-12T16:52:14.000Z</time></trkpt><trkpt lat="52.5190382437818" lon="13.369251804956031"><time>2023-05-12T16:52:15.000Z</time></trkpt><trkpt lat="52.51903837562759" lon="13.369252027600949"><time>2023-05-12T16:52:16.000Z</time></trkpt><trkpt lat="52.51903850503316" lon="13.369252258010944"><time>2023-05-12T16:52:18.000Z</time></trkpt><trkpt lat="52.51903866230189" lon="13.36925246940724"><time>2023-05-12T16:52:19.000Z</time></trkpt><trkpt lat="52.51903917320117" lon="13.369251880243517"><time>2023-05-12T16:52:20.000Z</time></trkpt><trkpt lat="52.51903962440258" lon="13.369251354699207"><time>2023-05-12T16:52:21.000Z</time></trkpt><trkpt lat="52.519040017748715" lon="13.369250889321455"><time>2023-05-12T16:52:22.000Z</time></trkpt><trkpt lat="52.51904035418578" lon="13.369250470590435"><time>2023-05-12T16:52:23.000Z</time></trkpt><trkpt lat="52.519040638917886" lon="13.369250078075504"><time>2023-05-12T16:52:24.000Z</time></trkpt><trkpt lat="52.5190408759415" lon="13.36924969685523"><time>2023-05-12T16:52:25.000Z</time></trkpt><trkpt lat="52.51904106987556" lon="13.369249321578973"><time>2023-05-12T16:52:26.000Z</time></trkpt><trkpt lat="52.519041249529444" lon="13.369248972979182"><time>2023-05-12T16:52:27.000Z</time></trkpt><trkpt lat="52.51904142129001" lon="13.369248629873262"><time>2023-05-12T16:52:28.000Z</time></trkpt><trkpt lat="52.51904160506486" lon="13.36924827908411"><time>2023-05-12T16:52:29.000Z</time></trkpt><trkpt lat="52.51904175379287" lon="13.369247921302298"><time>2023-05-12T16:52:30.000Z</time></trkpt><trkpt lat="52.51904153712507" lon="13.3692483355574"><time>2023-05-12T16:52:31.000Z</time></trkpt><trkpt lat="52.51904137165177" lon="13.369248646175832"><time>2023-05-12T16:52:32.000Z</time></trkpt><trkpt lat="52.51904125094877" lon="13.369248849300634"><time>2023-05-12T16:52:33.000Z</time></trkpt><trkpt lat="52.51904116175678" lon="13.369248947172322"><time>2023-05-12T16:52:34.000Z</time></trkpt><trkpt lat="52.51904110182235" lon="13.369248978186592"><time>2023-05-12T16:52:35.000Z</time></trkpt><trkpt lat="52.51904107151898" lon="13.369248957244416"><time>2023-05-12T16:52:36.000Z</time></trkpt><trkpt lat="52.51904106942738" lon="13.36924886443691"><time>2023-05-12T16:52:37.000Z</time></trkpt><trkpt lat="52.519041068742624" lon="13.36924871686975"><time>2023-05-12T16:52:38.000Z</time></trkpt><trkpt lat="52.51904106584177" lon="13.369248506020796"><time>2023-05-12T16:52:39.000Z</time></trkpt><trkpt lat="52.51904104292127" lon="13.369248283549801"><time>2023-05-12T16:52:40.000Z</time></trkpt><trkpt lat="52.51904101795897" lon="13.369248079432623"><time>2023-05-12T16:52:41.000Z</time></trkpt><trkpt lat="52.51904099598467" lon="13.36924790225791"><time>2023-05-12T16:52:42.000Z</time></trkpt><trkpt lat="52.519040973524824" lon="13.369247754051337"><time>2023-05-12T16:52:43.000Z</time></trkpt><trkpt lat="52.51904095567148" lon="13.369247616546039"><time>2023-05-12T16:52:44.000Z</time></trkpt><trkpt lat="52.51904097617667" lon="13.369247485092181"><time>2023-05-12T16:52:45.000Z</time></trkpt><trkpt lat="52.51904103378294" lon="13.36924733227669"><time>2023-05-12T16:52:46.000Z</time></trkpt><trkpt lat="52.519041123236384" lon="13.369247147014635"><time>2023-05-12T16:52:47.000Z</time></trkpt><trkpt lat="52.51904124639205" lon="13.36924693943949"><time>2023-05-12T16:52:48.000Z</time></trkpt><trkpt lat="52.51904141919842" lon="13.369246666147653"><time>2023-05-12T16:52:49.000Z</time></trkpt><trkpt lat="52.519041627462464" lon="13.36924636004606"><time>2023-05-12T16:52:50.000Z</time></trkpt><trkpt lat="52.51904186751142" lon="13.369245967925007"><time>2023-05-12T16:52:51.000Z</time></trkpt><trkpt lat="52.51904213664364" lon="13.369245487114291"><time>2023-05-12T16:52:52.000Z</time></trkpt><trkpt lat="52.51904243574308" lon="13.36924494244886"><time>2023-05-12T16:52:53.000Z</time></trkpt><trkpt lat="52.51904273824137" lon="13.369244343238625"><time>2023-05-12T16:52:54.000Z</time></trkpt><trkpt lat="52.51904304314251" lon="13.36924371318804"><time>2023-05-12T16:52:55.000Z</time></trkpt><trkpt lat="52.51904331820094" lon="13.369243068446213"><time>2023-05-12T16:52:56.000Z</time></trkpt><trkpt lat="52.51904356230861" lon="13.369242395094323"><time>2023-05-12T16:52:57.000Z</time></trkpt><trkpt lat="52.51904377603821" lon="13.369241674389786"><time>2023-05-12T16:52:58.000Z</time></trkpt><trkpt lat="52.51904395562983" lon="13.369240915330472"><time>2023-05-12T16:52:59.000Z</time></trkpt><trkpt lat="52.519044085620564" lon="13.369240128008938"><time>2023-05-12T16:53:00.000Z</time></trkpt><trkpt lat="52.519044180340366" lon="13.369239316491873"><time>2023-05-12T16:53:01.000Z</time></trkpt><trkpt lat="52.519044244358405" lon="13.369238503915938"><time>2023-05-12T16:53:02.000Z</time></trkpt><trkpt lat="52.51904428469649" lon="13.369237721239129"><time>2023-05-12T16:53:03.000Z</time></trkpt><trkpt lat="52.51904432060237" lon="13.36923696545363"><time>2023-05-12T16:53:04.000Z</time></trkpt><trkpt lat="52.519044381084605" lon="13.36923623705563"><time>2023-05-12T16:53:05.000Z</time></trkpt><trkpt lat="52.51904446158648" lon="13.369235527773634"><time>2023-05-12T16:53:06.000Z</time></trkpt><trkpt lat="52.51904454866197" lon="13.369234808260972"><time>2023-05-12T16:53:07.000Z</time></trkpt><trkpt lat="52.51904462829234" lon="13.369234092390423"><time>2023-05-12T16:53:08.000Z</time></trkpt><trkpt lat="52.51904462593928" lon="13.369233419509145"><time>2023-05-12T16:53:09.000Z</time></trkpt><trkpt lat="52.519044512419946" lon="13.369232813879163"><time>2023-05-12T16:53:10.000Z</time></trkpt><trkpt lat="52.51904427224649" lon="13.369232271996475"><time>2023-05-12T16:53:11.000Z</time></trkpt><trkpt lat="52.51904391117082" lon="13.369231842753447"><time>2023-05-12T16:53:12.000Z</time></trkpt><trkpt lat="52.51904345810191" lon="13.369231473983895"><time>2023-05-12T16:53:13.000Z</time></trkpt><trkpt lat="52.519042966599756" lon="13.369231102779445"><time>2023-05-12T16:53:14.000Z</time></trkpt><trkpt lat="52.519042419869294" lon="13.369230706392203"><time>2023-05-12T16:53:15.000Z</time></trkpt><trkpt lat="52.519041814561454" lon="13.369230252078921"><time>2023-05-12T16:53:16.000Z</time></trkpt><trkpt lat="52.51904118141536" lon="13.369229743635174"><time>2023-05-12T16:53:17.000Z</time></trkpt><trkpt lat="52.51904048835974" lon="13.369229228827948"><time>2023-05-12T16:53:18.000Z</time></trkpt><trkpt lat="52.51903977303102" lon="13.369228710281414"><time>2023-05-12T16:53:19.000Z</time></trkpt><trkpt lat="52.51903911321696" lon="13.369228176752067"><time>2023-05-12T16:53:20.000Z</time></trkpt><trkpt lat="52.51903855508227" lon="13.369227637943693"><time>2023-05-12T16:53:21.000Z</time></trkpt><trkpt lat="52.51903810251136" lon="13.369227116588842"><time>2023-05-12T16:53:22.000Z</time></trkpt><trkpt lat="52.519037761318394" lon="13.369226604283016"><time>2023-05-12T16:53:23.000Z</time></trkpt><trkpt lat="52.51903749060501" lon="13.36922614948889"><time>2023-05-12T16:53:24.000Z</time></trkpt><trkpt lat="52.5190372468335" lon="13.36922578671451"><time>2023-05-12T16:53:25.000Z</time></trkpt><trkpt lat="52.51903700684679" lon="13.369225513381751"><time>2023-05-12T16:53:26.000Z</time></trkpt><trkpt lat="52.51903679489754" lon="13.369225333767025"><time>2023-05-12T16:53:27.000Z</time></trkpt><trkpt lat="52.51903658543829" lon="13.369225271697559"><time>2023-05-12T16:53:28.000Z</time></trkpt><trkpt lat="52.51903643295038" lon="13.369225302118451"><time>2023-05-12T16:53:29.000Z</time></trkpt><trkpt lat="52.519036311288716" lon="13.369225423500216"><time>2023-05-12T16:53:30.000Z</time></trkpt><trkpt lat="52.51903621641952" lon="13.369225600204317"><time>2023-05-12T16:53:31.000Z</time></trkpt><trkpt lat="52.519036131111946" lon="13.369225805999323"><time>2023-05-12T16:53:32.000Z</time></trkpt><trkpt lat="52.51903606686981" lon="13.369225993363779"><time>2023-05-12T16:53:33.000Z</time></trkpt><trkpt lat="52.519036011990096" lon="13.369226111169922"><time>2023-05-12T16:53:34.000Z</time></trkpt><trkpt lat="52.51903597752843" lon="13.369226171541095"><time>2023-05-12T16:53:35.000Z</time></trkpt><trkpt lat="52.51903594894316" lon="13.369226199378744"><time>2023-05-12T16:53:36.000Z</time></trkpt><trkpt lat="52.519035946926266" lon="13.369226241186368"><time>2023-05-12T16:53:37.000Z</time></trkpt><trkpt lat="52.51903594682667" lon="13.369226269295128"><time>2023-05-12T16:53:38.000Z</time></trkpt><trkpt lat="52.519035946253965" lon="13.369226274231426"><time>2023-05-12T16:53:39.000Z</time></trkpt><trkpt lat="52.51903594241935" lon="13.369226276134329"><time>2023-05-12T16:53:40.000Z</time></trkpt><trkpt lat="52.51903591189188" lon="13.369226296902584"><time>2023-05-12T16:53:41.000Z</time></trkpt><trkpt lat="52.51903585213176" lon="13.36922633653108"><time>2023-05-12T16:53:42.000Z</time></trkpt><trkpt lat="52.51903576181926" lon="13.36922642236127"><time>2023-05-12T16:53:43.000Z</time></trkpt><trkpt lat="52.519035641303" lon="13.369226566460235"><time>2023-05-12T16:53:44.000Z</time></trkpt><trkpt lat="52.51903549449228" lon="13.36922674942039"><time>2023-05-12T16:53:45.000Z</time></trkpt><trkpt lat="52.51903534536586" lon="13.369226930206526"><time>2023-05-12T16:53:46.000Z</time></trkpt><trkpt lat="52.51903520176725" lon="13.369227075906588"><time>2023-05-12T16:53:47.000Z</time></trkpt><trkpt lat="52.51903509482152" lon="13.369227108184345"><time>2023-05-12T16:53:48.000Z</time></trkpt><trkpt lat="52.51903500724803" lon="13.369227134364623"><time>2023-05-12T16:53:49.000Z</time></trkpt><trkpt lat="52.519034966611144" lon="13.369227076806885"><time>2023-05-12T16:53:50.000Z</time></trkpt><trkpt lat="52.51903492958477" lon="13.369226938084141"><time>2023-05-12T16:53:51.000Z</time></trkpt><trkpt lat="52.51903485436171" lon="13.369226778332257"><time>2023-05-12T16:53:52.000Z</time></trkpt><trkpt lat="52.51903469823838" lon="13.369226659011973"><time>2023-05-12T16:53:53.000Z</time></trkpt><trkpt lat="52.51903443952683" lon="13.36922657381097"><time>2023-05-12T16:53:54.000Z</time></trkpt><trkpt lat="52.51903406976105" lon="13.369226555953338"><time>2023-05-12T16:53:55.000Z</time></trkpt><trkpt lat="52.519033641529944" lon="13.369226588215751"><time>2023-05-12T16:53:56.000Z</time></trkpt><trkpt lat="52.519033170918945" lon="13.369226660147577"><time>2023-05-12T16:53:57.000Z</time></trkpt><trkpt lat="52.5190326810602" lon="13.369226753834921"><time>2023-05-12T16:53:58.000Z</time></trkpt><trkpt lat="52.51903215429959" lon="13.369226893151046"><time>2023-05-12T16:53:59.000Z</time></trkpt><trkpt lat="52.51903161312184" lon="13.36922702309588"><time>2023-05-12T16:54:00.000Z</time></trkpt><trkpt lat="52.51903102605329" lon="13.369227226701524"><time>2023-05-12T16:54:01.000Z</time></trkpt><trkpt lat="52.519030446454764" lon="13.369227484023291"><time>2023-05-12T16:54:02.000Z</time></trkpt><trkpt lat="52.519029946411905" lon="13.369227706453364"><time>2023-05-12T16:54:03.000Z</time></trkpt><trkpt lat="52.51902957507741" lon="13.369227856424727"><time>2023-05-12T16:54:04.000Z</time></trkpt><trkpt lat="52.519029355956945" lon="13.369227907363223"><time>2023-05-12T16:54:05.000Z</time></trkpt><trkpt lat="52.5190292894738" lon="13.36922789139315"><time>2023-05-12T16:54:06.000Z</time></trkpt><trkpt lat="52.519029325728276" lon="13.369227860025921"><time>2023-05-12T16:54:07.000Z</time></trkpt><trkpt lat="52.519029431777604" lon="13.369227845114724"><time>2023-05-12T16:54:08.000Z</time></trkpt><trkpt lat="52.51902957916102" lon="13.369227874666011"><time>2023-05-12T16:54:09.000Z</time></trkpt><trkpt lat="52.51902975139469" lon="13.369227950679875"><time>2023-05-12T16:54:10.000Z</time></trkpt><trkpt lat="52.51902992479866" lon="13.369228033082793"><time>2023-05-12T16:54:11.000Z</time></trkpt><trkpt lat="52.51903010091673" lon="13.369228092113747"><time>2023-05-12T16:54:12.000Z</time></trkpt><trkpt lat="52.519030275167296" lon="13.369228120861925"><time>2023-05-12T16:54:13.000Z</time></trkpt><trkpt lat="52.519030458655784" lon="13.36922809942356"><time>2023-05-12T16:54:14.000Z</time></trkpt><trkpt lat="52.51903065078459" lon="13.369228033139063"><time>2023-05-12T16:54:15.000Z</time></trkpt><trkpt lat="52.51903084522912" lon="13.36922793900157"><time>2023-05-12T16:54:16.000Z</time></trkpt><trkpt lat="52.51903103461891" lon="13.369227761049325"><time>2023-05-12T16:54:17.000Z</time></trkpt><trkpt lat="52.519031203017974" lon="13.36922746866706"><time>2023-05-12T16:54:18.000Z</time></trkpt><trkpt lat="52.51903132353423" lon="13.369227080443892"><time>2023-05-12T16:54:19.000Z</time></trkpt><trkpt lat="52.51903138558516" lon="13.369226572128026"><time>2023-05-12T16:54:20.000Z</time></trkpt><trkpt lat="52.519031401222385" lon="13.369225961423636"><time>2023-05-12T16:54:21.000Z</time></trkpt><trkpt lat="52.51903142898595" lon="13.36922530092658"><time>2023-05-12T16:54:22.000Z</time></trkpt><trkpt lat="52.5190314560025" lon="13.369224607471427"><time>2023-05-12T16:54:23.000Z</time></trkpt><trkpt lat="52.51903147761575" lon="13.369223887058466"><time>2023-05-12T16:54:24.000Z</time></trkpt><trkpt lat="52.51903147602215" lon="13.369223182288192"><time>2023-05-12T16:54:25.000Z</time></trkpt><trkpt lat="52.51903144858229" lon="13.369222486311179"><time>2023-05-12T16:54:26.000Z</time></trkpt><trkpt lat="52.519031403338886" lon="13.369221791198656"><time>2023-05-12T16:54:27.000Z</time></trkpt><trkpt lat="52.519031360734886" lon="13.369221137095765"><time>2023-05-12T16:54:28.000Z</time></trkpt><trkpt lat="52.519031343628555" lon="13.369220559615469"><time>2023-05-12T16:54:29.000Z</time></trkpt><trkpt lat="52.519031374952824" lon="13.369220055003105"><time>2023-05-12T16:54:30.000Z</time></trkpt><trkpt lat="52.519031461654805" lon="13.369219657510952"><time>2023-05-12T16:54:31.000Z</time></trkpt><trkpt lat="52.51903157031864" lon="13.36921934438089"><time>2023-05-12T16:54:32.000Z</time></trkpt><trkpt lat="52.51903166401755" lon="13.369219133685393"><time>2023-05-12T16:54:33.000Z</time></trkpt><trkpt lat="52.51903172674077" lon="13.369218960828022"><time>2023-05-12T16:54:34.000Z</time></trkpt><trkpt lat="52.51903175833895" lon="13.369218869882497"><time>2023-05-12T16:54:35.000Z</time></trkpt><trkpt lat="52.519031760355844" lon="13.369218857881924"><time>2023-05-12T16:54:36.000Z</time></trkpt><trkpt lat="52.51903173087418" lon="13.369218954178088"><time>2023-05-12T16:54:37.000Z</time></trkpt><trkpt lat="52.51903166573564" lon="13.369219174004456"><time>2023-05-12T16:54:38.000Z</time></trkpt><trkpt lat="52.51903156344623" lon="13.369219458974605"><time>2023-05-12T16:54:39.000Z</time></trkpt><trkpt lat="52.519031406824894" lon="13.369219802725057"><time>2023-05-12T16:54:40.000Z</time></trkpt><trkpt lat="52.51903119313265" lon="13.369220176231408"><time>2023-05-12T16:54:41.000Z</time></trkpt><trkpt lat="52.51903092727478" lon="13.36922055240285"><time>2023-05-12T16:54:42.000Z</time></trkpt><trkpt lat="52.51903064919099" lon="13.369220928963053"><time>2023-05-12T16:54:43.000Z</time></trkpt><trkpt lat="52.51903036458338" lon="13.369221262411223"><time>2023-05-12T16:54:44.000Z</time></trkpt><trkpt lat="52.51903010437783" lon="13.369221604591267"><time>2023-05-12T16:54:45.000Z</time></trkpt><trkpt lat="52.51902988137295" lon="13.369221894784173"><time>2023-05-12T16:54:46.000Z</time></trkpt><trkpt lat="52.51902969243135" lon="13.369222115198806"><time>2023-05-12T16:54:47.000Z</time></trkpt><trkpt lat="52.519029543553934" lon="13.36922223520966"><time>2023-05-12T16:54:48.000Z</time></trkpt><trkpt lat="52.5190294306073" lon="13.369222226370363"><time>2023-05-12T16:54:49.000Z</time></trkpt><trkpt lat="52.519029354687035" lon="13.369222111658996"><time>2023-05-12T16:54:50.000Z</time></trkpt><trkpt lat="52.519029340469096" lon="13.369221890497526"><time>2023-05-12T16:54:51.000Z</time></trkpt><trkpt lat="52.51902940854584" lon="13.369221590027916"><time>2023-05-12T16:54:52.000Z</time></trkpt><trkpt lat="52.51902953446541" lon="13.369221237627436"><time>2023-05-12T16:54:53.000Z</time></trkpt><trkpt lat="52.519029685085826" lon="13.369220859640052"><time>2023-05-12T16:54:54.000Z</time></trkpt><trkpt lat="52.51902985134348" lon="13.369220471069042"><time>2023-05-12T16:54:55.000Z</time></trkpt><trkpt lat="52.51902998774597" lon="13.369220166834548"><time>2023-05-12T16:54:56.000Z</time></trkpt><trkpt lat="52.51903011672824" lon="13.369219893015828"><time>2023-05-12T16:54:57.000Z</time></trkpt><trkpt lat="52.5190302390871" lon="13.36921965606332"><time>2023-05-12T16:54:58.000Z</time></trkpt><trkpt lat="52.51903033886162" lon="13.369219439863725"><time>2023-05-12T16:54:59.000Z</time></trkpt><trkpt lat="52.51903045808307" lon="13.369219193202316"><time>2023-05-12T16:55:00.000Z</time></trkpt><trkpt lat="52.51903058288213" lon="13.369218951758548"><time>2023-05-12T16:55:01.000Z</time></trkpt><trkpt lat="52.51903068454905" lon="13.369218739221532"><time>2023-05-12T16:55:02.000Z</time></trkpt><trkpt lat="52.519030737810255" lon="13.369218564307799"><time>2023-05-12T16:55:03.000Z</time></trkpt><trkpt lat="52.519030758801" lon="13.369218423503112"><time>2023-05-12T16:55:04.000Z</time></trkpt><trkpt lat="52.51903073952837" lon="13.369218304842708"><time>2023-05-12T16:55:05.000Z</time></trkpt><trkpt lat="52.51903067802523" lon="13.369218206715255"><time>2023-05-12T16:55:06.000Z</time></trkpt><trkpt lat="52.519030620431415" lon="13.369218043331482"><time>2023-05-12T16:55:07.000Z</time></trkpt><trkpt lat="52.51903053305713" lon="13.369217902997406"><time>2023-05-12T16:55:08.000Z</time></trkpt><trkpt lat="52.51903042016029" lon="13.369217788168385"><time>2023-05-12T16:55:09.000Z</time></trkpt><trkpt lat="52.51903031635197" lon="13.369217724405745"><time>2023-05-12T16:55:10.000Z</time></trkpt><trkpt lat="52.519030189112705" lon="13.369217768146965"><time>2023-05-12T16:55:11.000Z</time></trkpt><trkpt lat="52.51903004857681" lon="13.36921786018717"><time>2023-05-12T16:55:12.000Z</time></trkpt><trkpt lat="52.519029902239204" lon="13.369217971813992"><time>2023-05-12T16:55:13.000Z</time></trkpt><trkpt lat="52.51902977793814" lon="13.369218065987292"><time>2023-05-12T16:55:14.000Z</time></trkpt><trkpt lat="52.51902968762565" lon="13.369218133325552"><time>2023-05-12T16:55:15.000Z</time></trkpt><trkpt lat="52.51902965552947" lon="13.369218199594705"><time>2023-05-12T16:55:16.000Z</time></trkpt><trkpt lat="52.51902968341753" lon="13.369218286284273"><time>2023-05-12T16:55:17.000Z</time></trkpt><trkpt lat="52.5190297644672" lon="13.369218375060894"><time>2023-05-12T16:55:18.000Z</time></trkpt><trkpt lat="52.519029856921094" lon="13.369218461540733"><time>2023-05-12T16:55:19.000Z</time></trkpt><trkpt lat="52.519029974175446" lon="13.369218516346423"><time>2023-05-12T16:55:20.000Z</time></trkpt><trkpt lat="52.5190300947166" lon="13.369218515042013"><time>2023-05-12T16:55:21.000Z</time></trkpt><trkpt lat="52.51903021580556" lon="13.369218456701628"><time>2023-05-12T16:55:22.000Z</time></trkpt><trkpt lat="52.51903033836361" lon="13.369218365909564"><time>2023-05-12T16:55:23.000Z</time></trkpt><trkpt lat="52.51903048358072" lon="13.369218221160956"><time>2023-05-12T16:55:24.000Z</time></trkpt><trkpt lat="52.51903060471948" lon="13.369218070851979"><time>2023-05-12T16:55:25.000Z</time></trkpt><trkpt lat="52.51903067536093" lon="13.369217948431803"><time>2023-05-12T16:55:26.000Z</time></trkpt><trkpt lat="52.519030698468185" lon="13.369217829556554"><time>2023-05-12T16:55:27.000Z</time></trkpt><trkpt lat="52.51903067817465" lon="13.369217693069208"><time>2023-05-12T16:55:28.000Z</time></trkpt><trkpt lat="52.51903062187562" lon="13.369217553538242"><time>2023-05-12T16:55:29.000Z</time></trkpt><trkpt lat="52.51903057105462" lon="13.369217394098392"><time>2023-05-12T16:55:30.000Z</time></trkpt><trkpt lat="52.51903050594098" lon="13.36921723883777"><time>2023-05-12T16:55:31.000Z</time></trkpt><trkpt lat="52.5190304200607" lon="13.369217111465952"><time>2023-05-12T16:55:32.000Z</time></trkpt><trkpt lat="52.51903030711406" lon="13.369217014796368"><time>2023-05-12T16:55:33.000Z</time></trkpt><trkpt lat="52.519030161174854" lon="13.369216949028516"><time>2023-05-12T16:55:34.000Z</time></trkpt><trkpt lat="52.519029961625826" lon="13.36921693671079"><time>2023-05-12T16:55:35.000Z</time></trkpt><trkpt lat="52.51902973189794" lon="13.369216950583576"><time>2023-05-12T16:55:36.000Z</time></trkpt><trkpt lat="52.51902949123893" lon="13.369216958456075"><time>2023-05-12T16:55:37.000Z</time></trkpt><trkpt lat="52.5190292407444" lon="13.369216958271922"><time>2023-05-12T16:55:38.000Z</time></trkpt><trkpt lat="52.519028957431594" lon="13.36921689168562"><time>2023-05-12T16:55:39.000Z</time></trkpt><trkpt lat="52.51902864149972" lon="13.369216838506606"><time>2023-05-12T16:55:40.000Z</time></trkpt><trkpt lat="52.51902829035918" lon="13.369216805435974"><time>2023-05-12T16:55:41.000Z</time></trkpt><trkpt lat="52.519027919223895" lon="13.369216781782667"><time>2023-05-12T16:55:42.000Z</time></trkpt><trkpt lat="52.51902754064349" lon="13.369216764871373"><time>2023-05-12T16:55:43.000Z</time></trkpt><trkpt lat="52.51902715887588" lon="13.369216756845416"><time>2023-05-12T16:55:44.000Z</time></trkpt><trkpt lat="52.51902678609718" lon="13.369216755280123"><time>2023-05-12T16:55:45.000Z</time></trkpt><trkpt lat="52.51902642549462" lon="13.369216760328959"><time>2023-05-12T16:55:46.000Z</time></trkpt><trkpt lat="52.51902607950839" lon="13.369216772590415"><time>2023-05-12T16:55:47.000Z</time></trkpt><trkpt lat="52.51902575005579" lon="13.369216793056866"><time>2023-05-12T16:55:48.000Z</time></trkpt><trkpt lat="52.51902543952723" lon="13.369216821283281"><time>2023-05-12T16:55:49.000Z</time></trkpt><trkpt lat="52.519025166971254" lon="13.369216914336322"><time>2023-05-12T16:55:50.000Z</time></trkpt><trkpt lat="52.51902492887694" lon="13.369216992544665"><time>2023-05-12T16:55:51.000Z</time></trkpt><trkpt lat="52.51902472688771" lon="13.369217049570409"><time>2023-05-12T16:55:52.000Z</time></trkpt><trkpt lat="52.51902455124273" lon="13.369217096478025"><time>2023-05-12T16:55:53.000Z</time></trkpt><trkpt lat="52.5190243961403" lon="13.369217136904512"><time>2023-05-12T16:55:54.000Z</time></trkpt><trkpt lat="52.519024266286536" lon="13.369217169934222"><time>2023-05-12T16:55:55.000Z</time></trkpt><trkpt lat="52.5190241542612" lon="13.3692171994497"><time>2023-05-12T16:55:56.000Z</time></trkpt><trkpt lat="52.519024058022495" lon="13.369217226167091"><time>2023-05-12T16:55:57.000Z</time></trkpt><trkpt lat="52.51902400301828" lon="13.369217217941634"><time>2023-05-12T16:55:58.000Z</time></trkpt><trkpt lat="52.51902398396974" lon="13.369217164517083"><time>2023-05-12T16:55:59.000Z</time></trkpt><trkpt lat="52.51902398125563" lon="13.369217065453523"><time>2023-05-12T16:56:00.000Z</time></trkpt><trkpt lat="52.51902400000537" lon="13.369216888821036"><time>2023-05-12T16:56:01.000Z</time></trkpt><trkpt lat="52.51902402311262" lon="13.36921665893792"><time>2023-05-12T16:56:02.000Z</time></trkpt><trkpt lat="52.51902413620867" lon="13.369216254790718"><time>2023-05-12T16:56:03.000Z</time></trkpt><trkpt lat="52.51902422923536" lon="13.369216544937595"><time>2023-05-12T16:56:04.000Z</time></trkpt><trkpt lat="52.51902432592227" lon="13.369216065978632"><time>2023-05-12T16:56:05.000Z</time></trkpt><trkpt lat="52.51902447108957" lon="13.369215233089703"><time>2023-05-12T16:56:06.000Z</time></trkpt><trkpt lat="52.51902439686252" lon="13.369214672372355"><time>2023-05-12T16:56:07.000Z</time></trkpt><trkpt lat="52.519025245954325" lon="13.36921278382681"><time>2023-05-12T16:56:08.000Z</time></trkpt></trkseg></trk></gpx>