<?xml version="1.0" encoding="UTF-8"?><gpx creator="Health" xsi:schemaLocation="http://www.topografix.com/GPX/1/0 http://www.topografix.com/GPX/1/0/gpx.xsd" version="1.0" xmlns="http://www.topografix.com/GPX/1/0" xmlns:xsi="http://www.w3.org/2001/XMLSchema-instance"><metadata><time>2023-08-05T09:44:39.000Z</time></metadata><trk><type>Ходьба на улице</type><extensions><totalTime>10592.0</totalTime><cumulativeDecrease>-0.10000000149011612</cumulativeDecrease><cumulativeClimb>-0.10000000149011612</cumulativeClimb><totalDistance>9650.0</totalDistance></extensions><trkseg><trkpt lat="52.55756564578418" lon="13.46648208169469"><time>2023-08-05T09:44:39.000Z</time></trkpt><trkpt lat="52.557415278814595" lon="13.466575424635222"><time>2023-08-05T09:44:55.000Z</time></trkpt><trkpt lat="52.55736045979513" lon="13.466566968782143"><time>2023-08-05T09:45:06.000Z</time></trkpt><trkpt lat="52.56412491233884" lon="13.42728583954864"><time>2023-08-05T09:59:38.000Z</time></trkpt><trkpt lat="52.56427037660105" lon="13.427295704506825"><time>2023-08-05T10:00:04.000Z</time></trkpt><trkpt lat="52.56423595375565" lon="13.42702626729356"><time>2023-08-05T10:00:26.000Z</time></trkpt><trkpt lat="52.56427917171289" lon="13.426891384356367"><time>2023-08-05T10:00:35.000Z</time></trkpt><trkpt lat="52.56497278799102" lon="13.426745881148959"><time>2023-08-05T10:01:34.000Z</time></trkpt><trkpt lat="52.565803956492125" lon="13.426928237795375"><time>2023-08-05T10:02:50.000Z</time></trkpt><trkpt lat="52.566244180698895" lon="13.426955607994568"><time>2023-08-05T10:03:23.000Z</time></trkpt><trkpt lat="52.567140849641824" lon="13.4272284671571"><time>2023-08-05T10:04:32.000Z</time></trkpt><trkpt lat="52.56745468940985" lon="13.427265163920152"><time>2023-08-05T10:04:57.000Z</time></trkpt><trkpt lat="52.56766438418394" lon="13.427390454661394"><time>2023-08-05T10:05:25.000Z</time></trkpt><trkpt lat="52.56788792978676" lon="13.42741071202559"><time>2023-08-05T10:06:18.000Z</time></trkpt><trkpt lat="52.56827005264598" lon="13.427592718352313"><time>2023-08-05T10:07:04.000Z</time></trkpt><trkpt lat="52.56918887951097" lon="13.427733523970755"><time>2023-08-05T10:08:19.000Z</time></trkpt><trkpt lat="52.5695781123064" lon="13.427880643200684"><time>2023-08-05T10:08:51.000Z</time></trkpt><trkpt lat="52.56995692109309" lon="13.42789554576712"><time>2023-08-05T10:09:20.000Z</time></trkpt><trkpt lat="52.570250420306735" lon="13.428071782690743"><time>2023-08-05T10:09:45.000Z</time></trkpt><trkpt lat="52.57052307822592" lon="13.428162667857544"><time>2023-08-05T10:10:08.000Z</time></trkpt><trkpt lat="52.57127294560806" lon="13.428319994425419"><time>2023-08-05T10:11:20.000Z</time></trkpt><trkpt lat="52.57168213410262" lon="13.428335649310641"><time>2023-08-05T10:11:52.000Z</time></trkpt><trkpt lat="52.572129169930506" lon="13.428468320438634"><time>2023-08-05T10:13:05.000Z</time></trkpt><trkpt lat="52.57264071367788" lon="13.428696420589828"><time>2023-08-05T10:13:48.000Z</time></trkpt><trkpt lat="52.57328396980452" lon="13.428782891294164"><time>2023-08-05T10:14:38.000Z</time></trkpt><trkpt lat="52.57488870623497" lon="13.429280487347391"><time>2023-08-05T10:17:15.000Z</time></trkpt><trkpt lat="52.575717231614156" lon="13.429421631901299"><time>2023-08-05T10:18:21.000Z</time></trkpt><trkpt lat="52.576736560520565" lon="13.429409696005688"><time>2023-08-05T10:19:45.000Z</time></trkpt><trkpt lat="52.57799101796168" lon="13.429170009978753"><time>2023-08-05T10:22:23.000Z</time></trkpt><trkpt lat="52.577906302802695" lon="13.429093912621527"><time>2023-08-05T10:22:42.000Z</time></trkpt><trkpt lat="52.577836900678214" lon="13.428903164356568"><time>2023-08-05T10:22:58.000Z</time></trkpt><trkpt lat="52.57762678359923" lon="13.428629364024886"><time>2023-08-05T10:24:38.000Z</time></trkpt><trkpt lat="52.5777014927965" lon="13.42846352411041"><time>2023-08-05T10:24:57.000Z</time></trkpt><trkpt lat="52.57790513160385" lon="13.428620134866378"><time>2023-08-05T10:25:15.000Z</time></trkpt><trkpt lat="52.57797552390382" lon="13.428628783163441"><time>2023-08-05T10:25:23.000Z</time></trkpt><trkpt lat="52.577820760463986" lon="13.428392223490768"><time>2023-08-05T10:25:44.000Z</time></trkpt><trkpt lat="52.577810043780055" lon="13.428277891306093"><time>2023-08-05T10:25:51.000Z</time></trkpt><trkpt lat="52.57784747886809" lon="13.428220062484728"><time>2023-08-05T10:25:58.000Z</time></trkpt><trkpt lat="52.57802647040794" lon="13.428309646256599"><time>2023-08-05T10:26:15.000Z</time></trkpt><trkpt lat="52.578551102917864" lon="13.428415486164692"><time>2023-08-05T10:26:59.000Z</time></trkpt><trkpt lat="52.57875774103618" lon="13.4285384004547"><time>2023-08-05T10:27:19.000Z</time></trkpt><trkpt lat="52.57935512233735" lon="13.42833007558366"><time>2023-08-05T10:28:04.000Z</time></trkpt><trkpt lat="52.58007238832927" lon="13.428323219941875"><time>2023-08-05T10:28:59.000Z</time></trkpt><trkpt lat="52.58035600501077" lon="13.428228446897673"><time>2023-08-05T10:29:27.000Z</time></trkpt><trkpt lat="52.58063931701519" lon="13.42819399376596"><time>2023-08-05T10:29:52.000Z</time></trkpt><trkpt lat="52.58080497258475" lon="13.428235857692927"><time>2023-08-05T10:30:05.000Z</time></trkpt><trkpt lat="52.58098456521186" lon="13.428345635716056"><time>2023-08-05T10:30:19.000Z</time></trkpt><trkpt lat="52.581497231802224" lon="13.428480899923114"><time>2023-08-05T10:31:04.000Z</time></trkpt><trkpt lat="52.58161077449938" lon="13.428601364332364"><time>2023-08-05T10:31:14.000Z</time></trkpt><trkpt lat="52.58171693258785" lon="13.42886747291322"><time>2023-08-05T10:31:59.000Z</time></trkpt><trkpt lat="52.5817887173984" lon="13.428913235332505"><time>2023-08-05T10:32:05.000Z</time></trkpt><trkpt lat="52.582391994783045" lon="13.428778395018798"><time>2023-08-05T10:32:53.000Z</time></trkpt><trkpt lat="52.58257873193256" lon="13.42881409842197"><time>2023-08-05T10:33:16.000Z</time></trkpt><trkpt lat="52.582806130967946" lon="13.428771178048066"><time>2023-08-05T10:33:36.000Z</time></trkpt><trkpt lat="52.583003338988036" lon="13.428838905621019"><time>2023-08-05T10:33:53.000Z</time></trkpt><trkpt lat="52.58330358183321" lon="13.428752493155626"><time>2023-08-05T10:34:19.000Z</time></trkpt><trkpt lat="52.583370893249665" lon="13.428807994477966"><time>2023-08-05T10:34:28.000Z</time></trkpt><trkpt lat="52.583381892399785" lon="13.42909194642686"><time>2023-08-05T10:34:52.000Z</time></trkpt><trkpt lat="52.5834125820137" lon="13.42906933271959"><time>2023-08-05T10:35:08.000Z</time></trkpt><trkpt lat="52.58341313449607" lon="13.428847537414638"><time>2023-08-05T10:35:23.000Z</time></trkpt><trkpt lat="52.583470422147236" lon="13.428781037241254"><time>2023-08-05T10:35:31.000Z</time></trkpt><trkpt lat="52.58373282826653" lon="13.42885932026128"><time>2023-08-05T10:35:53.000Z</time></trkpt><trkpt lat="52.58411600980128" lon="13.428887633309051"><time>2023-08-05T10:36:24.000Z</time></trkpt><trkpt lat="52.58420889885081" lon="13.428986792442466"><time>2023-08-05T10:36:33.000Z</time></trkpt><trkpt lat="52.584265355637015" lon="13.429399696416477"><time>2023-08-05T10:36:54.000Z</time></trkpt><trkpt lat="52.5843538463412" lon="13.429568117742457"><time>2023-08-05T10:37:08.000Z</time></trkpt><trkpt lat="52.58434418751111" lon="13.429613192632495"><time>2023-08-05T10:37:12.000Z</time></trkpt><trkpt lat="52.584144504563476" lon="13.429289422705969"><time>2023-08-05T10:37:27.000Z</time></trkpt><trkpt lat="52.58422920212337" lon="13.429759133796212"><time>2023-08-05T10:37:32.000Z</time></trkpt><trkpt lat="52.58419584295629" lon="13.429692795995274"><time>2023-08-05T10:37:33.000Z</time></trkpt><trkpt lat="52.5841027320971" lon="13.429839516506746"><time>2023-08-05T10:37:53.000Z</time></trkpt><trkpt lat="52.584040683883416" lon="13.429866123617371"><time>2023-08-05T10:38:00.000Z</time></trkpt><trkpt lat="52.58401114412514" lon="13.42983120168665"><time>2023-08-05T10:38:05.000Z</time></trkpt><trkpt lat="52.58408711168399" lon="13.429893298509615"><time>2023-08-05T10:38:16.000Z</time></trkpt><trkpt lat="52.58406894479351" lon="13.429932396076827"><time>2023-08-05T10:38:27.000Z</time></trkpt><trkpt lat="52.58415601476036" lon="13.42989442675647"><time>2023-08-05T10:38:36.000Z</time></trkpt><trkpt lat="52.58417909318841" lon="13.429931206365"><time>2023-08-05T10:38:45.000Z</time></trkpt><trkpt lat="52.584039454489215" lon="13.430000950883404"><time>2023-08-05T10:39:04.000Z</time></trkpt><trkpt lat="52.58398522220195" lon="13.430113790220329"><time>2023-08-05T10:39:21.000Z</time></trkpt><trkpt lat="52.58428037879395" lon="13.429950304139307"><time>2023-08-05T10:39:53.000Z</time></trkpt><trkpt lat="52.58440745441975" lon="13.429967660607245"><time>2023-08-05T10:40:05.000Z</time></trkpt><trkpt lat="52.584513483558055" lon="13.429888583010946"><time>2023-08-05T10:40:18.000Z</time></trkpt><trkpt lat="52.584293441753545" lon="13.429965244537193"><time>2023-08-05T10:41:12.000Z</time></trkpt><trkpt lat="52.58457566198793" lon="13.428940859977377"><time>2023-08-05T10:52:22.000Z</time></trkpt><trkpt lat="52.58478534300245" lon="13.429015841521469"><time>2023-08-05T10:52:39.000Z</time></trkpt><trkpt lat="52.58520396638148" lon="13.429038914778692"><time>2023-08-05T10:53:17.000Z</time></trkpt><trkpt lat="52.58571496400532" lon="13.429383850311792"><time>2023-08-05T10:53:59.000Z</time></trkpt><trkpt lat="52.58636503046922" lon="13.429585452166846"><time>2023-08-05T10:55:07.000Z</time></trkpt><trkpt lat="52.58660110467056" lon="13.429710637609169"><time>2023-08-05T10:55:28.000Z</time></trkpt><trkpt lat="52.58763839901496" lon="13.430070466280798"><time>2023-08-05T10:56:56.000Z</time></trkpt><trkpt lat="52.588194694208006" lon="13.430311595084726"><time>2023-08-05T10:58:00.000Z</time></trkpt><trkpt lat="52.58899859697071" lon="13.43058504428207"><time>2023-08-05T10:59:13.000Z</time></trkpt><trkpt lat="52.58970001432803" lon="13.430668805338088"><time>2023-08-05T11:00:15.000Z</time></trkpt><trkpt lat="52.58996839008558" lon="13.431289447283042"><time>2023-08-05T11:00:48.000Z</time></trkpt><trkpt lat="52.59047685573822" lon="13.43226404700957"><time>2023-08-05T11:01:58.000Z</time></trkpt><trkpt lat="52.59066525138062" lon="13.432762079683465"><time>2023-08-05T11:02:28.000Z</time></trkpt><trkpt lat="52.591576059357905" lon="13.434736799671771"><time>2023-08-05T11:04:49.000Z</time></trkpt><trkpt lat="52.591523111835734" lon="13.434665949316962"><time>2023-08-05T11:05:04.000Z</time></trkpt><trkpt lat="52.59148949118678" lon="13.434696384951666"><time>2023-08-05T11:05:25.000Z</time></trkpt><trkpt lat="52.5914833769788" lon="13.43458975593178"><time>2023-08-05T11:05:38.000Z</time></trkpt><trkpt lat="52.59142384324328" lon="13.434436240689264"><time>2023-08-05T11:05:47.000Z</time></trkpt><trkpt lat="52.59097200544017" lon="13.433634750929842"><time>2023-08-05T11:06:43.000Z</time></trkpt><trkpt lat="52.59063889198547" lon="13.43405232894118"><time>2023-08-05T11:07:21.000Z</time></trkpt><trkpt lat="52.59046988337482" lon="13.43435514740885"><time>2023-08-05T11:07:44.000Z</time></trkpt><trkpt lat="52.59006083905155" lon="13.4346860991592"><time>2023-08-05T11:08:46.000Z</time></trkpt><trkpt lat="52.58996114312442" lon="13.434698064627709"><time>2023-08-05T11:09:10.000Z</time></trkpt><trkpt lat="52.58966250492449" lon="13.434341866782939"><time>2023-08-05T11:09:45.000Z</time></trkpt><trkpt lat="52.58943007893383" lon="13.434141778953396"><time>2023-08-05T11:10:47.000Z</time></trkpt><trkpt lat="52.58870855516666" lon="13.433720439332847"><time>2023-08-05T11:12:02.000Z</time></trkpt><trkpt lat="52.588432597729" lon="13.433461860449832"><time>2023-08-05T11:12:30.000Z</time></trkpt><trkpt lat="52.58833733638919" lon="13.433184330267045"><time>2023-08-05T11:12:47.000Z</time></trkpt><trkpt lat="52.58834278524287" lon="13.432708552651938"><time>2023-08-05T11:14:01.000Z</time></trkpt><trkpt lat="52.588268832783136" lon="13.432542994238235"><time>2023-08-05T11:14:15.000Z</time></trkpt><trkpt lat="52.58812241030077" lon="13.432343273766257"><time>2023-08-05T11:14:37.000Z</time></trkpt><trkpt lat="52.58700532518129" lon="13.431779253617206"><time>2023-08-05T11:16:29.000Z</time></trkpt><trkpt lat="52.58662208513142" lon="13.43163167075802"><time>2023-08-05T11:17:07.000Z</time></trkpt><trkpt lat="52.586220146660736" lon="13.43139278098826"><time>2023-08-05T11:17:46.000Z</time></trkpt><trkpt lat="52.5860741020491" lon="13.431349366564332"><time>2023-08-05T11:18:00.000Z</time></trkpt><trkpt lat="52.585959452868316" lon="13.431408857433018"><time>2023-08-05T11:18:18.000Z</time></trkpt><trkpt lat="52.58592544445078" lon="13.43138267043691"><time>2023-08-05T11:19:53.000Z</time></trkpt><trkpt lat="52.585908855238785" lon="13.431420706509027"><time>2023-08-05T11:21:42.000Z</time></trkpt><trkpt lat="52.58593721839097" lon="13.43136632589943"><time>2023-08-05T11:22:30.000Z</time></trkpt><trkpt lat="52.58591939169614" lon="13.431313176012146"><time>2023-08-05T11:22:37.000Z</time></trkpt><trkpt lat="52.58560716968454" lon="13.431111293512204"><time>2023-08-05T11:23:10.000Z</time></trkpt><trkpt lat="52.58419578264834" lon="13.430649094378246"><time>2023-08-05T11:25:22.000Z</time></trkpt><trkpt lat="52.58391145726155" lon="13.430468962228566"><time>2023-08-05T11:25:51.000Z</time></trkpt><trkpt lat="52.58383255073709" lon="13.430366112862043"><time>2023-08-05T11:26:16.000Z</time></trkpt><trkpt lat="52.583332671170474" lon="13.43023035637234"><time>2023-08-05T11:27:12.000Z</time></trkpt><trkpt lat="52.583148722079905" lon="13.430025042707518"><time>2023-08-05T11:27:31.000Z</time></trkpt><trkpt lat="52.58312012342305" lon="13.429871779405465"><time>2023-08-05T11:27:40.000Z</time></trkpt><trkpt lat="52.58309480798752" lon="13.428889518683247"><time>2023-08-05T11:28:37.000Z</time></trkpt><trkpt lat="52.582972201621324" lon="13.428915818535701"><time>2023-08-05T11:28:54.000Z</time></trkpt><trkpt lat="52.58289426868895" lon="13.428871013767509"><time>2023-08-05T11:29:09.000Z</time></trkpt><trkpt lat="52.582940128012666" lon="13.428047076295474"><time>2023-08-05T11:30:04.000Z</time></trkpt><trkpt lat="52.582871241418886" lon="13.427641553097438"><time>2023-08-05T11:30:26.000Z</time></trkpt><trkpt lat="52.582785457051635" lon="13.427383852242734"><time>2023-08-05T11:30:43.000Z</time></trkpt><trkpt lat="52.58273047429873" lon="13.426857840274483"><time>2023-08-05T11:31:10.000Z</time></trkpt><trkpt lat="52.58265454153781" lon="13.426597482592472"><time>2023-08-05T11:31:28.000Z</time></trkpt><trkpt lat="52.582492669332076" lon="13.426271792665405"><time>2023-08-05T11:31:51.000Z</time></trkpt><trkpt lat="52.58239581644312" lon="13.425856717152216"><time>2023-08-05T11:32:15.000Z</time></trkpt><trkpt lat="52.58229205359034" lon="13.424863404254635"><time>2023-08-05T11:33:08.000Z</time></trkpt><trkpt lat="52.582126789150806" lon="13.424447209563903"><time>2023-08-05T11:33:37.000Z</time></trkpt><trkpt lat="52.58187584995407" lon="13.423154557210045"><time>2023-08-05T11:34:52.000Z</time></trkpt><trkpt lat="52.58177060415373" lon="13.422802786913264"><time>2023-08-05T11:35:14.000Z</time></trkpt><trkpt lat="52.581717528894345" lon="13.42224929439426"><time>2023-08-05T11:36:40.000Z</time></trkpt><trkpt lat="52.581740168329546" lon="13.422213969741875"><time>2023-08-05T11:38:11.000Z</time></trkpt><trkpt lat="52.58162428315466" lon="13.421746499348844"><time>2023-08-05T11:39:01.000Z</time></trkpt><trkpt lat="52.581641095081324" lon="13.42163513550205"><time>2023-08-05T11:39:44.000Z</time></trkpt><trkpt lat="52.581501619807824" lon="13.421275210854867"><time>2023-08-05T11:40:07.000Z</time></trkpt><trkpt lat="52.581369438972956" lon="13.420749176373027"><time>2023-08-05T11:41:01.000Z</time></trkpt><trkpt lat="52.58136774230513" lon="13.420569854923126"><time>2023-08-05T11:41:19.000Z</time></trkpt><trkpt lat="52.581186550826935" lon="13.419584381235035"><time>2023-08-05T11:42:07.000Z</time></trkpt><trkpt lat="52.581065247745066" lon="13.419037104010322"><time>2023-08-05T11:42:52.000Z</time></trkpt><trkpt lat="52.58085395253252" lon="13.418291966584206"><time>2023-08-05T11:43:33.000Z</time></trkpt><trkpt lat="52.58068770473389" lon="13.417271162390845"><time>2023-08-05T11:44:36.000Z</time></trkpt><trkpt lat="52.58047708217757" lon="13.41649047923756"><time>2023-08-05T11:45:23.000Z</time></trkpt><trkpt lat="52.58024171320801" lon="13.415331177339196"><time>2023-08-05T11:46:29.000Z</time></trkpt><trkpt lat="52.580213799140694" lon="13.414951997959934"><time>2023-08-05T11:46:54.000Z</time></trkpt><trkpt lat="52.580156178389075" lon="13.414818317996152"><time>2023-08-05T11:47:04.000Z</time></trkpt><trkpt lat="52.58001275095975" lon="13.414632474179616"><time>2023-08-05T11:47:18.000Z</time></trkpt><trkpt lat="52.57986189975398" lon="13.41446776181714"><time>2023-08-05T11:47:31.000Z</time></trkpt><trkpt lat="52.579774408251566" lon="13.414431550528986"><time>2023-08-05T11:47:39.000Z</time></trkpt><trkpt lat="52.57942963889534" lon="13.414722401073647"><time>2023-08-05T11:48:30.000Z</time></trkpt><trkpt lat="52.57947559149466" lon="13.414769475043409"><time>2023-08-05T11:49:10.000Z</time></trkpt><trkpt lat="52.579450236530306" lon="13.414942103694877"><time>2023-08-05T11:49:19.000Z</time></trkpt><trkpt lat="52.5794930480751" lon="13.414809836360389"><time>2023-08-05T11:49:29.000Z</time></trkpt><trkpt lat="52.579535110302615" lon="13.41512606518043"><time>2023-08-05T11:49:54.000Z</time></trkpt><trkpt lat="52.579513889020966" lon="13.415221252594149"><time>2023-08-05T11:51:09.000Z</time></trkpt><trkpt lat="52.579614729180214" lon="13.415147788371753"><time>2023-08-05T11:56:23.000Z</time></trkpt><trkpt lat="52.57962220499778" lon="13.415206458138051"><time>2023-08-05T11:57:34.000Z</time></trkpt><trkpt lat="52.579468578873396" lon="13.414732607456662"><time>2023-08-05T12:23:30.000Z</time></trkpt><trkpt lat="52.57965397734695" lon="13.414399227540464"><time>2023-08-05T12:23:57.000Z</time></trkpt><trkpt lat="52.5797300025836" lon="13.414173782192067"><time>2023-08-05T12:24:13.000Z</time></trkpt><trkpt lat="52.57977699657781" lon="13.413946352439185"><time>2023-08-05T12:24:25.000Z</time></trkpt><trkpt lat="52.57979278906283" lon="13.413653779167534"><time>2023-08-05T12:24:39.000Z</time></trkpt><trkpt lat="52.57976267691692" lon="13.413317736174521"><time>2023-08-05T12:24:58.000Z</time></trkpt><trkpt lat="52.57966615336542" lon="13.413085260903195"><time>2023-08-05T12:25:15.000Z</time></trkpt><trkpt lat="52.57959757122456" lon="13.412793883394306"><time>2023-08-05T12:25:32.000Z</time></trkpt><trkpt lat="52.57960873636859" lon="13.412365129032098"><time>2023-08-05T12:25:57.000Z</time></trkpt><trkpt lat="52.579504621801014" lon="13.411728902396254"><time>2023-08-05T12:26:30.000Z</time></trkpt><trkpt lat="52.57931528842964" lon="13.411130879051655"><time>2023-08-05T12:27:06.000Z</time></trkpt><trkpt lat="52.57923603048762" lon="13.410762653024214"><time>2023-08-05T12:27:28.000Z</time></trkpt><trkpt lat="52.57914125283466" lon="13.41018857327963"><time>2023-08-05T12:28:00.000Z</time></trkpt><trkpt lat="52.579104281118816" lon="13.40965861702764"><time>2023-08-05T12:28:38.000Z</time></trkpt><trkpt lat="52.57906912698145" lon="13.409720009115022"><time>2023-08-05T12:28:53.000Z</time></trkpt><trkpt lat="52.5789319816989" lon="13.40971560276601"><time>2023-08-05T12:29:09.000Z</time></trkpt><trkpt lat="52.578282816115795" lon="13.409302815902949"><time>2023-08-05T12:30:11.000Z</time></trkpt><trkpt lat="52.57792759491261" lon="13.409233162816493"><time>2023-08-05T12:30:45.000Z</time></trkpt><trkpt lat="52.577478978379595" lon="13.409007155178479"><time>2023-08-05T12:31:24.000Z</time></trkpt><trkpt lat="52.57724158467466" lon="13.408638037251912"><time>2023-08-05T12:33:22.000Z</time></trkpt><trkpt lat="52.577097634194864" lon="13.408494994707956"><time>2023-08-05T12:34:20.000Z</time></trkpt><trkpt lat="52.57690158547143" lon="13.40837945823169"><time>2023-08-05T12:34:54.000Z</time></trkpt><trkpt lat="52.576763004824926" lon="13.408134380638632"><time>2023-08-05T12:35:11.000Z</time></trkpt><trkpt lat="52.57633500506257" lon="13.407922584316964"><time>2023-08-05T12:35:47.000Z</time></trkpt><trkpt lat="52.57620573340043" lon="13.407805315400465"><time>2023-08-05T12:36:02.000Z</time></trkpt><trkpt lat="52.57612580071991" lon="13.407643640490791"><time>2023-08-05T12:36:15.000Z</time></trkpt><trkpt lat="52.57607459231702" lon="13.40741092197871"><time>2023-08-05T12:36:31.000Z</time></trkpt><trkpt lat="52.57579249189935" lon="13.40684827358083"><time>2023-08-05T12:37:04.000Z</time></trkpt><trkpt lat="52.57579541299925" lon="13.406755245817466"><time>2023-08-05T12:37:09.000Z</time></trkpt><trkpt lat="52.5758320959812" lon="13.406682899117595"><time>2023-08-05T12:37:14.000Z</time></trkpt><trkpt lat="52.576165208987724" lon="13.406378644320728"><time>2023-08-05T12:37:46.000Z</time></trkpt><trkpt lat="52.576262621928656" lon="13.406359178132034"><time>2023-08-05T12:37:56.000Z</time></trkpt><trkpt lat="52.57631732134382" lon="13.406407290050634"><time>2023-08-05T12:38:11.000Z</time></trkpt><trkpt lat="52.57635673396915" lon="13.406343760351337"><time>2023-08-05T12:38:28.000Z</time></trkpt><trkpt lat="52.57679658177428" lon="13.406154267623856"><time>2023-08-05T12:39:19.000Z</time></trkpt><trkpt lat="52.577040716944424" lon="13.40595370096509"><time>2023-08-05T12:39:44.000Z</time></trkpt><trkpt lat="52.577180564978725" lon="13.405969053879803"><time>2023-08-05T12:40:04.000Z</time></trkpt><trkpt lat="52.57733087343804" lon="13.405851796948975"><time>2023-08-05T12:40:23.000Z</time></trkpt><trkpt lat="52.57755560154435" lon="13.4058121324833"><time>2023-08-05T12:41:13.000Z</time></trkpt><trkpt lat="52.577759120283645" lon="13.405682434149469"><time>2023-08-05T12:41:59.000Z</time></trkpt><trkpt lat="52.577838231212645" lon="13.405685926914513"><time>2023-08-05T12:42:12.000Z</time></trkpt><trkpt lat="52.57794753816183" lon="13.405545492624553"><time>2023-08-05T12:42:27.000Z</time></trkpt><trkpt lat="52.57821686376301" lon="13.405448510474043"><time>2023-08-05T12:42:47.000Z</time></trkpt><trkpt lat="52.578436247278404" lon="13.405297214593652"><time>2023-08-05T12:43:06.000Z</time></trkpt><trkpt lat="52.57850663218929" lon="13.40537834686502"><time>2023-08-05T12:43:13.000Z</time></trkpt><trkpt lat="52.57864396712662" lon="13.405752798052209"><time>2023-08-05T12:43:35.000Z</time></trkpt><trkpt lat="52.578837396993215" lon="13.405765569603831"><time>2023-08-05T12:44:02.000Z</time></trkpt><trkpt lat="52.57892455720356" lon="13.40588314406249"><time>2023-08-05T12:44:13.000Z</time></trkpt><trkpt lat="52.57898932987443" lon="13.406107936057401"><time>2023-08-05T12:44:27.000Z</time></trkpt><trkpt lat="52.57906246816624" lon="13.40667523401076"><time>2023-08-05T12:46:16.000Z</time></trkpt><trkpt lat="52.57918002310869" lon="13.407149652822966"><time>2023-08-05T12:47:29.000Z</time></trkpt><trkpt lat="52.57920310782454" lon="13.407421480219233"><time>2023-08-05T12:47:55.000Z</time></trkpt><trkpt lat="52.57912257732653" lon="13.407429458633294"><time>2023-08-05T12:48:07.000Z</time></trkpt><trkpt lat="52.57868990306469" lon="13.407694116002245"><time>2023-08-05T12:48:48.000Z</time></trkpt><trkpt lat="52.57862946599574" lon="13.407906291316664"><time>2023-08-05T12:51:17.000Z</time></trkpt><trkpt lat="52.57865842665271" lon="13.407810707759626"><time>2023-08-05T12:52:08.000Z</time></trkpt><trkpt lat="52.57861559733858" lon="13.40776900370323"><time>2023-08-05T12:52:16.000Z</time></trkpt><trkpt lat="52.578334364099504" lon="13.407898834350567"><time>2023-08-05T12:52:43.000Z</time></trkpt><trkpt lat="52.57827962571575" lon="13.407884827640721"><time>2023-08-05T12:52:48.000Z</time></trkpt><trkpt lat="52.57823677794758" lon="13.407813496812706"><time>2023-08-05T12:52:54.000Z</time></trkpt><trkpt lat="52.57808920717441" lon="13.407290298982538"><time>2023-08-05T12:53:30.000Z</time></trkpt><trkpt lat="52.57797922691537" lon="13.40676211735061"><time>2023-08-05T12:54:16.000Z</time></trkpt><trkpt lat="52.57788474698903" lon="13.40670885405635"><time>2023-08-05T12:54:36.000Z</time></trkpt><trkpt lat="52.577955640800994" lon="13.406635188134727"><time>2023-08-05T12:54:52.000Z</time></trkpt><trkpt lat="52.57796626711018" lon="13.406545042728203"><time>2023-08-05T12:54:59.000Z</time></trkpt><trkpt lat="52.57782690679423" lon="13.406130337703202"><time>2023-08-05T12:57:15.000Z</time></trkpt><trkpt lat="52.577850677339626" lon="13.406014163894637"><time>2023-08-05T12:57:26.000Z</time></trkpt><trkpt lat="52.5779941043155" lon="13.40582468774374"><time>2023-08-05T12:57:43.000Z</time></trkpt><trkpt lat="52.577995967643254" lon="13.405650740152133"><time>2023-08-05T12:57:56.000Z</time></trkpt><trkpt lat="52.57805765817546" lon="13.405546004978255"><time>2023-08-05T12:58:08.000Z</time></trkpt><trkpt lat="52.57809633130191" lon="13.40531233198348"><time>2023-08-05T12:58:23.000Z</time></trkpt><trkpt lat="52.57809118522667" lon="13.404883373334348"><time>2023-08-05T12:58:48.000Z</time></trkpt><trkpt lat="52.57795319991478" lon="13.404420316283508"><time>2023-08-05T12:59:13.000Z</time></trkpt><trkpt lat="52.57797567144601" lon="13.404181388405588"><time>2023-08-05T12:59:26.000Z</time></trkpt><trkpt lat="52.5780214203061" lon="13.404132645371583"><time>2023-08-05T12:59:39.000Z</time></trkpt><trkpt lat="52.57797307342663" lon="13.40408203643964"><time>2023-08-05T12:59:51.000Z</time></trkpt><trkpt lat="52.57796236911801" lon="13.404010001191578"><time>2023-08-05T13:00:01.000Z</time></trkpt><trkpt lat="52.57798168073219" lon="13.404294351526762"><time>2023-08-05T13:00:20.000Z</time></trkpt><trkpt lat="52.57817561402108" lon="13.405310059916632"><time>2023-08-05T13:01:22.000Z</time></trkpt><trkpt lat="52.57830874578275" lon="13.405509845830228"><time>2023-08-05T13:01:48.000Z</time></trkpt><trkpt lat="52.57823756159378" lon="13.405610930454781"><time>2023-08-05T13:05:33.000Z</time></trkpt><trkpt lat="52.57806763193989" lon="13.405715207041236"><time>2023-08-05T13:05:55.000Z</time></trkpt><trkpt lat="52.57799521963715" lon="13.405650358923465"><time>2023-08-05T13:06:13.000Z</time></trkpt><trkpt lat="52.57800289125317" lon="13.405716430098424"><time>2023-08-05T13:06:23.000Z</time></trkpt><trkpt lat="52.57806306034624" lon="13.405897834313487"><time>2023-08-05T13:06:36.000Z</time></trkpt><trkpt lat="52.578146361732344" lon="13.406017257366914"><time>2023-08-05T13:06:47.000Z</time></trkpt><trkpt lat="52.57836565224913" lon="13.40599357189186"><time>2023-08-05T13:10:14.000Z</time></trkpt><trkpt lat="52.57813185987286" lon="13.405991785275196"><time>2023-08-05T14:02:34.000Z</time></trkpt><trkpt lat="52.578054062016484" lon="13.405777147946868"><time>2023-08-05T14:02:52.000Z</time></trkpt><trkpt lat="52.57795586373099" lon="13.405711759470405"><time>2023-08-05T14:03:03.000Z</time></trkpt><trkpt lat="52.57727175997179" lon="13.406088803625225"><time>2023-08-05T14:04:14.000Z</time></trkpt><trkpt lat="52.57707421086454" lon="13.406106727260237"><time>2023-08-05T14:04:31.000Z</time></trkpt><trkpt lat="52.57685826443415" lon="13.406205080302316"><time>2023-08-05T14:04:52.000Z</time></trkpt><trkpt lat="52.57680724807297" lon="13.406270947302914"><time>2023-08-05T14:05:09.000Z</time></trkpt><trkpt lat="52.57637141510256" lon="13.406500851067763"><time>2023-08-05T14:05:58.000Z</time></trkpt><trkpt lat="52.576092219898555" lon="13.406878306917957"><time>2023-08-05T14:06:39.000Z</time></trkpt><trkpt lat="52.57595539948659" lon="13.407000076434969"><time>2023-08-05T14:07:08.000Z</time></trkpt><trkpt lat="52.57571039582751" lon="13.40748720549726"><time>2023-08-05T14:07:55.000Z</time></trkpt><trkpt lat="52.575310823434535" lon="13.407914145519277"><time>2023-08-05T14:09:21.000Z</time></trkpt><trkpt lat="52.57450530914043" lon="13.408020126121698"><time>2023-08-05T14:10:26.000Z</time></trkpt><trkpt lat="52.57426812978761" lon="13.40798959693164"><time>2023-08-05T14:10:48.000Z</time></trkpt><trkpt lat="52.57386554391555" lon="13.407840815386656"><time>2023-08-05T14:11:24.000Z</time></trkpt><trkpt lat="52.57373867732463" lon="13.407847212078178"><time>2023-08-05T14:11:34.000Z</time></trkpt><trkpt lat="52.573460639749015" lon="13.407976329583011"><time>2023-08-05T14:12:00.000Z</time></trkpt><trkpt lat="52.573028190471696" lon="13.408283597760652"><time>2023-08-05T14:12:41.000Z</time></trkpt><trkpt lat="52.57268068159922" lon="13.408358125581403"><time>2023-08-05T14:13:09.000Z</time></trkpt><trkpt lat="52.57207189453009" lon="13.408716409534868"><time>2023-08-05T14:14:06.000Z</time></trkpt><trkpt lat="52.57177689424165" lon="13.40875112465607"><time>2023-08-05T14:14:58.000Z</time></trkpt><trkpt lat="52.57153411807903" lon="13.408858946479784"><time>2023-08-05T14:15:20.000Z</time></trkpt><trkpt lat="52.57125685922765" lon="13.408827572637735"><time>2023-08-05T14:15:41.000Z</time></trkpt><trkpt lat="52.57110295035762" lon="13.40888900377352"><time>2023-08-05T14:15:55.000Z</time></trkpt><trkpt lat="52.570994730793814" lon="13.408846651934565"><time>2023-08-05T14:16:24.000Z</time></trkpt><trkpt lat="52.57034055964339" lon="13.406848752989847"><time>2023-08-05T14:18:34.000Z</time></trkpt><trkpt lat="52.57031184629686" lon="13.406816722241205"><time>2023-08-05T14:18:55.000Z</time></trkpt><trkpt lat="52.570194864254994" lon="13.406945918019808"><time>2023-08-05T14:19:17.000Z</time></trkpt><trkpt lat="52.57014052347526" lon="13.406894331017531"><time>2023-08-05T14:19:25.000Z</time></trkpt><trkpt lat="52.56968339600459" lon="13.405445543216956"><time>2023-08-05T14:20:48.000Z</time></trkpt><trkpt lat="52.56961129028216" lon="13.405050197739643"><time>2023-08-05T14:21:09.000Z</time></trkpt><trkpt lat="52.569485020748665" lon="13.404821947804361"><time>2023-08-05T14:21:34.000Z</time></trkpt></trkseg></trk></gpx>