<?xml version="1.0" encoding="UTF-8"?><gpx creator="Health" xsi:schemaLocation="http://www.topografix.com/GPX/1/0 http://www.topografix.com/GPX/1/0/gpx.xsd" version="1.0" xmlns="http://www.topografix.com/GPX/1/0" xmlns:xsi="http://www.w3.org/2001/XMLSchema-instance"><metadata><time>2023-08-03T09:02:34.000Z</time></metadata><trk><type>Ходьба на улице</type><extensions><totalTime>6838.0</totalTime><cumulativeDecrease>-0.10000000149011612</cumulativeDecrease><cumulativeClimb>-0.10000000149011612</cumulativeClimb><totalDistance>5170.0</totalDistance></extensions><trkseg><trkpt lat="52.5889269001485" lon="13.28626819771966"><time>2023-08-03T09:02:34.000Z</time></trkpt><trkpt lat="52.58886216339927" lon="13.286070766535385"><time>2023-08-03T09:02:44.000Z</time></trkpt><trkpt lat="52.58890336337333" lon="13.28581082731114"><time>2023-08-03T09:02:58.000Z</time></trkpt><trkpt lat="52.58883903187695" lon="13.285412049902153"><time>2023-08-03T09:03:22.000Z</time></trkpt><trkpt lat="52.58884980625043" lon="13.285172125018276"><time>2023-08-03T09:03:35.000Z</time></trkpt><trkpt lat="52.58880025956659" lon="13.28504779321117"><time>2023-08-03T09:03:42.000Z</time></trkpt><trkpt lat="52.588714773969606" lon="13.284982335601882"><time>2023-08-03T09:03:56.000Z</time></trkpt><trkpt lat="52.588683865770584" lon="13.284859781624398"><time>2023-08-03T09:04:18.000Z</time></trkpt><trkpt lat="52.58881884430698" lon="13.284343917196969"><time>2023-08-03T09:04:49.000Z</time></trkpt><trkpt lat="52.58925265179189" lon="13.283712816545636"><time>2023-08-03T09:06:08.000Z</time></trkpt><trkpt lat="52.589013579256545" lon="13.283944881864517"><time>2023-08-03T09:07:05.000Z</time></trkpt><trkpt lat="52.58895891230461" lon="13.284087183730014"><time>2023-08-03T09:07:16.000Z</time></trkpt><trkpt lat="52.589027191025764" lon="13.284159331110725"><time>2023-08-03T09:07:39.000Z</time></trkpt><trkpt lat="52.589002287662865" lon="13.284132679270941"><time>2023-08-03T09:07:45.000Z</time></trkpt><trkpt lat="52.58901412454223" lon="13.28488060043334"><time>2023-08-03T09:08:46.000Z</time></trkpt><trkpt lat="52.5890449388879" lon="13.28488545261664"><time>2023-08-03T09:08:48.000Z</time></trkpt><trkpt lat="52.58904646048695" lon="13.284955705724707"><time>2023-08-03T09:08:50.000Z</time></trkpt><trkpt lat="52.58907937123304" lon="13.284818890790927"><time>2023-08-03T09:09:19.000Z</time></trkpt><trkpt lat="52.5890753103103" lon="13.284878329581494"><time>2023-08-03T09:09:38.000Z</time></trkpt><trkpt lat="52.589107345243356" lon="13.284916368638875"><time>2023-08-03T09:09:45.000Z</time></trkpt><trkpt lat="52.5891538775758" lon="13.284942930453482"><time>2023-08-03T09:09:51.000Z</time></trkpt><trkpt lat="52.589178860201876" lon="13.284903163389297"><time>2023-08-03T09:09:55.000Z</time></trkpt><trkpt lat="52.589104338328895" lon="13.284373427489397"><time>2023-08-03T09:14:27.000Z</time></trkpt><trkpt lat="52.5891080270785" lon="13.284010692317713"><time>2023-08-03T09:14:40.000Z</time></trkpt><trkpt lat="52.589082450211706" lon="13.283911776018659"><time>2023-08-03T09:14:53.000Z</time></trkpt><trkpt lat="52.58902109643368" lon="13.28388776207088"><time>2023-08-03T09:15:08.000Z</time></trkpt><trkpt lat="52.5892964292158" lon="13.28362153510401"><time>2023-08-03T09:15:35.000Z</time></trkpt><trkpt lat="52.58940811304307" lon="13.283558790176937"><time>2023-08-03T09:15:43.000Z</time></trkpt><trkpt lat="52.58952282077323" lon="13.283598321088515"><time>2023-08-03T09:15:50.000Z</time></trkpt><trkpt lat="52.58965905078626" lon="13.283823256007368"><time>2023-08-03T09:16:07.000Z</time></trkpt><trkpt lat="52.58969397032467" lon="13.283976406625545"><time>2023-08-03T09:16:27.000Z</time></trkpt><trkpt lat="52.589677598627055" lon="13.283825873183229"><time>2023-08-03T09:16:58.000Z</time></trkpt><trkpt lat="52.5897373543092" lon="13.28366111620796"><time>2023-08-03T09:17:14.000Z</time></trkpt><trkpt lat="52.589638182805146" lon="13.282795649458883"><time>2023-08-03T09:17:56.000Z</time></trkpt><trkpt lat="52.58967425630539" lon="13.282602303268288"><time>2023-08-03T09:18:15.000Z</time></trkpt><trkpt lat="52.589437763938825" lon="13.282023544819731"><time>2023-08-03T09:19:00.000Z</time></trkpt><trkpt lat="52.58930560936569" lon="13.281295036556436"><time>2023-08-03T09:19:37.000Z</time></trkpt><trkpt lat="52.58922863552341" lon="13.281055004840859"><time>2023-08-03T09:19:51.000Z</time></trkpt><trkpt lat="52.58921574517611" lon="13.280971028394555"><time>2023-08-03T09:20:19.000Z</time></trkpt><trkpt lat="52.58925443688739" lon="13.28097672318114"><time>2023-08-03T09:20:33.000Z</time></trkpt><trkpt lat="52.58927741021305" lon="13.28092610981225"><time>2023-08-03T09:20:37.000Z</time></trkpt><trkpt lat="52.58929654504461" lon="13.280988394994083"><time>2023-08-03T09:21:01.000Z</time></trkpt><trkpt lat="52.58931281289138" lon="13.280932027050305"><time>2023-08-03T09:21:05.000Z</time></trkpt><trkpt lat="52.58924623332532" lon="13.280762466200585"><time>2023-08-03T09:21:21.000Z</time></trkpt><trkpt lat="52.58934169618164" lon="13.280813657560424"><time>2023-08-03T09:21:30.000Z</time></trkpt><trkpt lat="52.58922181722441" lon="13.280760890342743"><time>2023-08-03T09:22:02.000Z</time></trkpt><trkpt lat="52.58901973315069" lon="13.28038106784906"><time>2023-08-03T09:22:31.000Z</time></trkpt><trkpt lat="52.588843298295345" lon="13.279549717663052"><time>2023-08-03T09:23:31.000Z</time></trkpt><trkpt lat="52.5886535026817" lon="13.279128359406796"><time>2023-08-03T09:23:56.000Z</time></trkpt><trkpt lat="52.588465087380705" lon="13.278575926374288"><time>2023-08-03T09:24:28.000Z</time></trkpt><trkpt lat="52.58838677042725" lon="13.278220434051262"><time>2023-08-03T09:24:49.000Z</time></trkpt><trkpt lat="52.58830933766845" lon="13.278167243499041"><time>2023-08-03T09:25:15.000Z</time></trkpt><trkpt lat="52.58826384573254" lon="13.27790911112337"><time>2023-08-03T09:25:33.000Z</time></trkpt><trkpt lat="52.588193234324564" lon="13.277777703969804"><time>2023-08-03T09:25:56.000Z</time></trkpt><trkpt lat="52.58811844235954" lon="13.276946584697269"><time>2023-08-03T09:27:48.000Z</time></trkpt><trkpt lat="52.588166732513535" lon="13.276626905817704"><time>2023-08-03T09:28:04.000Z</time></trkpt><trkpt lat="52.58815032172287" lon="13.276311495401176"><time>2023-08-03T09:28:32.000Z</time></trkpt><trkpt lat="52.58819646526825" lon="13.275996575138175"><time>2023-08-03T09:29:01.000Z</time></trkpt><trkpt lat="52.588168533011476" lon="13.275548257494979"><time>2023-08-03T09:29:19.000Z</time></trkpt><trkpt lat="52.58820575015559" lon="13.275195233174305"><time>2023-08-03T09:29:34.000Z</time></trkpt><trkpt lat="52.588216782142666" lon="13.274605509659454"><time>2023-08-03T09:30:06.000Z</time></trkpt><trkpt lat="52.588058852530345" lon="13.273942225457544"><time>2023-08-03T09:30:45.000Z</time></trkpt><trkpt lat="52.587932516273504" lon="13.273766287108492"><time>2023-08-03T09:31:06.000Z</time></trkpt><trkpt lat="52.587929808466875" lon="13.273715320053459"><time>2023-08-03T09:31:52.000Z</time></trkpt><trkpt lat="52.58782369818766" lon="13.273680470150738"><time>2023-08-03T09:32:55.000Z</time></trkpt><trkpt lat="52.587778459016086" lon="13.273608522413593"><time>2023-08-03T09:33:51.000Z</time></trkpt><trkpt lat="52.58800607031555" lon="13.273473987241834"><time>2023-08-03T09:36:57.000Z</time></trkpt><trkpt lat="52.588520855926326" lon="13.272846521112553"><time>2023-08-03T09:38:08.000Z</time></trkpt><trkpt lat="52.588586436586816" lon="13.272812524501381"><time>2023-08-03T09:38:25.000Z</time></trkpt><trkpt lat="52.588627784263736" lon="13.27272139623719"><time>2023-08-03T09:38:34.000Z</time></trkpt><trkpt lat="52.58860828722354" lon="13.27268965268724"><time>2023-08-03T09:39:52.000Z</time></trkpt><trkpt lat="52.58868092039134" lon="13.272612479561097"><time>2023-08-03T09:40:22.000Z</time></trkpt><trkpt lat="52.588727630151475" lon="13.272483812921877"><time>2023-08-03T09:40:48.000Z</time></trkpt><trkpt lat="52.58888931729379" lon="13.272257468313557"><time>2023-08-03T09:41:22.000Z</time></trkpt><trkpt lat="52.58891688609074" lon="13.272286263565674"><time>2023-08-03T09:42:12.000Z</time></trkpt><trkpt lat="52.58894574786648" lon="13.27221056032089"><time>2023-08-03T09:42:41.000Z</time></trkpt><trkpt lat="52.589254241730096" lon="13.272465364525495"><time>2023-08-03T09:43:15.000Z</time></trkpt><trkpt lat="52.589319116153476" lon="13.272451736298148"><time>2023-08-03T09:43:23.000Z</time></trkpt><trkpt lat="52.58961405693074" lon="13.271730620684567"><time>2023-08-03T09:44:30.000Z</time></trkpt><trkpt lat="52.5898542211525" lon="13.271311266142737"><time>2023-08-03T09:45:56.000Z</time></trkpt><trkpt lat="52.58991499186041" lon="13.27115939140103"><time>2023-08-03T09:46:19.000Z</time></trkpt><trkpt lat="52.589913696285755" lon="13.27108097673048"><time>2023-08-03T09:46:32.000Z</time></trkpt><trkpt lat="52.59004367179769" lon="13.270869017042907"><time>2023-08-03T09:47:03.000Z</time></trkpt><trkpt lat="52.59007616239508" lon="13.270719468090084"><time>2023-08-03T09:47:20.000Z</time></trkpt><trkpt lat="52.59002321065234" lon="13.270632391431276"><time>2023-08-03T09:47:37.000Z</time></trkpt><trkpt lat="52.59015288147479" lon="13.270645137787197"><time>2023-08-03T09:48:12.000Z</time></trkpt><trkpt lat="52.59002534750019" lon="13.270647992834194"><time>2023-08-03T09:48:32.000Z</time></trkpt><trkpt lat="52.58990614175914" lon="13.270544826417268"><time>2023-08-03T09:48:44.000Z</time></trkpt><trkpt lat="52.58955485466469" lon="13.269923490118277"><time>2023-08-03T09:49:23.000Z</time></trkpt><trkpt lat="52.58950573992051" lon="13.269771478999406"><time>2023-08-03T09:49:39.000Z</time></trkpt><trkpt lat="52.589483387815335" lon="13.26930609560059"><time>2023-08-03T09:50:02.000Z</time></trkpt><trkpt lat="52.589533752255825" lon="13.269207414034987"><time>2023-08-03T09:50:24.000Z</time></trkpt><trkpt lat="52.58954809131231" lon="13.268503683455101"><time>2023-08-03T09:51:02.000Z</time></trkpt><trkpt lat="52.589359201864504" lon="13.26750006814205"><time>2023-08-03T09:51:52.000Z</time></trkpt><trkpt lat="52.589329954922285" lon="13.267105046706616"><time>2023-08-03T09:52:12.000Z</time></trkpt><trkpt lat="52.589354470281734" lon="13.26689898658609"><time>2023-08-03T09:52:26.000Z</time></trkpt><trkpt lat="52.58951712169728" lon="13.266551444400681"><time>2023-08-03T09:52:53.000Z</time></trkpt><trkpt lat="52.589546237827044" lon="13.266353061524939"><time>2023-08-03T09:53:22.000Z</time></trkpt><trkpt lat="52.5896238557091" lon="13.266328139656268"><time>2023-08-03T10:00:12.000Z</time></trkpt><trkpt lat="52.58965588348688" lon="13.266441855604587"><time>2023-08-03T10:04:11.000Z</time></trkpt><trkpt lat="52.589852885179106" lon="13.266720820741716"><time>2023-08-03T10:04:36.000Z</time></trkpt><trkpt lat="52.589973989055856" lon="13.266965826658208"><time>2023-08-03T10:04:51.000Z</time></trkpt><trkpt lat="52.59017936498119" lon="13.267156710348473"><time>2023-08-03T10:05:09.000Z</time></trkpt><trkpt lat="52.59051929951591" lon="13.267391900426423"><time>2023-08-03T10:05:38.000Z</time></trkpt><trkpt lat="52.5908431703449" lon="13.267420755734657"><time>2023-08-03T10:06:06.000Z</time></trkpt><trkpt lat="52.591806596429095" lon="13.266799872519169"><time>2023-08-03T10:07:37.000Z</time></trkpt><trkpt lat="52.59238026619425" lon="13.266166889324984"><time>2023-08-03T10:08:33.000Z</time></trkpt><trkpt lat="52.59261775941225" lon="13.26577597955988"><time>2023-08-03T10:09:13.000Z</time></trkpt><trkpt lat="52.59271806641161" lon="13.265693482854836"><time>2023-08-03T10:09:31.000Z</time></trkpt><trkpt lat="52.592919072436786" lon="13.265281857403"><time>2023-08-03T10:10:00.000Z</time></trkpt><trkpt lat="52.59319818305531" lon="13.264496310218446"><time>2023-08-03T10:10:41.000Z</time></trkpt><trkpt lat="52.593326964659475" lon="13.2642771843714"><time>2023-08-03T10:10:57.000Z</time></trkpt><trkpt lat="52.593378610357064" lon="13.264300272769908"><time>2023-08-03T10:11:04.000Z</time></trkpt><trkpt lat="52.593391900386784" lon="13.264405944485407"><time>2023-08-03T10:11:11.000Z</time></trkpt><trkpt lat="52.5932824049442" lon="13.264714810244127"><time>2023-08-03T10:11:36.000Z</time></trkpt><trkpt lat="52.59339762846964" lon="13.2643518984734"><time>2023-08-03T10:12:03.000Z</time></trkpt><trkpt lat="52.593450730521525" lon="13.26430653211076"><time>2023-08-03T10:12:10.000Z</time></trkpt><trkpt lat="52.5936395415466" lon="13.264687509970232"><time>2023-08-03T10:12:36.000Z</time></trkpt><trkpt lat="52.59371611406459" lon="13.264960659860584"><time>2023-08-03T10:13:36.000Z</time></trkpt><trkpt lat="52.59366770756508" lon="13.264842420320683"><time>2023-08-03T10:13:51.000Z</time></trkpt><trkpt lat="52.5936113619078" lon="13.264799884735133"><time>2023-08-03T10:14:11.000Z</time></trkpt><trkpt lat="52.59343891253313" lon="13.264249635156359"><time>2023-08-03T10:15:29.000Z</time></trkpt><trkpt lat="52.59348424360223" lon="13.263826373029701"><time>2023-08-03T10:15:48.000Z</time></trkpt><trkpt lat="52.59359072576489" lon="13.26359250689451"><time>2023-08-03T10:16:01.000Z</time></trkpt><trkpt lat="52.593685327763744" lon="13.263244857465974"><time>2023-08-03T10:16:19.000Z</time></trkpt><trkpt lat="52.593671439485384" lon="13.262948853957477"><time>2023-08-03T10:16:41.000Z</time></trkpt><trkpt lat="52.59357380032748" lon="13.262730966555546"><time>2023-08-03T10:17:25.000Z</time></trkpt><trkpt lat="52.592784499229694" lon="13.261744491138057"><time>2023-08-03T10:18:40.000Z</time></trkpt><trkpt lat="52.592575314657694" lon="13.261175998511742"><time>2023-08-03T10:19:09.000Z</time></trkpt><trkpt lat="52.592411087728664" lon="13.260863510026434"><time>2023-08-03T10:19:30.000Z</time></trkpt><trkpt lat="52.59230868240188" lon="13.260584742898459"><time>2023-08-03T10:19:47.000Z</time></trkpt><trkpt lat="52.59215844726073" lon="13.260432692855801"><time>2023-08-03T10:20:05.000Z</time></trkpt><trkpt lat="52.59195431358974" lon="13.260428173162289"><time>2023-08-03T10:20:43.000Z</time></trkpt><trkpt lat="52.59206751582849" lon="13.260314631073927"><time>2023-08-03T10:21:09.000Z</time></trkpt><trkpt lat="52.59203839379737" lon="13.26017800388646"><time>2023-08-03T10:21:38.000Z</time></trkpt><trkpt lat="52.591897850553615" lon="13.260136663935736"><time>2023-08-03T10:22:01.000Z</time></trkpt><trkpt lat="52.59204239389126" lon="13.260233136130351"><time>2023-08-03T10:22:35.000Z</time></trkpt><trkpt lat="52.59179772313346" lon="13.26028992824154"><time>2023-08-03T10:23:34.000Z</time></trkpt><trkpt lat="52.59191046311512" lon="13.260354645483424"><time>2023-08-03T10:24:09.000Z</time></trkpt><trkpt lat="52.59212903031341" lon="13.260255307478598"><time>2023-08-03T10:24:32.000Z</time></trkpt><trkpt lat="52.59235067920447" lon="13.260406703542225"><time>2023-08-03T10:24:48.000Z</time></trkpt><trkpt lat="52.59266091648265" lon="13.261066516413406"><time>2023-08-03T10:25:25.000Z</time></trkpt><trkpt lat="52.59276370280519" lon="13.26138735735364"><time>2023-08-03T10:25:42.000Z</time></trkpt><trkpt lat="52.59304949779311" lon="13.261912008834049"><time>2023-08-03T10:26:25.000Z</time></trkpt><trkpt lat="52.593186717377826" lon="13.262124591898784"><time>2023-08-03T10:26:41.000Z</time></trkpt><trkpt lat="52.59330589010139" lon="13.26222606218019"><time>2023-08-03T10:26:52.000Z</time></trkpt><trkpt lat="52.59347851970264" lon="13.262510383867339"><time>2023-08-03T10:27:14.000Z</time></trkpt><trkpt lat="52.593604442481954" lon="13.262546176083127"><time>2023-08-03T10:27:33.000Z</time></trkpt><trkpt lat="52.59350769324282" lon="13.261702286729188"><time>2023-08-03T10:28:28.000Z</time></trkpt><trkpt lat="52.59376115395565" lon="13.261024475120763"><time>2023-08-03T10:29:12.000Z</time></trkpt><trkpt lat="52.59394167322578" lon="13.260673087258532"><time>2023-08-03T10:29:36.000Z</time></trkpt><trkpt lat="52.59418458651609" lon="13.260399778759636"><time>2023-08-03T10:30:19.000Z</time></trkpt><trkpt lat="52.59421571578401" lon="13.260321176485744"><time>2023-08-03T10:30:42.000Z</time></trkpt><trkpt lat="52.59431067415867" lon="13.260259806454838"><time>2023-08-03T10:31:01.000Z</time></trkpt><trkpt lat="52.59467369906954" lon="13.259559587056668"><time>2023-08-03T10:31:52.000Z</time></trkpt><trkpt lat="52.59497203788858" lon="13.259217611143585"><time>2023-08-03T10:32:22.000Z</time></trkpt><trkpt lat="52.59509250865194" lon="13.25898339284152"><time>2023-08-03T10:32:41.000Z</time></trkpt><trkpt lat="52.595626352650065" lon="13.258250791971136"><time>2023-08-03T10:33:42.000Z</time></trkpt><trkpt lat="52.595997260861665" lon="13.257616391811416"><time>2023-08-03T10:34:21.000Z</time></trkpt><trkpt lat="52.596066838431916" lon="13.257573891157335"><time>2023-08-03T10:34:27.000Z</time></trkpt><trkpt lat="52.59616432472841" lon="13.257608976007775"><time>2023-08-03T10:34:34.000Z</time></trkpt><trkpt lat="52.59677261710815" lon="13.258028193846464"><time>2023-08-03T10:35:25.000Z</time></trkpt><trkpt lat="52.59697521900261" lon="13.258407284254655"><time>2023-08-03T10:35:54.000Z</time></trkpt><trkpt lat="52.59710816367155" lon="13.258491948501337"><time>2023-08-03T10:36:32.000Z</time></trkpt><trkpt lat="52.597239838861064" lon="13.258354652716026"><time>2023-08-03T10:36:55.000Z</time></trkpt><trkpt lat="52.597529326975035" lon="13.25756745940272"><time>2023-08-03T10:38:38.000Z</time></trkpt><trkpt lat="52.59756432975123" lon="13.257545911610617"><time>2023-08-03T10:39:22.000Z</time></trkpt><trkpt lat="52.597686534330165" lon="13.257614267418154"><time>2023-08-03T10:39:41.000Z</time></trkpt><trkpt lat="52.598121680507326" lon="13.258178381403662"><time>2023-08-03T10:40:37.000Z</time></trkpt><trkpt lat="52.598318172526426" lon="13.25855866870191"><time>2023-08-03T10:41:00.000Z</time></trkpt><trkpt lat="52.59858532280296" lon="13.258960305051824"><time>2023-08-03T10:41:23.000Z</time></trkpt><trkpt lat="52.59896808756064" lon="13.259843072410508"><time>2023-08-03T10:42:39.000Z</time></trkpt><trkpt lat="52.59894735408345" lon="13.260133660639404"><time>2023-08-03T10:42:56.000Z</time></trkpt><trkpt lat="52.59897798568025" lon="13.260349677662067"><time>2023-08-03T10:43:52.000Z</time></trkpt><trkpt lat="52.598904097363054" lon="13.260881807471794"><time>2023-08-03T10:44:19.000Z</time></trkpt><trkpt lat="52.59869031766059" lon="13.261736281801804"><time>2023-08-03T10:45:17.000Z</time></trkpt><trkpt lat="52.59847041687774" lon="13.262792273433696"><time>2023-08-03T10:46:58.000Z</time></trkpt><trkpt lat="52.598522990251695" lon="13.26381386722951"><time>2023-08-03T10:48:04.000Z</time></trkpt><trkpt lat="52.598414081304966" lon="13.264511678746981"><time>2023-08-03T10:48:42.000Z</time></trkpt><trkpt lat="52.59837534553779" lon="13.264520937075549"><time>2023-08-03T10:48:55.000Z</time></trkpt><trkpt lat="52.59834927035183" lon="13.26460965893097"><time>2023-08-03T10:49:01.000Z</time></trkpt><trkpt lat="52.59831652175253" lon="13.264996077157582"><time>2023-08-03T10:49:15.000Z</time></trkpt><trkpt lat="52.59816122363388" lon="13.265828761331342"><time>2023-08-03T10:49:50.000Z</time></trkpt><trkpt lat="52.59807978835966" lon="13.265916325729178"><time>2023-08-03T10:50:05.000Z</time></trkpt><trkpt lat="52.59807964496022" lon="13.26583262720896"><time>2023-08-03T10:52:04.000Z</time></trkpt><trkpt lat="52.59812703733042" lon="13.265831745471191"><time>2023-08-03T10:52:50.000Z</time></trkpt><trkpt lat="52.59812725117204" lon="13.265866157387366"><time>2023-08-03T10:53:20.000Z</time></trkpt><trkpt lat="52.598192495585245" lon="13.265825678036046"><time>2023-08-03T10:55:48.000Z</time></trkpt></trkseg></trk></gpx>