<?xml version="1.0" encoding="UTF-8"?><gpx creator="Health" xsi:schemaLocation="http://www.topografix.com/GPX/1/0 http://www.topografix.com/GPX/1/0/gpx.xsd" version="1.0" xmlns="http://www.topografix.com/GPX/1/0" xmlns:xsi="http://www.w3.org/2001/XMLSchema-instance"><metadata><time>2023-05-16T15:15:23.000Z</time></metadata><trk><type>Ходьба на улице</type><extensions><totalTime>2209.0</totalTime><cumulativeDecrease>-0.10000000149011612</cumulativeDecrease><cumulativeClimb>-0.10000000149011612</cumulativeClimb><totalDistance>3230.0</totalDistance></extensions><trkseg><trkpt lat="52.49934375502224" lon="13.446326428376917"><time>2023-05-16T15:15:23.000Z</time></trkpt><trkpt lat="52.499289752826165" lon="13.446229901426337"><time>2023-05-16T15:15:29.000Z</time></trkpt><trkpt lat="52.49916323080694" lon="13.445776317756204"><time>2023-05-16T15:15:49.000Z</time></trkpt><trkpt lat="52.499243786558175" lon="13.445482154172469"><time>2023-05-16T15:16:01.000Z</time></trkpt><trkpt lat="52.49954781161592" lon="13.444867798721411"><time>2023-05-16T15:16:38.000Z</time></trkpt><trkpt lat="52.499619674958126" lon="13.444483228505431"><time>2023-05-16T15:16:52.000Z</time></trkpt><trkpt lat="52.49968836597756" lon="13.444315393930886"><time>2023-05-16T15:17:01.000Z</time></trkpt><trkpt lat="52.499956160819984" lon="13.443922934089898"><time>2023-05-16T15:17:27.000Z</time></trkpt><trkpt lat="52.50020814334137" lon="13.443929844929107"><time>2023-05-16T15:17:50.000Z</time></trkpt><trkpt lat="52.50048077613021" lon="13.44427633167568"><time>2023-05-16T15:18:08.000Z</time></trkpt><trkpt lat="52.50084663533318" lon="13.444613062140656"><time>2023-05-16T15:18:33.000Z</time></trkpt><trkpt lat="52.50165985441329" lon="13.445613566040993"><time>2023-05-16T15:19:48.000Z</time></trkpt><trkpt lat="52.50182177564722" lon="13.445738411054755"><time>2023-05-16T15:20:02.000Z</time></trkpt><trkpt lat="52.50191841409691" lon="13.445980094961861"><time>2023-05-16T15:20:18.000Z</time></trkpt><trkpt lat="52.50206119226979" lon="13.446091990726616"><time>2023-05-16T15:20:35.000Z</time></trkpt><trkpt lat="52.50218187470852" lon="13.4463401344649"><time>2023-05-16T15:20:45.000Z</time></trkpt><trkpt lat="52.50240597052777" lon="13.446641299492251"><time>2023-05-16T15:21:00.000Z</time></trkpt><trkpt lat="52.50251300024258" lon="13.446853426312368"><time>2023-05-16T15:21:41.000Z</time></trkpt><trkpt lat="52.50309419586197" lon="13.447101220876332"><time>2023-05-16T15:22:28.000Z</time></trkpt><trkpt lat="52.503623962314606" lon="13.447509174133671"><time>2023-05-16T15:23:12.000Z</time></trkpt><trkpt lat="52.50416335923621" lon="13.447790412321526"><time>2023-05-16T15:23:50.000Z</time></trkpt><trkpt lat="52.504938533637635" lon="13.448444911107034"><time>2023-05-16T15:24:53.000Z</time></trkpt><trkpt lat="52.505268884879676" lon="13.448640325241474"><time>2023-05-16T15:25:19.000Z</time></trkpt><trkpt lat="52.50543248753948" lon="13.44888409499366"><time>2023-05-16T15:25:30.000Z</time></trkpt><trkpt lat="52.505461760688995" lon="13.449278485646083"><time>2023-05-16T15:25:44.000Z</time></trkpt><trkpt lat="52.50562182480226" lon="13.44942535920375"><time>2023-05-16T15:25:56.000Z</time></trkpt><trkpt lat="52.522499721698686" lon="13.401853438404357"><time>2023-05-16T15:40:50.000Z</time></trkpt><trkpt lat="52.522466858828224" lon="13.401786398588866"><time>2023-05-16T15:40:58.000Z</time></trkpt><trkpt lat="52.52298332648965" lon="13.401559319203267"><time>2023-05-16T15:41:34.000Z</time></trkpt><trkpt lat="52.52299053714286" lon="13.401528025192512"><time>2023-05-16T15:41:35.000Z</time></trkpt><trkpt lat="52.522941127240394" lon="13.401506524094463"><time>2023-05-16T15:41:36.000Z</time></trkpt><trkpt lat="52.52273741491338" lon="13.401230735996906"><time>2023-05-16T15:41:48.000Z</time></trkpt><trkpt lat="52.52253284696057" lon="13.400672646167202"><time>2023-05-16T15:42:18.000Z</time></trkpt><trkpt lat="52.52252404973146" lon="13.400562490766998"><time>2023-05-16T15:42:25.000Z</time></trkpt><trkpt lat="52.52257664989784" lon="13.400382603873977"><time>2023-05-16T15:42:36.000Z</time></trkpt><trkpt lat="52.522564526370275" lon="13.400211853073916"><time>2023-05-16T15:42:47.000Z</time></trkpt><trkpt lat="52.522805689150324" lon="13.399822153757542"><time>2023-05-16T15:43:22.000Z</time></trkpt><trkpt lat="52.52294173867722" lon="13.399242869443418"><time>2023-05-16T15:43:51.000Z</time></trkpt><trkpt lat="52.52305348741623" lon="13.39837349660708"><time>2023-05-16T15:44:31.000Z</time></trkpt><trkpt lat="52.52316670623375" lon="13.397902866860251"><time>2023-05-16T15:44:57.000Z</time></trkpt><trkpt lat="52.52332878008961" lon="13.397450102537844"><time>2023-05-16T15:45:23.000Z</time></trkpt><trkpt lat="52.52344274678542" lon="13.396785751572981"><time>2023-05-16T15:45:58.000Z</time></trkpt><trkpt lat="52.52360490313574" lon="13.396161813569318"><time>2023-05-16T15:46:32.000Z</time></trkpt><trkpt lat="52.52390978646995" lon="13.395580312721517"><time>2023-05-16T15:47:08.000Z</time></trkpt><trkpt lat="52.52414885656785" lon="13.395251915229975"><time>2023-05-16T15:47:35.000Z</time></trkpt><trkpt lat="52.524317661315536" lon="13.394910253730274"><time>2023-05-16T15:47:56.000Z</time></trkpt><trkpt lat="52.52450284555457" lon="13.394648794260439"><time>2023-05-16T15:48:12.000Z</time></trkpt><trkpt lat="52.52461166235244" lon="13.393782303770983"><time>2023-05-16T15:48:56.000Z</time></trkpt><trkpt lat="52.52480135344497" lon="13.393247696519824"><time>2023-05-16T15:49:27.000Z</time></trkpt><trkpt lat="52.524919736799546" lon="13.392722123010582"><time>2023-05-16T15:50:02.000Z</time></trkpt><trkpt lat="52.52504313229822" lon="13.392627647753189"><time>2023-05-16T15:50:19.000Z</time></trkpt><trkpt lat="52.525119144415605" lon="13.392493938600017"><time>2023-05-16T15:50:29.000Z</time></trkpt><trkpt lat="52.52512031631168" lon="13.391789494655818"><time>2023-05-16T15:51:01.000Z</time></trkpt><trkpt lat="52.52517693812299" lon="13.391403428691639"><time>2023-05-16T15:51:20.000Z</time></trkpt><trkpt lat="52.525268163736925" lon="13.391101538958798"><time>2023-05-16T15:51:36.000Z</time></trkpt><trkpt lat="52.52548939951122" lon="13.390086333498653"><time>2023-05-16T15:52:27.000Z</time></trkpt><trkpt lat="52.525670522968674" lon="13.389727713488002"><time>2023-05-16T15:52:49.000Z</time></trkpt><trkpt lat="52.525779516326594" lon="13.389393235348098"><time>2023-05-16T15:53:08.000Z</time></trkpt><trkpt lat="52.52587416217443" lon="13.388958315072625"><time>2023-05-16T15:53:30.000Z</time></trkpt><trkpt lat="52.525982630190995" lon="13.388149887506893"><time>2023-05-16T15:54:06.000Z</time></trkpt><trkpt lat="52.52620878203252" lon="13.387710416669348"><time>2023-05-16T15:54:36.000Z</time></trkpt><trkpt lat="52.52629231857241" lon="13.387396156801906"><time>2023-05-16T15:54:53.000Z</time></trkpt><trkpt lat="52.52654794062246" lon="13.387082649127303"><time>2023-05-16T15:55:16.000Z</time></trkpt><trkpt lat="52.52678865249597" lon="13.38699857402047"><time>2023-05-16T15:55:33.000Z</time></trkpt><trkpt lat="52.52701504083823" lon="13.387166548831603"><time>2023-05-16T15:55:49.000Z</time></trkpt><trkpt lat="52.52720991783985" lon="13.387249851528878"><time>2023-05-16T15:56:21.000Z</time></trkpt><trkpt lat="52.5272920203359" lon="13.387252206571826"><time>2023-05-16T15:56:27.000Z</time></trkpt><trkpt lat="52.527365007047095" lon="13.38719513322368"><time>2023-05-16T15:56:34.000Z</time></trkpt><trkpt lat="52.527487347231705" lon="13.386993354096797"><time>2023-05-16T15:56:47.000Z</time></trkpt><trkpt lat="52.527586104875084" lon="13.386478154137171"><time>2023-05-16T15:57:06.000Z</time></trkpt><trkpt lat="52.52781236281574" lon="13.386070148041897"><time>2023-05-16T15:57:30.000Z</time></trkpt><trkpt lat="52.52790447729932" lon="13.385986359161217"><time>2023-05-16T15:57:38.000Z</time></trkpt><trkpt lat="52.52844012497014" lon="13.385762923919476"><time>2023-05-16T15:58:17.000Z</time></trkpt><trkpt lat="52.528785811606944" lon="13.385434392850273"><time>2023-05-16T15:58:47.000Z</time></trkpt><trkpt lat="52.52909418541496" lon="13.384914694793816"><time>2023-05-16T15:59:21.000Z</time></trkpt><trkpt lat="52.52920650895572" lon="13.384586567322318"><time>2023-05-16T15:59:36.000Z</time></trkpt><trkpt lat="52.529368633349165" lon="13.384392595858934"><time>2023-05-16T15:59:53.000Z</time></trkpt><trkpt lat="52.529720932195026" lon="13.383805433961964"><time>2023-05-16T16:00:35.000Z</time></trkpt><trkpt lat="52.529931332661505" lon="13.383519222866356"><time>2023-05-16T16:00:56.000Z</time></trkpt><trkpt lat="52.53031258503979" lon="13.383119420502169"><time>2023-05-16T16:01:30.000Z</time></trkpt><trkpt lat="52.53056785888752" lon="13.38300453683696"><time>2023-05-16T16:01:48.000Z</time></trkpt><trkpt lat="52.530724696900144" lon="13.382855853521402"><time>2023-05-16T16:02:02.000Z</time></trkpt><trkpt lat="52.53078349075553" lon="13.382744511710479"><time>2023-05-16T16:02:09.000Z</time></trkpt><trkpt lat="52.53085965249736" lon="13.382447276201558"><time>2023-05-16T16:02:23.000Z</time></trkpt><trkpt lat="52.531017701001176" lon="13.382281819394843"><time>2023-05-16T16:02:37.000Z</time></trkpt><trkpt lat="52.53112964347154" lon="13.382095773784988"><time>2023-05-16T16:02:49.000Z</time></trkpt><trkpt lat="52.531511353960965" lon="13.38174519495319"><time>2023-05-16T16:03:24.000Z</time></trkpt><trkpt lat="52.531751445648865" lon="13.381203874258127"><time>2023-05-16T16:03:52.000Z</time></trkpt><trkpt lat="52.531935653899176" lon="13.381074585649804"><time>2023-05-16T16:04:07.000Z</time></trkpt><trkpt lat="52.53224849871091" lon="13.380553509991852"><time>2023-05-16T16:04:41.000Z</time></trkpt><trkpt lat="52.532582163403" lon="13.380181877126871"><time>2023-05-16T16:05:11.000Z</time></trkpt><trkpt lat="52.53284712167808" lon="13.37996967575018"><time>2023-05-16T16:05:33.000Z</time></trkpt><trkpt lat="52.53306616604852" lon="13.379664732188076"><time>2023-05-16T16:05:56.000Z</time></trkpt><trkpt lat="52.53312713821029" lon="13.379657430924707"><time>2023-05-16T16:06:01.000Z</time></trkpt><trkpt lat="52.53318994271717" lon="13.37971674791923"><time>2023-05-16T16:06:07.000Z</time></trkpt><trkpt lat="52.53324376637261" lon="13.379861890526385"><time>2023-05-16T16:06:21.000Z</time></trkpt><trkpt lat="52.53325629959298" lon="13.380004396814606"><time>2023-05-16T16:06:36.000Z</time></trkpt></trkseg></trk></gpx>