<?xml version="1.0" encoding="UTF-8"?><gpx creator="Health" xsi:schemaLocation="http://www.topografix.com/GPX/1/0 http://www.topografix.com/GPX/1/0/gpx.xsd" version="1.0" xmlns="http://www.topografix.com/GPX/1/0" xmlns:xsi="http://www.w3.org/2001/XMLSchema-instance"><metadata><time>2023-05-12T06:46:12.000Z</time></metadata><trk><type>Ходьба на улице</type><extensions><totalTime>2114.0</totalTime><cumulativeDecrease>-0.10000000149011612</cumulativeDecrease><cumulativeClimb>-0.10000000149011612</cumulativeClimb><totalDistance>2520.0</totalDistance></extensions><trkseg><trkpt lat="52.53283309686965" lon="13.380069464469772"><time>2023-05-12T06:46:12.000Z</time></trkpt><trkpt lat="52.53285566415255" lon="13.380198950494053"><time>2023-05-12T06:46:16.000Z</time></trkpt><trkpt lat="52.53281787861542" lon="13.380324616709014"><time>2023-05-12T06:46:21.000Z</time></trkpt><trkpt lat="52.53263124677556" lon="13.380337300986755"><time>2023-05-12T06:46:34.000Z</time></trkpt><trkpt lat="52.53251223341693" lon="13.380420639301041"><time>2023-05-12T06:46:45.000Z</time></trkpt><trkpt lat="52.53226845654612" lon="13.380885778824723"><time>2023-05-12T06:47:13.000Z</time></trkpt><trkpt lat="52.53195040452952" lon="13.381090799234606"><time>2023-05-12T06:47:41.000Z</time></trkpt><trkpt lat="52.53163629457728" lon="13.381420970463353"><time>2023-05-12T06:48:13.000Z</time></trkpt><trkpt lat="52.53149079335951" lon="13.381729100005247"><time>2023-05-12T06:48:56.000Z</time></trkpt><trkpt lat="52.531393562139165" lon="13.381775212283161"><time>2023-05-12T06:49:07.000Z</time></trkpt><trkpt lat="52.531295284182846" lon="13.381902452516014"><time>2023-05-12T06:49:19.000Z</time></trkpt><trkpt lat="52.53122011059961" lon="13.382178157740514"><time>2023-05-12T06:49:32.000Z</time></trkpt><trkpt lat="52.53112980891458" lon="13.382341968689248"><time>2023-05-12T06:49:41.000Z</time></trkpt><trkpt lat="52.53103741820225" lon="13.382419535142839"><time>2023-05-12T06:49:48.000Z</time></trkpt><trkpt lat="52.53079360518898" lon="13.382508299558623"><time>2023-05-12T06:50:04.000Z</time></trkpt><trkpt lat="52.53055103511167" lon="13.38287552610339"><time>2023-05-12T06:50:30.000Z</time></trkpt><trkpt lat="52.53074103039576" lon="13.383366779947888"><time>2023-05-12T06:50:58.000Z</time></trkpt><trkpt lat="52.5307465340037" lon="13.383540324440053"><time>2023-05-12T06:51:11.000Z</time></trkpt><trkpt lat="52.530682319825836" lon="13.38383141418978"><time>2023-05-12T06:51:24.000Z</time></trkpt><trkpt lat="52.53069624834698" lon="13.38415782416513"><time>2023-05-12T06:51:40.000Z</time></trkpt><trkpt lat="52.530872904686724" lon="13.384576017975162"><time>2023-05-12T06:52:04.000Z</time></trkpt><trkpt lat="52.53094009348518" lon="13.384995005302786"><time>2023-05-12T06:52:23.000Z</time></trkpt><trkpt lat="52.531042468935816" lon="13.385164189033167"><time>2023-05-12T06:52:40.000Z</time></trkpt><trkpt lat="52.53128487498406" lon="13.385834352379389"><time>2023-05-12T06:53:07.000Z</time></trkpt><trkpt lat="52.531391549552524" lon="13.386029954701458"><time>2023-05-12T06:53:47.000Z</time></trkpt><trkpt lat="52.53144582699274" lon="13.386297028843906"><time>2023-05-12T06:54:11.000Z</time></trkpt><trkpt lat="52.531543303939266" lon="13.386427624222836"><time>2023-05-12T06:54:31.000Z</time></trkpt><trkpt lat="52.531414002104476" lon="13.386536522371205"><time>2023-05-12T06:55:07.000Z</time></trkpt><trkpt lat="52.53147629243149" lon="13.38682144547144"><time>2023-05-12T06:55:59.000Z</time></trkpt><trkpt lat="52.53136743666506" lon="13.387072150021094"><time>2023-05-12T06:56:13.000Z</time></trkpt><trkpt lat="52.53126728889533" lon="13.38764174819742"><time>2023-05-12T06:56:39.000Z</time></trkpt><trkpt lat="52.53113490693647" lon="13.3878437336157"><time>2023-05-12T06:56:57.000Z</time></trkpt><trkpt lat="52.53115027360259" lon="13.38787312755557"><time>2023-05-12T06:58:53.000Z</time></trkpt><trkpt lat="52.531068692090365" lon="13.387909280628888"><time>2023-05-12T06:59:44.000Z</time></trkpt><trkpt lat="52.531018595485754" lon="13.388005016306984"><time>2023-05-12T06:59:51.000Z</time></trkpt><trkpt lat="52.5309689806987" lon="13.388693081873036"><time>2023-05-12T07:00:23.000Z</time></trkpt><trkpt lat="52.53064760417104" lon="13.388971171221778"><time>2023-05-12T07:00:51.000Z</time></trkpt><trkpt lat="52.53037184389898" lon="13.389032044558975"><time>2023-05-12T07:01:06.000Z</time></trkpt><trkpt lat="52.530060144206466" lon="13.389239490192013"><time>2023-05-12T07:01:32.000Z</time></trkpt><trkpt lat="52.529872220980316" lon="13.38928985871765"><time>2023-05-12T07:01:47.000Z</time></trkpt><trkpt lat="52.529803192244565" lon="13.389542783737191"><time>2023-05-12T07:02:01.000Z</time></trkpt><trkpt lat="52.52966340445596" lon="13.389716065156158"><time>2023-05-12T07:02:16.000Z</time></trkpt><trkpt lat="52.5293480793189" lon="13.389820577560842"><time>2023-05-12T07:02:34.000Z</time></trkpt><trkpt lat="52.529074047788235" lon="13.390213527522093"><time>2023-05-12T07:03:01.000Z</time></trkpt><trkpt lat="52.52889980375471" lon="13.390360334764464"><time>2023-05-12T07:03:19.000Z</time></trkpt><trkpt lat="52.528755586607765" lon="13.390392859100835"><time>2023-05-12T07:03:32.000Z</time></trkpt><trkpt lat="52.52863217563372" lon="13.390587800257164"><time>2023-05-12T07:03:45.000Z</time></trkpt><trkpt lat="52.528387191197446" lon="13.390832662517425"><time>2023-05-12T07:04:06.000Z</time></trkpt><trkpt lat="52.52821248971263" lon="13.390947301035874"><time>2023-05-12T07:04:20.000Z</time></trkpt><trkpt lat="52.528120158249955" lon="13.391169608879109"><time>2023-05-12T07:04:35.000Z</time></trkpt><trkpt lat="52.52811738010127" lon="13.39131930412193"><time>2023-05-12T07:04:41.000Z</time></trkpt><trkpt lat="52.528234810667776" lon="13.392181201962433"><time>2023-05-12T07:05:17.000Z</time></trkpt><trkpt lat="52.5281961792816" lon="13.392291451073838"><time>2023-05-12T07:05:23.000Z</time></trkpt><trkpt lat="52.52803808202349" lon="13.392437298596452"><time>2023-05-12T07:05:54.000Z</time></trkpt><trkpt lat="52.52810713895856" lon="13.39262481106263"><time>2023-05-12T07:06:12.000Z</time></trkpt><trkpt lat="52.52822456222935" lon="13.39278893177707"><time>2023-05-12T07:06:24.000Z</time></trkpt><trkpt lat="52.52857235339373" lon="13.393482609372633"><time>2023-05-12T07:07:04.000Z</time></trkpt><trkpt lat="52.52883515803833" lon="13.394585234086946"><time>2023-05-12T07:08:05.000Z</time></trkpt><trkpt lat="52.529150218145496" lon="13.395436509233313"><time>2023-05-12T07:08:40.000Z</time></trkpt><trkpt lat="52.529255755525426" lon="13.396169969089378"><time>2023-05-12T07:09:14.000Z</time></trkpt><trkpt lat="52.52936290508421" lon="13.396430605512604"><time>2023-05-12T07:09:29.000Z</time></trkpt><trkpt lat="52.52951607063787" lon="13.397142195775757"><time>2023-05-12T07:10:00.000Z</time></trkpt><trkpt lat="52.52949710493991" lon="13.397544135593664"><time>2023-05-12T07:10:17.000Z</time></trkpt><trkpt lat="52.5294602312609" lon="13.397605479233238"><time>2023-05-12T07:10:21.000Z</time></trkpt><trkpt lat="52.529371476553905" lon="13.397624970381338"><time>2023-05-12T07:10:26.000Z</time></trkpt><trkpt lat="52.52902204656767" lon="13.397524563237557"><time>2023-05-12T07:10:46.000Z</time></trkpt><trkpt lat="52.52884658395047" lon="13.397811551247674"><time>2023-05-12T07:11:00.000Z</time></trkpt><trkpt lat="52.52862229750886" lon="13.39784422903606"><time>2023-05-12T07:11:16.000Z</time></trkpt><trkpt lat="52.52846332513839" lon="13.397980925513965"><time>2023-05-12T07:11:31.000Z</time></trkpt><trkpt lat="52.52815391883724" lon="13.398139984726912"><time>2023-05-12T07:12:01.000Z</time></trkpt><trkpt lat="52.52808188851218" lon="13.398237610169224"><time>2023-05-12T07:12:45.000Z</time></trkpt><trkpt lat="52.528069037196516" lon="13.398321613051287"><time>2023-05-12T07:13:19.000Z</time></trkpt><trkpt lat="52.52802696706322" lon="13.398314398064251"><time>2023-05-12T07:13:36.000Z</time></trkpt><trkpt lat="52.528004782494946" lon="13.398399039545692"><time>2023-05-12T07:14:45.000Z</time></trkpt><trkpt lat="52.527849203529854" lon="13.398230832676017"><time>2023-05-12T07:15:01.000Z</time></trkpt><trkpt lat="52.52756053015693" lon="13.398067868095985"><time>2023-05-12T07:15:19.000Z</time></trkpt><trkpt lat="52.527379532298454" lon="13.398105367518783"><time>2023-05-12T07:15:36.000Z</time></trkpt><trkpt lat="52.52730324229645" lon="13.398166537986505"><time>2023-05-12T07:15:43.000Z</time></trkpt><trkpt lat="52.52728437063356" lon="13.398315339430455"><time>2023-05-12T07:15:52.000Z</time></trkpt><trkpt lat="52.52743071158692" lon="13.39872103843873"><time>2023-05-12T07:16:13.000Z</time></trkpt><trkpt lat="52.52742752292664" lon="13.399237044973075"><time>2023-05-12T07:16:35.000Z</time></trkpt><trkpt lat="52.52710049883896" lon="13.400297070789234"><time>2023-05-12T07:17:28.000Z</time></trkpt><trkpt lat="52.52652337529333" lon="13.401962310166573"><time>2023-05-12T07:18:55.000Z</time></trkpt><trkpt lat="52.526438307412675" lon="13.402407566837326"><time>2023-05-12T07:19:15.000Z</time></trkpt><trkpt lat="52.52609571320059" lon="13.403183373139848"><time>2023-05-12T07:19:53.000Z</time></trkpt><trkpt lat="52.52608057361987" lon="13.403475394450446"><time>2023-05-12T07:20:09.000Z</time></trkpt><trkpt lat="52.52599843834293" lon="13.403610245170755"><time>2023-05-12T07:20:30.000Z</time></trkpt><trkpt lat="52.52596497837401" lon="13.403777621868905"><time>2023-05-12T07:20:45.000Z</time></trkpt><trkpt lat="52.52590856973199" lon="13.403779941267718"><time>2023-05-12T07:21:23.000Z</time></trkpt></trkseg></trk></gpx>