<?xml version="1.0" encoding="UTF-8"?><gpx creator="Health" xsi:schemaLocation="http://www.topografix.com/GPX/1/0 http://www.topografix.com/GPX/1/0/gpx.xsd" version="1.0" xmlns="http://www.topografix.com/GPX/1/0" xmlns:xsi="http://www.w3.org/2001/XMLSchema-instance"><metadata><time>2023-09-17T09:28:49.000Z</time></metadata><trk><type>Ходьба на улице</type><extensions><totalTime>15403.0</totalTime><cumulativeDecrease>0.0</cumulativeDecrease><cumulativeClimb>0.0</cumulativeClimb><totalDistance>10819.0</totalDistance></extensions><trkseg><trkpt lat="52.392306" lon="13.066666"><time>2023-09-17T09:28:49.000Z</time></trkpt><trkpt lat="52.392562" lon="13.066667"><time>2023-09-17T09:28:59.000Z</time></trkpt><trkpt lat="52.392564" lon="13.066492"><time>2023-09-17T09:29:11.000Z</time></trkpt><trkpt lat="52.392678" lon="13.066205"><time>2023-09-17T09:29:41.000Z</time></trkpt><trkpt lat="52.392663" lon="13.065882"><time>2023-09-17T09:30:15.000Z</time></trkpt><trkpt lat="52.392745" lon="13.065691"><time>2023-09-17T09:30:29.000Z</time></trkpt><trkpt lat="52.392762" lon="13.065572"><time>2023-09-17T09:30:37.000Z</time></trkpt><trkpt lat="52.392691" lon="13.065129"><time>2023-09-17T09:30:53.000Z</time></trkpt><trkpt lat="52.392693" lon="13.065076"><time>2023-09-17T09:30:55.000Z</time></trkpt><trkpt lat="52.392809" lon="13.064903"><time>2023-09-17T09:31:15.000Z</time></trkpt><trkpt lat="52.392757" lon="13.06445"><time>2023-09-17T09:31:47.000Z</time></trkpt><trkpt lat="52.39272" lon="13.064317"><time>2023-09-17T09:31:55.000Z</time></trkpt><trkpt lat="52.392559" lon="13.064194"><time>2023-09-17T09:32:05.000Z</time></trkpt><trkpt lat="52.392554" lon="13.064101"><time>2023-09-17T09:32:09.000Z</time></trkpt><trkpt lat="52.392679" lon="13.063878"><time>2023-09-17T09:32:19.000Z</time></trkpt><trkpt lat="52.392837" lon="13.063748"><time>2023-09-17T09:32:29.000Z</time></trkpt><trkpt lat="52.393007" lon="13.063368"><time>2023-09-17T09:32:53.000Z</time></trkpt><trkpt lat="52.39306" lon="13.063146"><time>2023-09-17T09:33:19.000Z</time></trkpt><trkpt lat="52.393247" lon="13.062826"><time>2023-09-17T09:33:41.000Z</time></trkpt><trkpt lat="52.393346" lon="13.062733"><time>2023-09-17T09:33:53.000Z</time></trkpt><trkpt lat="52.393714" lon="13.062624"><time>2023-09-17T09:34:25.000Z</time></trkpt><trkpt lat="52.39373" lon="13.062536"><time>2023-09-17T09:34:35.000Z</time></trkpt><trkpt lat="52.393707" lon="13.062469"><time>2023-09-17T09:34:51.000Z</time></trkpt><trkpt lat="52.393458" lon="13.062683"><time>2023-09-17T09:35:27.000Z</time></trkpt><trkpt lat="52.39344" lon="13.062671"><time>2023-09-17T09:35:37.000Z</time></trkpt><trkpt lat="52.393459" lon="13.062576"><time>2023-09-17T09:35:45.000Z</time></trkpt><trkpt lat="52.393678" lon="13.062222"><time>2023-09-17T09:36:11.000Z</time></trkpt><trkpt lat="52.39383" lon="13.062091"><time>2023-09-17T09:36:29.000Z</time></trkpt><trkpt lat="52.394142" lon="13.061639"><time>2023-09-17T09:37:09.000Z</time></trkpt><trkpt lat="52.394246" lon="13.061539"><time>2023-09-17T09:37:25.000Z</time></trkpt><trkpt lat="52.394732" lon="13.061439"><time>2023-09-17T09:38:15.000Z</time></trkpt><trkpt lat="52.394853" lon="13.061321"><time>2023-09-17T09:38:39.000Z</time></trkpt><trkpt lat="52.394927" lon="13.061314"><time>2023-09-17T09:38:45.000Z</time></trkpt><trkpt lat="52.395098" lon="13.061398"><time>2023-09-17T09:39:03.000Z</time></trkpt><trkpt lat="52.39528" lon="13.061573"><time>2023-09-17T09:39:27.000Z</time></trkpt><trkpt lat="52.395447" lon="13.061932"><time>2023-09-17T09:39:57.000Z</time></trkpt><trkpt lat="52.395542" lon="13.061929"><time>2023-09-17T09:40:09.000Z</time></trkpt><trkpt lat="52.395657" lon="13.062072"><time>2023-09-17T09:41:15.000Z</time></trkpt><trkpt lat="52.395668" lon="13.062033"><time>2023-09-17T09:41:49.000Z</time></trkpt><trkpt lat="52.395826" lon="13.061999"><time>2023-09-17T09:42:09.000Z</time></trkpt><trkpt lat="52.396317" lon="13.061381"><time>2023-09-17T09:43:03.000Z</time></trkpt><trkpt lat="52.396082" lon="13.061907"><time>2023-09-17T09:57:33.000Z</time></trkpt><trkpt lat="52.396986" lon="13.061267"><time>2023-09-17T09:58:27.000Z</time></trkpt><trkpt lat="52.39737" lon="13.061208"><time>2023-09-17T09:58:57.000Z</time></trkpt><trkpt lat="52.397585" lon="13.061052"><time>2023-09-17T09:59:33.000Z</time></trkpt><trkpt lat="52.397624" lon="13.060883"><time>2023-09-17T09:59:51.000Z</time></trkpt><trkpt lat="52.397633" lon="13.060975"><time>2023-09-17T10:00:29.000Z</time></trkpt><trkpt lat="52.397687" lon="13.060897"><time>2023-09-17T10:00:39.000Z</time></trkpt><trkpt lat="52.397744" lon="13.060888"><time>2023-09-17T10:00:47.000Z</time></trkpt><trkpt lat="52.397796" lon="13.06103"><time>2023-09-17T10:00:59.000Z</time></trkpt><trkpt lat="52.397724" lon="13.061059"><time>2023-09-17T10:01:15.000Z</time></trkpt><trkpt lat="52.397732" lon="13.061187"><time>2023-09-17T10:01:21.000Z</time></trkpt><trkpt lat="52.398012" lon="13.061169"><time>2023-09-17T10:01:31.000Z</time></trkpt><trkpt lat="52.398034" lon="13.061135"><time>2023-09-17T10:01:33.000Z</time></trkpt><trkpt lat="52.397927" lon="13.060966"><time>2023-09-17T10:02:00.000Z</time></trkpt><trkpt lat="52.397891" lon="13.060875"><time>2023-09-17T10:02:02.000Z</time></trkpt><trkpt lat="52.397899" lon="13.060803"><time>2023-09-17T10:02:08.000Z</time></trkpt><trkpt lat="52.397818" lon="13.060645"><time>2023-09-17T10:02:26.000Z</time></trkpt><trkpt lat="52.397799" lon="13.060376"><time>2023-09-17T10:02:40.000Z</time></trkpt><trkpt lat="52.397855" lon="13.060143"><time>2023-09-17T10:03:22.000Z</time></trkpt><trkpt lat="52.397931" lon="13.060093"><time>2023-09-17T10:03:28.000Z</time></trkpt><trkpt lat="52.39798" lon="13.06015"><time>2023-09-17T10:03:44.000Z</time></trkpt><trkpt lat="52.397973" lon="13.060265"><time>2023-09-17T10:03:54.000Z</time></trkpt><trkpt lat="52.398004" lon="13.060211"><time>2023-09-17T10:04:08.000Z</time></trkpt><trkpt lat="52.398063" lon="13.059792"><time>2023-09-17T10:04:26.000Z</time></trkpt><trkpt lat="52.398323" lon="13.059756"><time>2023-09-17T10:04:54.000Z</time></trkpt><trkpt lat="52.398438" lon="13.059818"><time>2023-09-17T10:05:28.000Z</time></trkpt><trkpt lat="52.398537" lon="13.059814"><time>2023-09-17T10:05:42.000Z</time></trkpt><trkpt lat="52.398695" lon="13.059715"><time>2023-09-17T10:06:04.000Z</time></trkpt><trkpt lat="52.398813" lon="13.059568"><time>2023-09-17T10:06:22.000Z</time></trkpt><trkpt lat="52.399147" lon="13.059374"><time>2023-09-17T10:06:56.000Z</time></trkpt><trkpt lat="52.399331" lon="13.059481"><time>2023-09-17T10:07:16.000Z</time></trkpt><trkpt lat="52.399438" lon="13.059465"><time>2023-09-17T10:08:00.000Z</time></trkpt><trkpt lat="52.399508" lon="13.059595"><time>2023-09-17T10:08:52.000Z</time></trkpt><trkpt lat="52.399402" lon="13.059481"><time>2023-09-17T10:09:14.000Z</time></trkpt><trkpt lat="52.399411" lon="13.059658"><time>2023-09-17T10:09:32.000Z</time></trkpt><trkpt lat="52.399499" lon="13.059672"><time>2023-09-17T10:09:48.000Z</time></trkpt><trkpt lat="52.399611" lon="13.059622"><time>2023-09-17T10:10:00.000Z</time></trkpt><trkpt lat="52.399745" lon="13.059708"><time>2023-09-17T10:10:14.000Z</time></trkpt><trkpt lat="52.399972" lon="13.05935"><time>2023-09-17T10:10:40.000Z</time></trkpt><trkpt lat="52.400034" lon="13.059418"><time>2023-09-17T10:10:56.000Z</time></trkpt><trkpt lat="52.400139" lon="13.059447"><time>2023-09-17T10:11:04.000Z</time></trkpt><trkpt lat="52.400368" lon="13.059393"><time>2023-09-17T10:11:48.000Z</time></trkpt><trkpt lat="52.400455" lon="13.05922"><time>2023-09-17T10:12:06.000Z</time></trkpt><trkpt lat="52.400681" lon="13.059114"><time>2023-09-17T10:12:32.000Z</time></trkpt><trkpt lat="52.40074" lon="13.059125"><time>2023-09-17T10:13:00.000Z</time></trkpt><trkpt lat="52.400776" lon="13.059249"><time>2023-09-17T10:13:06.000Z</time></trkpt><trkpt lat="52.400845" lon="13.059302"><time>2023-09-17T10:13:18.000Z</time></trkpt><trkpt lat="52.400855" lon="13.059005"><time>2023-09-17T10:14:02.000Z</time></trkpt><trkpt lat="52.400752" lon="13.058848"><time>2023-09-17T10:14:18.000Z</time></trkpt><trkpt lat="52.400853" lon="13.059023"><time>2023-09-17T10:15:28.000Z</time></trkpt><trkpt lat="52.400809" lon="13.059305"><time>2023-09-17T10:15:52.000Z</time></trkpt><trkpt lat="52.400764" lon="13.059381"><time>2023-09-17T10:16:14.000Z</time></trkpt><trkpt lat="52.400735" lon="13.059358"><time>2023-09-17T10:16:22.000Z</time></trkpt><trkpt lat="52.400754" lon="13.059428"><time>2023-09-17T10:16:34.000Z</time></trkpt><trkpt lat="52.400743" lon="13.059392"><time>2023-09-17T10:17:06.000Z</time></trkpt><trkpt lat="52.400805" lon="13.05934"><time>2023-09-17T10:17:56.000Z</time></trkpt><trkpt lat="52.400797" lon="13.059267"><time>2023-09-17T10:18:56.000Z</time></trkpt><trkpt lat="52.400832" lon="13.059259"><time>2023-09-17T10:19:22.000Z</time></trkpt><trkpt lat="52.400763" lon="13.059168"><time>2023-09-17T10:19:44.000Z</time></trkpt><trkpt lat="52.400888" lon="13.059033"><time>2023-09-17T10:20:52.000Z</time></trkpt><trkpt lat="52.400885" lon="13.059238"><time>2023-09-17T10:21:16.000Z</time></trkpt><trkpt lat="52.400867" lon="13.059213"><time>2023-09-17T10:22:02.000Z</time></trkpt><trkpt lat="52.400857" lon="13.059252"><time>2023-09-17T10:22:10.000Z</time></trkpt><trkpt lat="52.400894" lon="13.059384"><time>2023-09-17T10:22:32.000Z</time></trkpt><trkpt lat="52.400938" lon="13.059425"><time>2023-09-17T10:22:44.000Z</time></trkpt><trkpt lat="52.400958" lon="13.059131"><time>2023-09-17T10:23:20.000Z</time></trkpt><trkpt lat="52.400924" lon="13.059305"><time>2023-09-17T10:24:06.000Z</time></trkpt><trkpt lat="52.400843" lon="13.059347"><time>2023-09-17T10:24:16.000Z</time></trkpt><trkpt lat="52.400842" lon="13.059264"><time>2023-09-17T10:24:28.000Z</time></trkpt><trkpt lat="52.40094" lon="13.059097"><time>2023-09-17T10:24:40.000Z</time></trkpt><trkpt lat="52.401148" lon="13.05914"><time>2023-09-17T10:37:08.000Z</time></trkpt><trkpt lat="52.401049" lon="13.059086"><time>2023-09-17T10:37:42.000Z</time></trkpt><trkpt lat="52.400943" lon="13.059111"><time>2023-09-17T10:38:08.000Z</time></trkpt><trkpt lat="52.400861" lon="13.059202"><time>2023-09-17T10:38:24.000Z</time></trkpt><trkpt lat="52.400631" lon="13.059314"><time>2023-09-17T10:38:36.000Z</time></trkpt><trkpt lat="52.400845" lon="13.05901"><time>2023-09-17T10:40:29.000Z</time></trkpt><trkpt lat="52.400998" lon="13.059148"><time>2023-09-17T10:40:59.000Z</time></trkpt><trkpt lat="52.401161" lon="13.059142"><time>2023-09-17T10:41:15.000Z</time></trkpt><trkpt lat="52.401136" lon="13.059048"><time>2023-09-17T10:42:27.000Z</time></trkpt><trkpt lat="52.400963" lon="13.05903"><time>2023-09-17T10:42:39.000Z</time></trkpt><trkpt lat="52.400913" lon="13.058978"><time>2023-09-17T10:42:45.000Z</time></trkpt><trkpt lat="52.400921" lon="13.058845"><time>2023-09-17T10:42:57.000Z</time></trkpt><trkpt lat="52.400875" lon="13.058799"><time>2023-09-17T10:43:01.000Z</time></trkpt><trkpt lat="52.40089" lon="13.058663"><time>2023-09-17T10:43:13.000Z</time></trkpt><trkpt lat="52.400822" lon="13.058301"><time>2023-09-17T10:43:43.000Z</time></trkpt><trkpt lat="52.400891" lon="13.058134"><time>2023-09-17T10:44:09.000Z</time></trkpt><trkpt lat="52.400839" lon="13.058061"><time>2023-09-17T10:44:19.000Z</time></trkpt><trkpt lat="52.400832" lon="13.057949"><time>2023-09-17T10:44:27.000Z</time></trkpt><trkpt lat="52.400777" lon="13.057933"><time>2023-09-17T10:44:51.000Z</time></trkpt><trkpt lat="52.400828" lon="13.05781"><time>2023-09-17T10:45:05.000Z</time></trkpt><trkpt lat="52.40096" lon="13.057646"><time>2023-09-17T10:45:19.000Z</time></trkpt><trkpt lat="52.401067" lon="13.057589"><time>2023-09-17T10:45:35.000Z</time></trkpt><trkpt lat="52.40123" lon="13.057597"><time>2023-09-17T10:45:51.000Z</time></trkpt><trkpt lat="52.401395" lon="13.057749"><time>2023-09-17T10:46:15.000Z</time></trkpt><trkpt lat="52.401508" lon="13.057655"><time>2023-09-17T10:46:27.000Z</time></trkpt><trkpt lat="52.401544" lon="13.05767"><time>2023-09-17T10:46:31.000Z</time></trkpt><trkpt lat="52.401664" lon="13.057848"><time>2023-09-17T10:46:41.000Z</time></trkpt><trkpt lat="52.401801" lon="13.057937"><time>2023-09-17T10:46:51.000Z</time></trkpt><trkpt lat="52.401934" lon="13.05778"><time>2023-09-17T10:47:13.000Z</time></trkpt><trkpt lat="52.401915" lon="13.057892"><time>2023-09-17T10:47:21.000Z</time></trkpt><trkpt lat="52.401949" lon="13.058003"><time>2023-09-17T10:47:25.000Z</time></trkpt><trkpt lat="52.402221" lon="13.057719"><time>2023-09-17T10:47:43.000Z</time></trkpt><trkpt lat="52.402614" lon="13.057621"><time>2023-09-17T10:48:13.000Z</time></trkpt><trkpt lat="52.402719" lon="13.057768"><time>2023-09-17T10:48:23.000Z</time></trkpt><trkpt lat="52.402759" lon="13.05795"><time>2023-09-17T10:48:33.000Z</time></trkpt><trkpt lat="52.402957" lon="13.057962"><time>2023-09-17T10:48:43.000Z</time></trkpt><trkpt lat="52.403127" lon="13.05775"><time>2023-09-17T10:48:57.000Z</time></trkpt><trkpt lat="52.403394" lon="13.057795"><time>2023-09-17T10:49:15.000Z</time></trkpt><trkpt lat="52.40349" lon="13.057913"><time>2023-09-17T10:49:31.000Z</time></trkpt><trkpt lat="52.403387" lon="13.057936"><time>2023-09-17T10:49:43.000Z</time></trkpt><trkpt lat="52.403309" lon="13.058027"><time>2023-09-17T10:50:17.000Z</time></trkpt><trkpt lat="52.403327" lon="13.058053"><time>2023-09-17T10:50:19.000Z</time></trkpt><trkpt lat="52.403395" lon="13.057783"><time>2023-09-17T10:50:41.000Z</time></trkpt><trkpt lat="52.403543" lon="13.057711"><time>2023-09-17T10:50:51.000Z</time></trkpt><trkpt lat="52.403649" lon="13.057767"><time>2023-09-17T10:51:08.000Z</time></trkpt><trkpt lat="52.403736" lon="13.057642"><time>2023-09-17T10:51:26.000Z</time></trkpt><trkpt lat="52.403622" lon="13.05774"><time>2023-09-17T10:52:12.000Z</time></trkpt><trkpt lat="52.403698" lon="13.057572"><time>2023-09-17T10:52:30.000Z</time></trkpt><trkpt lat="52.403759" lon="13.0576"><time>2023-09-17T10:52:40.000Z</time></trkpt><trkpt lat="52.403773" lon="13.057661"><time>2023-09-17T10:52:44.000Z</time></trkpt><trkpt lat="52.403741" lon="13.057908"><time>2023-09-17T10:52:58.000Z</time></trkpt><trkpt lat="52.403799" lon="13.058129"><time>2023-09-17T10:53:28.000Z</time></trkpt><trkpt lat="52.403865" lon="13.05831"><time>2023-09-17T10:53:48.000Z</time></trkpt><trkpt lat="52.403923" lon="13.058348"><time>2023-09-17T10:53:58.000Z</time></trkpt><trkpt lat="52.404148" lon="13.058333"><time>2023-09-17T10:54:08.000Z</time></trkpt><trkpt lat="52.404279" lon="13.058262"><time>2023-09-17T10:54:18.000Z</time></trkpt><trkpt lat="52.404525" lon="13.05822"><time>2023-09-17T10:54:40.000Z</time></trkpt><trkpt lat="52.404723" lon="13.058268"><time>2023-09-17T10:55:10.000Z</time></trkpt><trkpt lat="52.404846" lon="13.058174"><time>2023-09-17T10:55:20.000Z</time></trkpt><trkpt lat="52.404993" lon="13.058134"><time>2023-09-17T10:55:58.000Z</time></trkpt><trkpt lat="52.405058" lon="13.058036"><time>2023-09-17T10:56:08.000Z</time></trkpt><trkpt lat="52.405098" lon="13.058068"><time>2023-09-17T10:56:20.000Z</time></trkpt><trkpt lat="52.405081" lon="13.058179"><time>2023-09-17T10:56:40.000Z</time></trkpt><trkpt lat="52.405322" lon="13.058273"><time>2023-09-17T10:57:02.000Z</time></trkpt><trkpt lat="52.405634" lon="13.058273"><time>2023-09-17T10:57:44.000Z</time></trkpt><trkpt lat="52.40574" lon="13.05866"><time>2023-09-17T10:58:26.000Z</time></trkpt><trkpt lat="52.405802" lon="13.05878"><time>2023-09-17T10:58:34.000Z</time></trkpt><trkpt lat="52.406067" lon="13.058974"><time>2023-09-17T10:58:46.000Z</time></trkpt><trkpt lat="52.406229" lon="13.05903"><time>2023-09-17T10:58:56.000Z</time></trkpt><trkpt lat="52.406238" lon="13.058975"><time>2023-09-17T10:59:02.000Z</time></trkpt><trkpt lat="52.406205" lon="13.058953"><time>2023-09-17T10:59:06.000Z</time></trkpt><trkpt lat="52.406172" lon="13.058969"><time>2023-09-17T10:59:08.000Z</time></trkpt><trkpt lat="52.406178" lon="13.059032"><time>2023-09-17T10:59:16.000Z</time></trkpt><trkpt lat="52.406435" lon="13.059139"><time>2023-09-17T10:59:40.000Z</time></trkpt><trkpt lat="52.406426" lon="13.05934"><time>2023-09-17T10:59:52.000Z</time></trkpt><trkpt lat="52.406462" lon="13.059428"><time>2023-09-17T10:59:58.000Z</time></trkpt><trkpt lat="52.406524" lon="13.05942"><time>2023-09-17T11:00:06.000Z</time></trkpt><trkpt lat="52.406514" lon="13.059349"><time>2023-09-17T11:00:14.000Z</time></trkpt><trkpt lat="52.406966" lon="13.059648"><time>2023-09-17T11:01:16.000Z</time></trkpt><trkpt lat="52.40691" lon="13.059893"><time>2023-09-17T11:01:44.000Z</time></trkpt><trkpt lat="52.406776" lon="13.06013"><time>2023-09-17T11:01:54.000Z</time></trkpt><trkpt lat="52.406738" lon="13.060272"><time>2023-09-17T11:02:00.000Z</time></trkpt><trkpt lat="52.406785" lon="13.06051"><time>2023-09-17T11:02:14.000Z</time></trkpt><trkpt lat="52.406755" lon="13.060625"><time>2023-09-17T11:02:22.000Z</time></trkpt><trkpt lat="52.406743" lon="13.060971"><time>2023-09-17T11:02:38.000Z</time></trkpt><trkpt lat="52.406835" lon="13.061247"><time>2023-09-17T11:03:16.000Z</time></trkpt><trkpt lat="52.406886" lon="13.061538"><time>2023-09-17T11:03:34.000Z</time></trkpt><trkpt lat="52.406963" lon="13.061703"><time>2023-09-17T11:03:48.000Z</time></trkpt><trkpt lat="52.406973" lon="13.061946"><time>2023-09-17T11:03:56.000Z</time></trkpt><trkpt lat="52.407062" lon="13.062296"><time>2023-09-17T11:04:16.000Z</time></trkpt><trkpt lat="52.407191" lon="13.06253"><time>2023-09-17T11:04:32.000Z</time></trkpt><trkpt lat="52.407183" lon="13.062707"><time>2023-09-17T11:04:50.000Z</time></trkpt><trkpt lat="52.407225" lon="13.063054"><time>2023-09-17T11:05:14.000Z</time></trkpt><trkpt lat="52.407306" lon="13.063215"><time>2023-09-17T11:05:32.000Z</time></trkpt><trkpt lat="52.407425" lon="13.063685"><time>2023-09-17T11:06:26.000Z</time></trkpt><trkpt lat="52.407402" lon="13.064118"><time>2023-09-17T11:06:44.000Z</time></trkpt><trkpt lat="52.40747" lon="13.064486"><time>2023-09-17T11:07:02.000Z</time></trkpt><trkpt lat="52.407494" lon="13.064495"><time>2023-09-17T11:07:10.000Z</time></trkpt><trkpt lat="52.407478" lon="13.06456"><time>2023-09-17T11:07:28.000Z</time></trkpt><trkpt lat="52.407506" lon="13.064832"><time>2023-09-17T11:07:58.000Z</time></trkpt><trkpt lat="52.407464" lon="13.064987"><time>2023-09-17T11:08:24.000Z</time></trkpt><trkpt lat="52.407625" lon="13.064981"><time>2023-09-17T11:08:44.000Z</time></trkpt><trkpt lat="52.407645" lon="13.06496"><time>2023-09-17T11:08:48.000Z</time></trkpt><trkpt lat="52.407584" lon="13.064895"><time>2023-09-17T11:09:20.000Z</time></trkpt><trkpt lat="52.407643" lon="13.06481"><time>2023-09-17T11:09:28.000Z</time></trkpt><trkpt lat="52.407807" lon="13.064888"><time>2023-09-17T11:10:06.000Z</time></trkpt><trkpt lat="52.40768" lon="13.065043"><time>2023-09-17T11:10:34.000Z</time></trkpt><trkpt lat="52.407612" lon="13.064992"><time>2023-09-17T11:12:04.000Z</time></trkpt><trkpt lat="52.407524" lon="13.065043"><time>2023-09-17T11:12:12.000Z</time></trkpt><trkpt lat="52.407511" lon="13.064769"><time>2023-09-17T11:12:24.000Z</time></trkpt><trkpt lat="52.40748" lon="13.064677"><time>2023-09-17T11:12:28.000Z</time></trkpt><trkpt lat="52.407117" lon="13.064815"><time>2023-09-17T11:12:50.000Z</time></trkpt><trkpt lat="52.406913" lon="13.065054"><time>2023-09-17T11:13:08.000Z</time></trkpt><trkpt lat="52.406849" lon="13.065256"><time>2023-09-17T11:13:20.000Z</time></trkpt><trkpt lat="52.40689" lon="13.065426"><time>2023-09-17T11:13:28.000Z</time></trkpt><trkpt lat="52.407069" lon="13.065675"><time>2023-09-17T11:13:44.000Z</time></trkpt><trkpt lat="52.40726" lon="13.065596"><time>2023-09-17T11:13:56.000Z</time></trkpt><trkpt lat="52.407243" lon="13.065456"><time>2023-09-17T11:14:08.000Z</time></trkpt><trkpt lat="52.407042" lon="13.065516"><time>2023-09-17T11:14:34.000Z</time></trkpt><trkpt lat="52.406428" lon="13.065971"><time>2023-09-17T11:15:10.000Z</time></trkpt><trkpt lat="52.406516" lon="13.065965"><time>2023-09-17T11:15:18.000Z</time></trkpt><trkpt lat="52.406711" lon="13.06577"><time>2023-09-17T11:15:34.000Z</time></trkpt><trkpt lat="52.406949" lon="13.065639"><time>2023-09-17T11:15:50.000Z</time></trkpt><trkpt lat="52.406985" lon="13.065554"><time>2023-09-17T11:16:12.000Z</time></trkpt><trkpt lat="52.406959" lon="13.065435"><time>2023-09-17T11:16:22.000Z</time></trkpt><trkpt lat="52.406882" lon="13.065308"><time>2023-09-17T11:16:56.000Z</time></trkpt><trkpt lat="52.406598" lon="13.065474"><time>2023-09-17T11:17:16.000Z</time></trkpt><trkpt lat="52.406435" lon="13.06546"><time>2023-09-17T11:17:28.000Z</time></trkpt><trkpt lat="52.406373" lon="13.0655"><time>2023-09-17T11:17:32.000Z</time></trkpt><trkpt lat="52.406269" lon="13.065642"><time>2023-09-17T11:17:44.000Z</time></trkpt><trkpt lat="52.406252" lon="13.065815"><time>2023-09-17T11:18:00.000Z</time></trkpt><trkpt lat="52.40621" lon="13.065917"><time>2023-09-17T11:18:12.000Z</time></trkpt><trkpt lat="52.406" lon="13.066178"><time>2023-09-17T11:18:28.000Z</time></trkpt><trkpt lat="52.406007" lon="13.066346"><time>2023-09-17T11:18:44.000Z</time></trkpt><trkpt lat="52.405937" lon="13.066668"><time>2023-09-17T11:19:07.000Z</time></trkpt><trkpt lat="52.40597" lon="13.066906"><time>2023-09-17T11:19:43.000Z</time></trkpt><trkpt lat="52.406465" lon="13.066997"><time>2023-09-17T11:20:37.000Z</time></trkpt><trkpt lat="52.406575" lon="13.066921"><time>2023-09-17T11:20:49.000Z</time></trkpt><trkpt lat="52.406526" lon="13.066919"><time>2023-09-17T11:21:07.000Z</time></trkpt><trkpt lat="52.406575" lon="13.066907"><time>2023-09-17T11:21:13.000Z</time></trkpt><trkpt lat="52.406549" lon="13.066879"><time>2023-09-17T11:21:23.000Z</time></trkpt><trkpt lat="52.406475" lon="13.06697"><time>2023-09-17T11:22:25.000Z</time></trkpt><trkpt lat="52.406515" lon="13.06688"><time>2023-09-17T11:22:51.000Z</time></trkpt><trkpt lat="52.406663" lon="13.066782"><time>2023-09-17T11:23:01.000Z</time></trkpt><trkpt lat="52.406733" lon="13.066815"><time>2023-09-17T11:23:13.000Z</time></trkpt><trkpt lat="52.406959" lon="13.06668"><time>2023-09-17T11:24:03.000Z</time></trkpt><trkpt lat="52.407242" lon="13.066437"><time>2023-09-17T11:24:29.000Z</time></trkpt><trkpt lat="52.407422" lon="13.066367"><time>2023-09-17T11:24:41.000Z</time></trkpt><trkpt lat="52.407636" lon="13.066157"><time>2023-09-17T11:25:11.000Z</time></trkpt><trkpt lat="52.407541" lon="13.066234"><time>2023-09-17T11:25:35.000Z</time></trkpt><trkpt lat="52.408073" lon="13.066142"><time>2023-09-17T11:26:37.000Z</time></trkpt><trkpt lat="52.407905" lon="13.066217"><time>2023-09-17T11:28:29.000Z</time></trkpt><trkpt lat="52.407893" lon="13.066373"><time>2023-09-17T11:28:53.000Z</time></trkpt><trkpt lat="52.407925" lon="13.066197"><time>2023-09-17T11:31:03.000Z</time></trkpt><trkpt lat="52.408103" lon="13.066066"><time>2023-09-17T11:31:35.000Z</time></trkpt><trkpt lat="52.408168" lon="13.066053"><time>2023-09-17T11:31:43.000Z</time></trkpt><trkpt lat="52.408289" lon="13.066167"><time>2023-09-17T11:32:21.000Z</time></trkpt><trkpt lat="52.408492" lon="13.066099"><time>2023-09-17T11:32:37.000Z</time></trkpt><trkpt lat="52.408585" lon="13.066113"><time>2023-09-17T11:32:47.000Z</time></trkpt><trkpt lat="52.408622" lon="13.066137"><time>2023-09-17T11:33:01.000Z</time></trkpt><trkpt lat="52.40859" lon="13.06612"><time>2023-09-17T11:33:19.000Z</time></trkpt><trkpt lat="52.408582" lon="13.066193"><time>2023-09-17T11:34:27.000Z</time></trkpt><trkpt lat="52.408675" lon="13.066173"><time>2023-09-17T11:35:53.000Z</time></trkpt><trkpt lat="52.40887" lon="13.066"><time>2023-09-17T11:36:27.000Z</time></trkpt><trkpt lat="52.409075" lon="13.065978"><time>2023-09-17T11:36:45.000Z</time></trkpt><trkpt lat="52.40913" lon="13.066044"><time>2023-09-17T11:36:55.000Z</time></trkpt><trkpt lat="52.409148" lon="13.066136"><time>2023-09-17T11:36:59.000Z</time></trkpt><trkpt lat="52.409074" lon="13.066367"><time>2023-09-17T11:37:11.000Z</time></trkpt><trkpt lat="52.409299" lon="13.066305"><time>2023-09-17T11:37:33.000Z</time></trkpt><trkpt lat="52.409264" lon="13.066361"><time>2023-09-17T11:37:41.000Z</time></trkpt><trkpt lat="52.408985" lon="13.066444"><time>2023-09-17T11:38:03.000Z</time></trkpt><trkpt lat="52.409069" lon="13.066467"><time>2023-09-17T11:38:19.000Z</time></trkpt><trkpt lat="52.40903" lon="13.066477"><time>2023-09-17T11:39:43.000Z</time></trkpt><trkpt lat="52.408965" lon="13.066412"><time>2023-09-17T11:43:23.000Z</time></trkpt><trkpt lat="52.40895" lon="13.066325"><time>2023-09-17T11:58:45.000Z</time></trkpt><trkpt lat="52.409066" lon="13.066792"><time>2023-09-17T11:59:23.000Z</time></trkpt><trkpt lat="52.409112" lon="13.066847"><time>2023-09-17T11:59:55.000Z</time></trkpt><trkpt lat="52.411362" lon="13.068657"><time>2023-09-17T12:46:37.000Z</time></trkpt><trkpt lat="52.411203" lon="13.068748"><time>2023-09-17T12:46:45.000Z</time></trkpt><trkpt lat="52.411209" lon="13.068826"><time>2023-09-17T12:46:55.000Z</time></trkpt><trkpt lat="52.411391" lon="13.068984"><time>2023-09-17T12:47:23.000Z</time></trkpt><trkpt lat="52.411565" lon="13.068976"><time>2023-09-17T12:47:41.000Z</time></trkpt><trkpt lat="52.411727" lon="13.069066"><time>2023-09-17T12:48:01.000Z</time></trkpt><trkpt lat="52.411861" lon="13.069251"><time>2023-09-17T12:48:25.000Z</time></trkpt><trkpt lat="52.411872" lon="13.069379"><time>2023-09-17T12:48:57.000Z</time></trkpt><trkpt lat="52.411904" lon="13.069341"><time>2023-09-17T12:49:07.000Z</time></trkpt><trkpt lat="52.411808" lon="13.069307"><time>2023-09-17T12:49:59.000Z</time></trkpt><trkpt lat="52.411955" lon="13.069179"><time>2023-09-17T12:50:47.000Z</time></trkpt><trkpt lat="52.411838" lon="13.069237"><time>2023-09-17T12:51:07.000Z</time></trkpt><trkpt lat="52.411838" lon="13.069283"><time>2023-09-17T12:52:03.000Z</time></trkpt><trkpt lat="52.411917" lon="13.069328"><time>2023-09-17T12:53:01.000Z</time></trkpt><trkpt lat="52.411975" lon="13.069297"><time>2023-09-17T12:53:11.000Z</time></trkpt><trkpt lat="52.411974" lon="13.069222"><time>2023-09-17T12:53:17.000Z</time></trkpt><trkpt lat="52.411939" lon="13.069173"><time>2023-09-17T12:53:21.000Z</time></trkpt><trkpt lat="52.411858" lon="13.069247"><time>2023-09-17T12:54:07.000Z</time></trkpt><trkpt lat="52.41191" lon="13.069263"><time>2023-09-17T12:54:15.000Z</time></trkpt><trkpt lat="52.41204" lon="13.069519"><time>2023-09-17T12:54:47.000Z</time></trkpt><trkpt lat="52.412079" lon="13.069525"><time>2023-09-17T12:54:55.000Z</time></trkpt><trkpt lat="52.412053" lon="13.06941"><time>2023-09-17T12:55:17.000Z</time></trkpt><trkpt lat="52.412115" lon="13.069429"><time>2023-09-17T12:56:41.000Z</time></trkpt><trkpt lat="52.412343" lon="13.069658"><time>2023-09-17T12:57:55.000Z</time></trkpt><trkpt lat="52.412589" lon="13.069996"><time>2023-09-17T12:59:07.000Z</time></trkpt><trkpt lat="52.412602" lon="13.070155"><time>2023-09-17T12:59:19.000Z</time></trkpt><trkpt lat="52.412686" lon="13.07026"><time>2023-09-17T12:59:43.000Z</time></trkpt><trkpt lat="52.41274" lon="13.070276"><time>2023-09-17T12:59:53.000Z</time></trkpt><trkpt lat="52.412801" lon="13.070164"><time>2023-09-17T13:00:11.000Z</time></trkpt><trkpt lat="52.412931" lon="13.070094"><time>2023-09-17T13:00:29.000Z</time></trkpt><trkpt lat="52.413347" lon="13.070334"><time>2023-09-17T13:02:43.000Z</time></trkpt><trkpt lat="52.413709" lon="13.070265"><time>2023-09-17T13:03:25.000Z</time></trkpt><trkpt lat="52.413842" lon="13.070363"><time>2023-09-17T13:03:59.000Z</time></trkpt><trkpt lat="52.414057" lon="13.070353"><time>2023-09-17T13:04:49.000Z</time></trkpt><trkpt lat="52.414073" lon="13.070395"><time>2023-09-17T13:04:57.000Z</time></trkpt><trkpt lat="52.414445" lon="13.07045"><time>2023-09-17T13:05:25.000Z</time></trkpt><trkpt lat="52.414596" lon="13.070516"><time>2023-09-17T13:05:39.000Z</time></trkpt><trkpt lat="52.414835" lon="13.070439"><time>2023-09-17T13:06:07.000Z</time></trkpt><trkpt lat="52.415079" lon="13.070627"><time>2023-09-17T13:06:23.000Z</time></trkpt><trkpt lat="52.415166" lon="13.070652"><time>2023-09-17T13:06:29.000Z</time></trkpt><trkpt lat="52.4152" lon="13.070617"><time>2023-09-17T13:07:45.000Z</time></trkpt><trkpt lat="52.415202" lon="13.07077"><time>2023-09-17T13:10:39.000Z</time></trkpt><trkpt lat="52.415258" lon="13.070593"><time>2023-09-17T13:12:25.000Z</time></trkpt><trkpt lat="52.415245" lon="13.070552"><time>2023-09-17T13:12:59.000Z</time></trkpt><trkpt lat="52.415318" lon="13.070482"><time>2023-09-17T13:13:03.000Z</time></trkpt><trkpt lat="52.41521" lon="13.070396"><time>2023-09-17T13:13:39.000Z</time></trkpt><trkpt lat="52.415139" lon="13.07026"><time>2023-09-17T13:13:47.000Z</time></trkpt><trkpt lat="52.415119" lon="13.07026"><time>2023-09-17T13:13:53.000Z</time></trkpt><trkpt lat="52.415089" lon="13.070524"><time>2023-09-17T13:14:11.000Z</time></trkpt><trkpt lat="52.415037" lon="13.070626"><time>2023-09-17T13:14:39.000Z</time></trkpt><trkpt lat="52.415039" lon="13.070663"><time>2023-09-17T13:14:53.000Z</time></trkpt><trkpt lat="52.415089" lon="13.070657"><time>2023-09-17T13:15:15.000Z</time></trkpt><trkpt lat="52.41504" lon="13.070765"><time>2023-09-17T13:16:11.000Z</time></trkpt><trkpt lat="52.415062" lon="13.070793"><time>2023-09-17T13:16:27.000Z</time></trkpt><trkpt lat="52.41519" lon="13.070525"><time>2023-09-17T13:17:23.000Z</time></trkpt><trkpt lat="52.415406" lon="13.070779"><time>2023-09-17T13:18:35.000Z</time></trkpt><trkpt lat="52.415654" lon="13.070892"><time>2023-09-17T13:19:13.000Z</time></trkpt><trkpt lat="52.415796" lon="13.07088"><time>2023-09-17T13:19:27.000Z</time></trkpt><trkpt lat="52.415895" lon="13.070949"><time>2023-09-17T13:19:37.000Z</time></trkpt><trkpt lat="52.41606" lon="13.070953"><time>2023-09-17T13:19:53.000Z</time></trkpt><trkpt lat="52.416448" lon="13.070683"><time>2023-09-17T13:20:31.000Z</time></trkpt><trkpt lat="52.416641" lon="13.070805"><time>2023-09-17T13:20:57.000Z</time></trkpt><trkpt lat="52.416753" lon="13.071007"><time>2023-09-17T13:21:09.000Z</time></trkpt><trkpt lat="52.416789" lon="13.071233"><time>2023-09-17T13:21:19.000Z</time></trkpt><trkpt lat="52.416746" lon="13.071519"><time>2023-09-17T13:21:37.000Z</time></trkpt><trkpt lat="52.416521" lon="13.07176"><time>2023-09-17T13:22:05.000Z</time></trkpt><trkpt lat="52.416542" lon="13.072015"><time>2023-09-17T13:22:25.000Z</time></trkpt><trkpt lat="52.4166" lon="13.072169"><time>2023-09-17T13:22:35.000Z</time></trkpt><trkpt lat="52.416672" lon="13.072236"><time>2023-09-17T13:22:47.000Z</time></trkpt><trkpt lat="52.416794" lon="13.072559"><time>2023-09-17T13:23:01.000Z</time></trkpt><trkpt lat="52.416854" lon="13.072607"><time>2023-09-17T13:23:07.000Z</time></trkpt><trkpt lat="52.416932" lon="13.072783"><time>2023-09-17T13:23:19.000Z</time></trkpt><trkpt lat="52.417139" lon="13.072967"><time>2023-09-17T13:23:45.000Z</time></trkpt><trkpt lat="52.417321" lon="13.073224"><time>2023-09-17T13:24:03.000Z</time></trkpt><trkpt lat="52.417577" lon="13.073261"><time>2023-09-17T13:24:37.000Z</time></trkpt><trkpt lat="52.417672" lon="13.073191"><time>2023-09-17T13:24:49.000Z</time></trkpt><trkpt lat="52.417778" lon="13.073241"><time>2023-09-17T13:25:01.000Z</time></trkpt><trkpt lat="52.417928" lon="13.073187"><time>2023-09-17T13:25:15.000Z</time></trkpt><trkpt lat="52.418161" lon="13.073282"><time>2023-09-17T13:25:35.000Z</time></trkpt><trkpt lat="52.418154" lon="13.073136"><time>2023-09-17T13:25:53.000Z</time></trkpt><trkpt lat="52.417855" lon="13.072765"><time>2023-09-17T13:26:33.000Z</time></trkpt><trkpt lat="52.417818" lon="13.072665"><time>2023-09-17T13:26:39.000Z</time></trkpt><trkpt lat="52.417811" lon="13.072072"><time>2023-09-17T13:27:11.000Z</time></trkpt><trkpt lat="52.41786" lon="13.071872"><time>2023-09-17T13:27:23.000Z</time></trkpt><trkpt lat="52.417958" lon="13.07183"><time>2023-09-17T13:27:33.000Z</time></trkpt><trkpt lat="52.418375" lon="13.071927"><time>2023-09-17T13:28:17.000Z</time></trkpt><trkpt lat="52.418902" lon="13.071559"><time>2023-09-17T13:29:13.000Z</time></trkpt><trkpt lat="52.419168" lon="13.071555"><time>2023-09-17T13:29:49.000Z</time></trkpt><trkpt lat="52.419201" lon="13.071512"><time>2023-09-17T13:30:01.000Z</time></trkpt><trkpt lat="52.419124" lon="13.071352"><time>2023-09-17T13:30:09.000Z</time></trkpt><trkpt lat="52.41908" lon="13.071163"><time>2023-09-17T13:31:43.000Z</time></trkpt><trkpt lat="52.419123" lon="13.071213"><time>2023-09-17T13:31:51.000Z</time></trkpt><trkpt lat="52.419065" lon="13.071214"><time>2023-09-17T13:32:31.000Z</time></trkpt><trkpt lat="52.419022" lon="13.071122"><time>2023-09-17T13:33:15.000Z</time></trkpt><trkpt lat="52.419055" lon="13.071215"><time>2023-09-17T13:34:31.000Z</time></trkpt><trkpt lat="52.419181" lon="13.071291"><time>2023-09-17T13:34:47.000Z</time></trkpt><trkpt lat="52.419207" lon="13.071424"><time>2023-09-17T13:35:05.000Z</time></trkpt><trkpt lat="52.419295" lon="13.071533"><time>2023-09-17T13:35:25.000Z</time></trkpt><trkpt lat="52.419392" lon="13.071542"><time>2023-09-17T13:35:47.000Z</time></trkpt><trkpt lat="52.419438" lon="13.071471"><time>2023-09-17T13:36:01.000Z</time></trkpt><trkpt lat="52.419532" lon="13.071488"><time>2023-09-17T13:36:23.000Z</time></trkpt><trkpt lat="52.419597" lon="13.071238"><time>2023-09-17T13:36:51.000Z</time></trkpt><trkpt lat="52.419844" lon="13.07075"><time>2023-09-17T13:37:41.000Z</time></trkpt><trkpt lat="52.419843" lon="13.070518"><time>2023-09-17T13:37:53.000Z</time></trkpt><trkpt lat="52.419745" lon="13.070386"><time>2023-09-17T13:38:19.000Z</time></trkpt><trkpt lat="52.419788" lon="13.070252"><time>2023-09-17T13:38:49.000Z</time></trkpt><trkpt lat="52.419715" lon="13.070217"><time>2023-09-17T13:41:13.000Z</time></trkpt><trkpt lat="52.419867" lon="13.070188"><time>2023-09-17T13:42:32.167Z</time></trkpt><trkpt lat="52.419792" lon="13.070235"><time>2023-09-17T13:43:42.000Z</time></trkpt><trkpt lat="52.419732" lon="13.070048"><time>2023-09-17T13:44:06.000Z</time></trkpt><trkpt lat="52.419474" lon="13.069733"><time>2023-09-17T13:44:38.000Z</time></trkpt><trkpt lat="52.419381" lon="13.069728"><time>2023-09-17T13:44:46.000Z</time></trkpt><trkpt lat="52.419252" lon="13.06986"><time>2023-09-17T13:45:00.000Z</time></trkpt><trkpt lat="52.419364" lon="13.070054"><time>2023-09-17T13:45:18.000Z</time></trkpt><trkpt lat="52.419403" lon="13.070052"><time>2023-09-17T13:45:24.000Z</time></trkpt><trkpt lat="52.419394" lon="13.069964"><time>2023-09-17T13:45:38.000Z</time></trkpt><trkpt lat="52.419288" lon="13.069904"><time>2023-09-17T13:45:44.000Z</time></trkpt><trkpt lat="52.419023" lon="13.069995"><time>2023-09-17T13:46:02.000Z</time></trkpt><trkpt lat="52.418853" lon="13.070298"><time>2023-09-17T13:46:26.000Z</time></trkpt><trkpt lat="52.4189" lon="13.070682"><time>2023-09-17T13:47:00.000Z</time></trkpt><trkpt lat="52.418838" lon="13.070667"><time>2023-09-17T13:47:36.000Z</time></trkpt><trkpt lat="52.418684" lon="13.070784"><time>2023-09-17T13:48:02.000Z</time></trkpt><trkpt lat="52.418607" lon="13.070945"><time>2023-09-17T13:48:12.000Z</time></trkpt><trkpt lat="52.418581" lon="13.07114"><time>2023-09-17T13:48:20.000Z</time></trkpt><trkpt lat="52.41875" lon="13.071402"><time>2023-09-17T13:48:34.000Z</time></trkpt><trkpt lat="52.41892" lon="13.071539"><time>2023-09-17T13:48:44.000Z</time></trkpt><trkpt lat="52.418935" lon="13.07166"><time>2023-09-17T13:49:16.000Z</time></trkpt><trkpt lat="52.41896" lon="13.071603"><time>2023-09-17T13:49:22.000Z</time></trkpt><trkpt lat="52.419006" lon="13.071723"><time>2023-09-17T13:49:52.000Z</time></trkpt><trkpt lat="52.419054" lon="13.071654"><time>2023-09-17T13:49:58.000Z</time></trkpt><trkpt lat="52.419147" lon="13.071672"><time>2023-09-17T13:50:14.000Z</time></trkpt><trkpt lat="52.419385" lon="13.071894"><time>2023-09-17T13:50:48.000Z</time></trkpt><trkpt lat="52.419398" lon="13.072254"><time>2023-09-17T13:51:20.000Z</time></trkpt><trkpt lat="52.419534" lon="13.072603"><time>2023-09-17T13:51:54.000Z</time></trkpt><trkpt lat="52.419823" lon="13.072963"><time>2023-09-17T13:52:30.000Z</time></trkpt><trkpt lat="52.419989" lon="13.073104"><time>2023-09-17T13:53:36.000Z</time></trkpt><trkpt lat="52.419896" lon="13.073147"><time>2023-09-17T13:53:50.000Z</time></trkpt><trkpt lat="52.419835" lon="13.073257"><time>2023-09-17T13:53:56.000Z</time></trkpt><trkpt lat="52.419628" lon="13.073798"><time>2023-09-17T13:54:30.000Z</time></trkpt><trkpt lat="52.419622" lon="13.07387"><time>2023-09-17T13:54:38.000Z</time></trkpt><trkpt lat="52.419667" lon="13.074009"><time>2023-09-17T13:54:46.000Z</time></trkpt><trkpt lat="52.41964" lon="13.074232"><time>2023-09-17T13:55:02.000Z</time></trkpt><trkpt lat="52.419659" lon="13.074446"><time>2023-09-17T13:55:16.000Z</time></trkpt><trkpt lat="52.419739" lon="13.074652"><time>2023-09-17T13:55:30.000Z</time></trkpt><trkpt lat="52.419896" lon="13.074822"><time>2023-09-17T13:55:44.000Z</time></trkpt><trkpt lat="52.420286" lon="13.075051"><time>2023-09-17T13:56:18.000Z</time></trkpt><trkpt lat="52.420294" lon="13.075288"><time>2023-09-17T13:56:36.000Z</time></trkpt><trkpt lat="52.420364" lon="13.075603"><time>2023-09-17T13:56:58.000Z</time></trkpt><trkpt lat="52.420492" lon="13.075816"><time>2023-09-17T13:57:12.000Z</time></trkpt><trkpt lat="52.420487" lon="13.076011"><time>2023-09-17T13:57:24.000Z</time></trkpt><trkpt lat="52.420625" lon="13.076287"><time>2023-09-17T13:57:44.000Z</time></trkpt><trkpt lat="52.420594" lon="13.076445"><time>2023-09-17T13:58:12.000Z</time></trkpt><trkpt lat="52.42081" lon="13.076861"><time>2023-09-17T13:58:48.000Z</time></trkpt><trkpt lat="52.420865" lon="13.077049"><time>2023-09-17T13:59:00.000Z</time></trkpt><trkpt lat="52.420861" lon="13.077462"><time>2023-09-17T13:59:20.000Z</time></trkpt><trkpt lat="52.420983" lon="13.077707"><time>2023-09-17T13:59:38.000Z</time></trkpt><trkpt lat="52.421071" lon="13.077719"><time>2023-09-17T13:59:46.000Z</time></trkpt><trkpt lat="52.421111" lon="13.077654"><time>2023-09-17T13:59:56.000Z</time></trkpt><trkpt lat="52.420947" lon="13.077683"><time>2023-09-17T14:00:20.000Z</time></trkpt><trkpt lat="52.420793" lon="13.078039"><time>2023-09-17T14:00:48.000Z</time></trkpt><trkpt lat="52.420694" lon="13.078137"><time>2023-09-17T14:01:00.000Z</time></trkpt><trkpt lat="52.420523" lon="13.078217"><time>2023-09-17T14:01:20.000Z</time></trkpt><trkpt lat="52.42023" lon="13.078147"><time>2023-09-17T14:01:46.000Z</time></trkpt><trkpt lat="52.419925" lon="13.077866"><time>2023-09-17T14:02:22.000Z</time></trkpt><trkpt lat="52.419201" lon="13.077585"><time>2023-09-17T14:04:18.000Z</time></trkpt><trkpt lat="52.41894" lon="13.077573"><time>2023-09-17T14:04:44.000Z</time></trkpt><trkpt lat="52.418825" lon="13.077503"><time>2023-09-17T14:06:26.000Z</time></trkpt><trkpt lat="52.418823" lon="13.077581"><time>2023-09-17T14:06:36.000Z</time></trkpt><trkpt lat="52.418794" lon="13.077597"><time>2023-09-17T14:06:44.000Z</time></trkpt><trkpt lat="52.418369" lon="13.077516"><time>2023-09-17T14:07:24.000Z</time></trkpt><trkpt lat="52.417972" lon="13.077536"><time>2023-09-17T14:07:56.000Z</time></trkpt><trkpt lat="52.417377" lon="13.077922"><time>2023-09-17T14:09:06.000Z</time></trkpt><trkpt lat="52.416987" lon="13.07823"><time>2023-09-17T14:09:42.000Z</time></trkpt><trkpt lat="52.416563" lon="13.07876"><time>2023-09-17T14:10:38.000Z</time></trkpt><trkpt lat="52.41647" lon="13.07976"><time>2023-09-17T14:11:42.000Z</time></trkpt><trkpt lat="52.416199" lon="13.080338"><time>2023-09-17T14:12:30.000Z</time></trkpt><trkpt lat="52.41615" lon="13.080305"><time>2023-09-17T14:13:00.000Z</time></trkpt><trkpt lat="52.41616" lon="13.08048"><time>2023-09-17T14:13:10.000Z</time></trkpt><trkpt lat="52.4161" lon="13.080627"><time>2023-09-17T14:14:06.000Z</time></trkpt><trkpt lat="52.416138" lon="13.08061"><time>2023-09-17T14:14:40.000Z</time></trkpt><trkpt lat="52.416056" lon="13.080756"><time>2023-09-17T14:15:02.000Z</time></trkpt><trkpt lat="52.415997" lon="13.08117"><time>2023-09-17T14:15:28.000Z</time></trkpt><trkpt lat="52.415912" lon="13.081309"><time>2023-09-17T14:15:40.000Z</time></trkpt><trkpt lat="52.415863" lon="13.081545"><time>2023-09-17T14:15:56.000Z</time></trkpt><trkpt lat="52.415774" lon="13.081773"><time>2023-09-17T14:16:08.000Z</time></trkpt><trkpt lat="52.415757" lon="13.081957"><time>2023-09-17T14:16:18.000Z</time></trkpt><trkpt lat="52.415642" lon="13.082436"><time>2023-09-17T14:16:46.000Z</time></trkpt><trkpt lat="52.415563" lon="13.08245"><time>2023-09-17T14:17:02.000Z</time></trkpt><trkpt lat="52.415441" lon="13.082392"><time>2023-09-17T14:17:18.000Z</time></trkpt><trkpt lat="52.415331" lon="13.082495"><time>2023-09-17T14:17:40.000Z</time></trkpt><trkpt lat="52.415249" lon="13.082516"><time>2023-09-17T14:17:50.000Z</time></trkpt><trkpt lat="52.415177" lon="13.082639"><time>2023-09-17T14:18:06.000Z</time></trkpt><trkpt lat="52.415024" lon="13.082733"><time>2023-09-17T14:18:22.000Z</time></trkpt><trkpt lat="52.414799" lon="13.083037"><time>2023-09-17T14:18:54.000Z</time></trkpt><trkpt lat="52.414685" lon="13.083092"><time>2023-09-17T14:19:08.000Z</time></trkpt><trkpt lat="52.414277" lon="13.083517"><time>2023-09-17T14:19:54.000Z</time></trkpt><trkpt lat="52.414125" lon="13.083792"><time>2023-09-17T14:20:12.000Z</time></trkpt><trkpt lat="52.414003" lon="13.083884"><time>2023-09-17T14:20:28.000Z</time></trkpt><trkpt lat="52.413923" lon="13.084033"><time>2023-09-17T14:20:40.000Z</time></trkpt><trkpt lat="52.413676" lon="13.08408"><time>2023-09-17T14:20:54.000Z</time></trkpt><trkpt lat="52.413671" lon="13.084163"><time>2023-09-17T14:21:08.000Z</time></trkpt><trkpt lat="52.413582" lon="13.08429"><time>2023-09-17T14:21:30.000Z</time></trkpt><trkpt lat="52.413296" lon="13.084423"><time>2023-09-17T14:21:50.000Z</time></trkpt><trkpt lat="52.413149" lon="13.084732"><time>2023-09-17T14:22:04.000Z</time></trkpt><trkpt lat="52.412946" lon="13.084856"><time>2023-09-17T14:22:20.000Z</time></trkpt><trkpt lat="52.412898" lon="13.085009"><time>2023-09-17T14:22:30.000Z</time></trkpt><trkpt lat="52.412649" lon="13.085162"><time>2023-09-17T14:23:02.000Z</time></trkpt><trkpt lat="52.412595" lon="13.085334"><time>2023-09-17T14:23:30.000Z</time></trkpt><trkpt lat="52.412505" lon="13.085381"><time>2023-09-17T14:23:38.000Z</time></trkpt><trkpt lat="52.412574" lon="13.085516"><time>2023-09-17T14:24:06.000Z</time></trkpt><trkpt lat="52.412562" lon="13.085547"><time>2023-09-17T14:24:10.000Z</time></trkpt><trkpt lat="52.412648" lon="13.085822"><time>2023-09-17T14:24:35.000Z</time></trkpt><trkpt lat="52.412967" lon="13.086245"><time>2023-09-17T14:25:03.000Z</time></trkpt><trkpt lat="52.412966" lon="13.086604"><time>2023-09-17T14:25:21.000Z</time></trkpt><trkpt lat="52.412914" lon="13.086639"><time>2023-09-17T14:25:41.000Z</time></trkpt><trkpt lat="52.412927" lon="13.086685"><time>2023-09-17T14:26:29.000Z</time></trkpt><trkpt lat="52.412679" lon="13.085987"><time>2023-09-17T14:26:59.000Z</time></trkpt><trkpt lat="52.412574" lon="13.085462"><time>2023-09-17T14:27:11.000Z</time></trkpt><trkpt lat="52.410225" lon="13.080278"><time>2023-09-17T14:27:49.000Z</time></trkpt><trkpt lat="52.409872" lon="13.07962"><time>2023-09-17T14:28:05.000Z</time></trkpt><trkpt lat="52.409236" lon="13.077988"><time>2023-09-17T14:28:16.000Z</time></trkpt><trkpt lat="52.408749" lon="13.07687"><time>2023-09-17T14:28:24.000Z</time></trkpt><trkpt lat="52.408279" lon="13.075951"><time>2023-09-17T14:28:32.000Z</time></trkpt><trkpt lat="52.407991" lon="13.075584"><time>2023-09-17T14:28:38.000Z</time></trkpt><trkpt lat="52.407937" lon="13.075436"><time>2023-09-17T14:28:56.000Z</time></trkpt><trkpt lat="52.407964" lon="13.075608"><time>2023-09-17T14:29:18.000Z</time></trkpt><trkpt lat="52.408014" lon="13.075685"><time>2023-09-17T14:29:25.000Z</time></trkpt><trkpt lat="52.408127" lon="13.075732"><time>2023-09-17T14:29:31.000Z</time></trkpt><trkpt lat="52.408348" lon="13.075733"><time>2023-09-17T14:29:43.000Z</time></trkpt><trkpt lat="52.408618" lon="13.075994"><time>2023-09-17T14:30:11.000Z</time></trkpt><trkpt lat="52.408733" lon="13.07619"><time>2023-09-17T14:30:25.000Z</time></trkpt><trkpt lat="52.408788" lon="13.076551"><time>2023-09-17T14:30:45.000Z</time></trkpt><trkpt lat="52.408803" lon="13.076491"><time>2023-09-17T14:31:05.000Z</time></trkpt><trkpt lat="52.408764" lon="13.076369"><time>2023-09-17T14:31:11.000Z</time></trkpt><trkpt lat="52.408921" lon="13.076228"><time>2023-09-17T14:31:21.000Z</time></trkpt><trkpt lat="52.408886" lon="13.075997"><time>2023-09-17T14:31:29.000Z</time></trkpt><trkpt lat="52.40905" lon="13.076207"><time>2023-09-17T14:31:35.000Z</time></trkpt><trkpt lat="52.408996" lon="13.076109"><time>2023-09-17T14:31:41.000Z</time></trkpt><trkpt lat="52.40938" lon="13.076278"><time>2023-09-17T14:34:33.000Z</time></trkpt><trkpt lat="52.409072" lon="13.076462"><time>2023-09-17T14:34:35.000Z</time></trkpt><trkpt lat="52.408677" lon="13.076814"><time>2023-09-17T14:34:55.000Z</time></trkpt><trkpt lat="52.408943" lon="13.077153"><time>2023-09-17T14:35:27.000Z</time></trkpt><trkpt lat="52.408941" lon="13.077038"><time>2023-09-17T14:36:03.000Z</time></trkpt><trkpt lat="52.409113" lon="13.07714"><time>2023-09-17T14:38:31.000Z</time></trkpt><trkpt lat="52.408927" lon="13.07719"><time>2023-09-17T14:38:51.000Z</time></trkpt><trkpt lat="52.40888" lon="13.077159"><time>2023-09-17T14:39:23.000Z</time></trkpt><trkpt lat="52.408892" lon="13.077201"><time>2023-09-17T14:39:57.000Z</time></trkpt><trkpt lat="52.408847" lon="13.077209"><time>2023-09-17T14:40:11.000Z</time></trkpt><trkpt lat="52.408746" lon="13.077088"><time>2023-09-17T14:40:33.000Z</time></trkpt><trkpt lat="52.408764" lon="13.076941"><time>2023-09-17T14:40:39.000Z</time></trkpt><trkpt lat="52.408815" lon="13.076859"><time>2023-09-17T14:40:45.000Z</time></trkpt><trkpt lat="52.408905" lon="13.076944"><time>2023-09-17T14:40:53.000Z</time></trkpt><trkpt lat="52.409147" lon="13.076947"><time>2023-09-17T14:41:47.000Z</time></trkpt><trkpt lat="52.409278" lon="13.077154"><time>2023-09-17T14:42:01.000Z</time></trkpt><trkpt lat="52.409291" lon="13.077222"><time>2023-09-17T14:42:05.000Z</time></trkpt><trkpt lat="52.409202" lon="13.077207"><time>2023-09-17T14:42:11.000Z</time></trkpt><trkpt lat="52.409099" lon="13.076918"><time>2023-09-17T14:42:23.000Z</time></trkpt><trkpt lat="52.409053" lon="13.076878"><time>2023-09-17T14:42:25.000Z</time></trkpt><trkpt lat="52.409001" lon="13.076883"><time>2023-09-17T14:42:29.000Z</time></trkpt><trkpt lat="52.408893" lon="13.077023"><time>2023-09-17T14:43:35.000Z</time></trkpt><trkpt lat="52.408447" lon="13.076207"><time>2023-09-17T15:03:37.186Z</time></trkpt><trkpt lat="52.408335" lon="13.0762"><time>2023-09-17T15:03:48.000Z</time></trkpt><trkpt lat="52.408274" lon="13.07595"><time>2023-09-17T15:04:08.000Z</time></trkpt><trkpt lat="52.408106" lon="13.075765"><time>2023-09-17T15:04:30.000Z</time></trkpt><trkpt lat="52.40798" lon="13.075721"><time>2023-09-17T15:04:42.000Z</time></trkpt></trkseg></trk></gpx>