<?xml version="1.0" encoding="UTF-8"?><gpx creator="Health" xsi:schemaLocation="http://www.topografix.com/GPX/1/0 http://www.topografix.com/GPX/1/0/gpx.xsd" version="1.0" xmlns="http://www.topografix.com/GPX/1/0" xmlns:xsi="http://www.w3.org/2001/XMLSchema-instance"><metadata><time>2023-08-08T12:26:55.000Z</time></metadata><trk><type>Ходьба на улице</type><extensions><totalTime>8177.0</totalTime><cumulativeDecrease>-0.10000000149011612</cumulativeDecrease><cumulativeClimb>-0.10000000149011612</cumulativeClimb><totalDistance>8800.0</totalDistance></extensions><trkseg><trkpt lat="52.54415510802023" lon="13.546837049109294"><time>2023-08-08T12:26:55.000Z</time></trkpt><trkpt lat="52.54433467301762" lon="13.546568749250305"><time>2023-08-08T12:27:05.000Z</time></trkpt><trkpt lat="52.54440915434047" lon="13.5465090524479"><time>2023-08-08T12:27:10.000Z</time></trkpt><trkpt lat="52.54444429099801" lon="13.546529273565277"><time>2023-08-08T12:27:14.000Z</time></trkpt><trkpt lat="52.5445558130403" lon="13.547400588648456"><time>2023-08-08T12:27:56.000Z</time></trkpt><trkpt lat="52.54463765472075" lon="13.547770789066545"><time>2023-08-08T12:28:12.000Z</time></trkpt><trkpt lat="52.54463628460156" lon="13.547996621780023"><time>2023-08-08T12:28:24.000Z</time></trkpt><trkpt lat="52.54482265059085" lon="13.548293488200319"><time>2023-08-08T12:28:43.000Z</time></trkpt><trkpt lat="52.545213410101866" lon="13.548456506989332"><time>2023-08-08T12:29:12.000Z</time></trkpt><trkpt lat="52.54536066064795" lon="13.548015597059885"><time>2023-08-08T12:29:36.000Z</time></trkpt><trkpt lat="52.54540976170958" lon="13.547768473296253"><time>2023-08-08T12:29:51.000Z</time></trkpt><trkpt lat="52.54548572679077" lon="13.547598208926003"><time>2023-08-08T12:30:39.000Z</time></trkpt><trkpt lat="52.54546823617195" lon="13.547725728858957"><time>2023-08-08T12:30:51.000Z</time></trkpt><trkpt lat="52.545493180273" lon="13.547803775478828"><time>2023-08-08T12:31:01.000Z</time></trkpt><trkpt lat="52.54542279127227" lon="13.547875094200451"><time>2023-08-08T12:31:12.000Z</time></trkpt><trkpt lat="52.54537360645936" lon="13.548037476236818"><time>2023-08-08T12:31:20.000Z</time></trkpt><trkpt lat="52.54536657305346" lon="13.548378355189989"><time>2023-08-08T12:31:39.000Z</time></trkpt><trkpt lat="52.54560910950329" lon="13.548750370019155"><time>2023-08-08T12:32:13.000Z</time></trkpt><trkpt lat="52.546513208049255" lon="13.54955180894545"><time>2023-08-08T12:33:27.000Z</time></trkpt><trkpt lat="52.54686430716071" lon="13.549788152179548"><time>2023-08-08T12:33:54.000Z</time></trkpt><trkpt lat="52.54714697410436" lon="13.55010685437124"><time>2023-08-08T12:34:19.000Z</time></trkpt><trkpt lat="52.54747503625965" lon="13.550380885909874"><time>2023-08-08T12:35:02.000Z</time></trkpt><trkpt lat="52.54791927635938" lon="13.550657651101316"><time>2023-08-08T12:35:35.000Z</time></trkpt><trkpt lat="52.54816479820099" lon="13.550898035814638"><time>2023-08-08T12:35:56.000Z</time></trkpt><trkpt lat="52.54870173741265" lon="13.551311823705127"><time>2023-08-08T12:36:41.000Z</time></trkpt><trkpt lat="52.54908230982028" lon="13.551716909935642"><time>2023-08-08T12:37:19.000Z</time></trkpt><trkpt lat="52.54921598674998" lon="13.551399227264698"><time>2023-08-08T12:37:44.000Z</time></trkpt><trkpt lat="52.5493151054939" lon="13.550976061855145"><time>2023-08-08T12:38:08.000Z</time></trkpt><trkpt lat="52.5495735961297" lon="13.550440679846304"><time>2023-08-08T12:38:39.000Z</time></trkpt><trkpt lat="52.54980436454061" lon="13.549486549300234"><time>2023-08-08T12:39:24.000Z</time></trkpt><trkpt lat="52.549917648227414" lon="13.549335370246263"><time>2023-08-08T12:39:37.000Z</time></trkpt><trkpt lat="52.55007449809246" lon="13.549259692127162"><time>2023-08-08T12:39:49.000Z</time></trkpt><trkpt lat="52.550148998104355" lon="13.549140005456968"><time>2023-08-08T12:39:59.000Z</time></trkpt><trkpt lat="52.55020565234799" lon="13.549233330634392"><time>2023-08-08T12:40:18.000Z</time></trkpt><trkpt lat="52.55028135802047" lon="13.549246670426907"><time>2023-08-08T12:41:19.000Z</time></trkpt><trkpt lat="52.55052882450641" lon="13.548624327133284"><time>2023-08-08T12:41:55.000Z</time></trkpt><trkpt lat="52.55061655665538" lon="13.548648664221979"><time>2023-08-08T12:42:02.000Z</time></trkpt><trkpt lat="52.55076315661291" lon="13.548816110938118"><time>2023-08-08T12:42:14.000Z</time></trkpt><trkpt lat="52.55094200662086" lon="13.549073711172499"><time>2023-08-08T12:42:30.000Z</time></trkpt><trkpt lat="52.55096719471751" lon="13.549190958893023"><time>2023-08-08T12:42:36.000Z</time></trkpt><trkpt lat="52.55088318756662" lon="13.549549111159411"><time>2023-08-08T12:42:53.000Z</time></trkpt><trkpt lat="52.550782170492475" lon="13.549725740788794"><time>2023-08-08T12:43:06.000Z</time></trkpt><trkpt lat="52.550779390202365" lon="13.549930172006265"><time>2023-08-08T12:43:16.000Z</time></trkpt><trkpt lat="52.55097777599497" lon="13.550309005204094"><time>2023-08-08T12:43:40.000Z</time></trkpt><trkpt lat="52.5511404479904" lon="13.550769358298508"><time>2023-08-08T12:44:07.000Z</time></trkpt><trkpt lat="52.55116319075246" lon="13.550756178555247"><time>2023-08-08T12:44:24.000Z</time></trkpt><trkpt lat="52.55107183579521" lon="13.55086077195387"><time>2023-08-08T12:44:36.000Z</time></trkpt><trkpt lat="52.55097927970919" lon="13.551081584309223"><time>2023-08-08T12:44:48.000Z</time></trkpt><trkpt lat="52.5509424342544" lon="13.551248636143026"><time>2023-08-08T12:44:57.000Z</time></trkpt><trkpt lat="52.55096043963201" lon="13.551327473075203"><time>2023-08-08T12:45:03.000Z</time></trkpt><trkpt lat="52.55102210416469" lon="13.551323730608459"><time>2023-08-08T12:45:10.000Z</time></trkpt><trkpt lat="52.551098245339084" lon="13.551199682647127"><time>2023-08-08T12:45:24.000Z</time></trkpt><trkpt lat="52.55111595052162" lon="13.551112521311007"><time>2023-08-08T12:45:38.000Z</time></trkpt><trkpt lat="52.550983843590096" lon="13.551374103297858"><time>2023-08-08T12:46:45.000Z</time></trkpt><trkpt lat="52.55087025965845" lon="13.551843345615724"><time>2023-08-08T12:47:08.000Z</time></trkpt><trkpt lat="52.55063716234561" lon="13.552458654234668"><time>2023-08-08T12:47:40.000Z</time></trkpt><trkpt lat="52.550622210312056" lon="13.552983529740498"><time>2023-08-08T12:48:09.000Z</time></trkpt><trkpt lat="52.550482104188724" lon="13.553606801025039"><time>2023-08-08T12:48:44.000Z</time></trkpt><trkpt lat="52.550634798135384" lon="13.554161138409945"><time>2023-08-08T12:49:23.000Z</time></trkpt><trkpt lat="52.550786677850276" lon="13.554879624959892"><time>2023-08-08T12:50:20.000Z</time></trkpt><trkpt lat="52.550969352107956" lon="13.555438523605373"><time>2023-08-08T12:50:54.000Z</time></trkpt><trkpt lat="52.55099559457244" lon="13.555686817204627"><time>2023-08-08T12:51:06.000Z</time></trkpt><trkpt lat="52.55094292881929" lon="13.556162198306202"><time>2023-08-08T12:51:42.000Z</time></trkpt><trkpt lat="52.55121478465799" lon="13.556730017046766"><time>2023-08-08T12:53:14.000Z</time></trkpt><trkpt lat="52.55121183021692" lon="13.556952426148348"><time>2023-08-08T12:53:31.000Z</time></trkpt><trkpt lat="52.55125026011186" lon="13.557210838758623"><time>2023-08-08T12:53:44.000Z</time></trkpt><trkpt lat="52.55096809440625" lon="13.55823798184004"><time>2023-08-08T12:54:32.000Z</time></trkpt><trkpt lat="52.55033178130448" lon="13.559960411660489"><time>2023-08-08T12:56:04.000Z</time></trkpt><trkpt lat="52.550233092864595" lon="13.560452716917393"><time>2023-08-08T12:56:59.000Z</time></trkpt><trkpt lat="52.55101639958905" lon="13.560378706492713"><time>2023-08-08T12:58:30.000Z</time></trkpt><trkpt lat="52.551334860187474" lon="13.56028431397502"><time>2023-08-08T12:59:00.000Z</time></trkpt><trkpt lat="52.55070165980628" lon="13.561408824730622"><time>2023-08-08T13:00:54.000Z</time></trkpt><trkpt lat="52.55069622742867" lon="13.561505088506777"><time>2023-08-08T13:01:02.000Z</time></trkpt><trkpt lat="52.55081644862268" lon="13.561618218373576"><time>2023-08-08T13:01:15.000Z</time></trkpt><trkpt lat="52.55125852365973" lon="13.561840853567013"><time>2023-08-08T13:01:47.000Z</time></trkpt><trkpt lat="52.55145220763759" lon="13.56205545094342"><time>2023-08-08T13:02:04.000Z</time></trkpt><trkpt lat="52.55174813046677" lon="13.562677609979604"><time>2023-08-08T13:02:47.000Z</time></trkpt><trkpt lat="52.55184058238343" lon="13.562985735492235"><time>2023-08-08T13:03:18.000Z</time></trkpt><trkpt lat="52.55211984824132" lon="13.563447459890563"><time>2023-08-08T13:03:53.000Z</time></trkpt><trkpt lat="52.55224822134769" lon="13.563846476875494"><time>2023-08-08T13:04:20.000Z</time></trkpt><trkpt lat="52.552478315191294" lon="13.563946080876407"><time>2023-08-08T13:04:39.000Z</time></trkpt><trkpt lat="52.55306304415305" lon="13.56433075858642"><time>2023-08-08T13:05:29.000Z</time></trkpt><trkpt lat="52.55334026062455" lon="13.564616350803588"><time>2023-08-08T13:05:56.000Z</time></trkpt><trkpt lat="52.5535146473976" lon="13.564736259297394"><time>2023-08-08T13:06:09.000Z</time></trkpt><trkpt lat="52.553939037922234" lon="13.565192324824208"><time>2023-08-08T13:06:47.000Z</time></trkpt><trkpt lat="52.55437080745301" lon="13.565507669093746"><time>2023-08-08T13:07:28.000Z</time></trkpt><trkpt lat="52.554639437141304" lon="13.565583291215724"><time>2023-08-08T13:08:21.000Z</time></trkpt><trkpt lat="52.55470109460234" lon="13.565541846400833"><time>2023-08-08T13:10:33.000Z</time></trkpt><trkpt lat="52.55470661364927" lon="13.565491033469334"><time>2023-08-08T13:11:38.000Z</time></trkpt><trkpt lat="52.5548072235827" lon="13.565741811034622"><time>2023-08-08T13:11:54.000Z</time></trkpt><trkpt lat="52.554864563299866" lon="13.56599616455298"><time>2023-08-08T13:12:05.000Z</time></trkpt><trkpt lat="52.55494475670886" lon="13.566134463416859"><time>2023-08-08T13:12:15.000Z</time></trkpt><trkpt lat="52.555545969156995" lon="13.566752005184078"><time>2023-08-08T13:13:16.000Z</time></trkpt><trkpt lat="52.555828596559394" lon="13.566957126888877"><time>2023-08-08T13:14:04.000Z</time></trkpt><trkpt lat="52.55581866656772" lon="13.567450392032738"><time>2023-08-08T13:14:41.000Z</time></trkpt><trkpt lat="52.55601728821361" lon="13.567591573239678"><time>2023-08-08T13:15:13.000Z</time></trkpt><trkpt lat="52.55605591945038" lon="13.567838121086197"><time>2023-08-08T13:15:28.000Z</time></trkpt><trkpt lat="52.55613430596214" lon="13.568001292408205"><time>2023-08-08T13:15:39.000Z</time></trkpt><trkpt lat="52.556489415077756" lon="13.568226427861338"><time>2023-08-08T13:16:33.000Z</time></trkpt><trkpt lat="52.55646350776795" lon="13.568270601702737"><time>2023-08-08T13:17:17.000Z</time></trkpt><trkpt lat="52.557275132410524" lon="13.568466116921345"><time>2023-08-08T13:18:37.000Z</time></trkpt><trkpt lat="52.55810403041896" lon="13.568769871745054"><time>2023-08-08T13:19:43.000Z</time></trkpt><trkpt lat="52.55845423890534" lon="13.56881644377845"><time>2023-08-08T13:20:16.000Z</time></trkpt><trkpt lat="52.5591546776408" lon="13.569004107010839"><time>2023-08-08T13:21:31.000Z</time></trkpt><trkpt lat="52.559230670510495" lon="13.569074066944363"><time>2023-08-08T13:22:03.000Z</time></trkpt><trkpt lat="52.55965102349153" lon="13.569226687843239"><time>2023-08-08T13:22:35.000Z</time></trkpt><trkpt lat="52.55971291097926" lon="13.569291909705496"><time>2023-08-08T13:22:41.000Z</time></trkpt><trkpt lat="52.559739366189795" lon="13.569402915314894"><time>2023-08-08T13:22:53.000Z</time></trkpt><trkpt lat="52.55975628353471" lon="13.569218392860622"><time>2023-08-08T13:23:17.000Z</time></trkpt><trkpt lat="52.55981484073996" lon="13.569132843286868"><time>2023-08-08T13:23:24.000Z</time></trkpt><trkpt lat="52.56020850141218" lon="13.569208625154545"><time>2023-08-08T13:23:53.000Z</time></trkpt><trkpt lat="52.5609619133417" lon="13.569576018562906"><time>2023-08-08T13:25:01.000Z</time></trkpt><trkpt lat="52.56121997273345" lon="13.569600285859526"><time>2023-08-08T13:25:58.000Z</time></trkpt><trkpt lat="52.56163739680844" lon="13.569776093946519"><time>2023-08-08T13:26:41.000Z</time></trkpt><trkpt lat="52.56170627355426" lon="13.569835800004741"><time>2023-08-08T13:27:32.000Z</time></trkpt><trkpt lat="52.56172170892271" lon="13.57000043272284"><time>2023-08-08T13:28:48.000Z</time></trkpt><trkpt lat="52.56170249703792" lon="13.569996511947574"><time>2023-08-08T13:29:23.000Z</time></trkpt><trkpt lat="52.56152902423999" lon="13.571165485972758"><time>2023-08-08T13:30:34.000Z</time></trkpt><trkpt lat="52.56147702260859" lon="13.571869519542402"><time>2023-08-08T13:31:25.000Z</time></trkpt><trkpt lat="52.56143425187501" lon="13.571908864333988"><time>2023-08-08T13:33:29.000Z</time></trkpt><trkpt lat="52.56141611813139" lon="13.57200339602149"><time>2023-08-08T13:33:50.000Z</time></trkpt><trkpt lat="52.561364625500644" lon="13.57265665600894"><time>2023-08-08T13:34:20.000Z</time></trkpt><trkpt lat="52.56137799163113" lon="13.573108184192966"><time>2023-08-08T13:34:41.000Z</time></trkpt><trkpt lat="52.56134646084363" lon="13.573503731754904"><time>2023-08-08T13:35:39.000Z</time></trkpt><trkpt lat="52.561586795182535" lon="13.574696910368312"><time>2023-08-08T13:36:40.000Z</time></trkpt><trkpt lat="52.56164909414367" lon="13.575271742685631"><time>2023-08-08T13:37:11.000Z</time></trkpt><trkpt lat="52.56162918606585" lon="13.575531266671288"><time>2023-08-08T13:37:28.000Z</time></trkpt><trkpt lat="52.561611023593805" lon="13.575478166662663"><time>2023-08-08T13:39:18.000Z</time></trkpt><trkpt lat="52.56157687034516" lon="13.575535132556217"><time>2023-08-08T13:40:40.000Z</time></trkpt><trkpt lat="52.561591661250446" lon="13.575446929031209"><time>2023-08-08T13:41:29.000Z</time></trkpt><trkpt lat="52.56159503631569" lon="13.575519796317415"><time>2023-08-08T13:42:05.000Z</time></trkpt><trkpt lat="52.561584894760706" lon="13.575815608152197"><time>2023-08-08T13:42:56.000Z</time></trkpt><trkpt lat="52.5615571682095" lon="13.576075872883417"><time>2023-08-08T13:43:09.000Z</time></trkpt><trkpt lat="52.561446276359554" lon="13.576577532810093"><time>2023-08-08T13:43:49.000Z</time></trkpt><trkpt lat="52.561327828239925" lon="13.576590316558889"><time>2023-08-08T13:44:18.000Z</time></trkpt><trkpt lat="52.56105026826597" lon="13.576326158704934"><time>2023-08-08T13:44:45.000Z</time></trkpt><trkpt lat="52.560798120059644" lon="13.57666472394871"><time>2023-08-08T13:45:56.000Z</time></trkpt><trkpt lat="52.56056247123447" lon="13.576757602014418"><time>2023-08-08T13:46:38.000Z</time></trkpt><trkpt lat="52.559906682322136" lon="13.57688081603767"><time>2023-08-08T13:47:23.000Z</time></trkpt><trkpt lat="52.559202077773655" lon="13.576840190946125"><time>2023-08-08T13:48:16.000Z</time></trkpt><trkpt lat="52.558907441181624" lon="13.576917317160913"><time>2023-08-08T13:48:39.000Z</time></trkpt><trkpt lat="52.55852614053458" lon="13.577413135498885"><time>2023-08-08T13:49:18.000Z</time></trkpt><trkpt lat="52.55823254948955" lon="13.578167092667222"><time>2023-08-08T13:50:04.000Z</time></trkpt><trkpt lat="52.558001707611034" lon="13.5784754417179"><time>2023-08-08T13:50:27.000Z</time></trkpt><trkpt lat="52.55780016429254" lon="13.578637357597545"><time>2023-08-08T13:50:49.000Z</time></trkpt><trkpt lat="52.55791459923331" lon="13.578709541972454"><time>2023-08-08T13:51:56.000Z</time></trkpt><trkpt lat="52.55729008552439" lon="13.578531127452917"><time>2023-08-08T13:52:50.000Z</time></trkpt><trkpt lat="52.55693153212114" lon="13.578322166376443"><time>2023-08-08T13:53:23.000Z</time></trkpt><trkpt lat="52.5562455873174" lon="13.578146294566478"><time>2023-08-08T13:54:39.000Z</time></trkpt><trkpt lat="52.55545199528683" lon="13.578360644550338"><time>2023-08-08T13:55:33.000Z</time></trkpt><trkpt lat="52.55510530171678" lon="13.578202069744485"><time>2023-08-08T13:56:02.000Z</time></trkpt><trkpt lat="52.55488312427228" lon="13.578409151238487"><time>2023-08-08T13:56:21.000Z</time></trkpt><trkpt lat="52.55467838062468" lon="13.57869276763801"><time>2023-08-08T13:56:54.000Z</time></trkpt><trkpt lat="52.55434241608902" lon="13.578215981022941"><time>2023-08-08T13:57:39.000Z</time></trkpt><trkpt lat="52.55425901993563" lon="13.578208182921532"><time>2023-08-08T13:57:48.000Z</time></trkpt><trkpt lat="52.55411549371535" lon="13.578332418002368"><time>2023-08-08T13:58:13.000Z</time></trkpt><trkpt lat="52.55347780921359" lon="13.579610880343635"><time>2023-08-08T14:00:02.000Z</time></trkpt><trkpt lat="52.553148720553594" lon="13.580124966162437"><time>2023-08-08T14:00:32.000Z</time></trkpt><trkpt lat="52.55281313942894" lon="13.58096927182475"><time>2023-08-08T14:01:19.000Z</time></trkpt><trkpt lat="52.55209060789752" lon="13.582124865124262"><time>2023-08-08T14:02:34.000Z</time></trkpt><trkpt lat="52.55193237717513" lon="13.582530946634622"><time>2023-08-08T14:03:29.000Z</time></trkpt><trkpt lat="52.55104581413027" lon="13.582245980999595"><time>2023-08-08T14:05:27.000Z</time></trkpt><trkpt lat="52.55080850870848" lon="13.582246822179332"><time>2023-08-08T14:05:43.000Z</time></trkpt><trkpt lat="52.55032125904625" lon="13.582152731954848"><time>2023-08-08T14:06:20.000Z</time></trkpt><trkpt lat="52.55028841463157" lon="13.582353217562838"><time>2023-08-08T14:06:35.000Z</time></trkpt><trkpt lat="52.55022949986154" lon="13.582435717273746"><time>2023-08-08T14:06:42.000Z</time></trkpt><trkpt lat="52.54941438721955" lon="13.582902838510513"><time>2023-08-08T14:07:48.000Z</time></trkpt><trkpt lat="52.54914610174963" lon="13.582906691141154"><time>2023-08-08T14:08:11.000Z</time></trkpt><trkpt lat="52.5490434070095" lon="13.582651707542226"><time>2023-08-08T14:08:31.000Z</time></trkpt><trkpt lat="52.549129630165474" lon="13.582959119592802"><time>2023-08-08T14:09:07.000Z</time></trkpt><trkpt lat="52.548981657717036" lon="13.583122362606268"><time>2023-08-08T14:09:26.000Z</time></trkpt><trkpt lat="52.54889369359917" lon="13.583304721084742"><time>2023-08-08T14:09:42.000Z</time></trkpt><trkpt lat="52.548986363179644" lon="13.583582035909801"><time>2023-08-08T14:10:00.000Z</time></trkpt><trkpt lat="52.54898164372321" lon="13.583639490429324"><time>2023-08-08T14:10:05.000Z</time></trkpt><trkpt lat="52.54867340547108" lon="13.58410661907917"><time>2023-08-08T14:10:39.000Z</time></trkpt><trkpt lat="52.548401611434294" lon="13.584231892872971"><time>2023-08-08T14:11:02.000Z</time></trkpt><trkpt lat="52.548263255934074" lon="13.584243100875746"><time>2023-08-08T14:11:12.000Z</time></trkpt><trkpt lat="52.54795865986247" lon="13.584151712063418"><time>2023-08-08T14:11:33.000Z</time></trkpt><trkpt lat="52.547776212992105" lon="13.583992688771383"><time>2023-08-08T14:11:48.000Z</time></trkpt><trkpt lat="52.547571202689845" lon="13.583685444190875"><time>2023-08-08T14:12:09.000Z</time></trkpt><trkpt lat="52.54747381171078" lon="13.583598424139735"><time>2023-08-08T14:12:18.000Z</time></trkpt><trkpt lat="52.54693363434682" lon="13.583535941995988"><time>2023-08-08T14:13:01.000Z</time></trkpt><trkpt lat="52.54654444044533" lon="13.583327209623782"><time>2023-08-08T14:13:42.000Z</time></trkpt><trkpt lat="52.54627311094393" lon="13.583000180435203"><time>2023-08-08T14:13:58.000Z</time></trkpt><trkpt lat="52.54618315850703" lon="13.582814566549974"><time>2023-08-08T14:14:06.000Z</time></trkpt><trkpt lat="52.54608829996291" lon="13.582486885788574"><time>2023-08-08T14:14:20.000Z</time></trkpt><trkpt lat="52.54597514456118" lon="13.582347674586243"><time>2023-08-08T14:14:33.000Z</time></trkpt><trkpt lat="52.545144263363156" lon="13.582209428702015"><time>2023-08-08T14:15:40.000Z</time></trkpt><trkpt lat="52.54475082330539" lon="13.581950000101864"><time>2023-08-08T14:16:11.000Z</time></trkpt><trkpt lat="52.544413562746875" lon="13.581346321627136"><time>2023-08-08T14:16:47.000Z</time></trkpt><trkpt lat="52.54420211080098" lon="13.580735290421954"><time>2023-08-08T14:17:22.000Z</time></trkpt><trkpt lat="52.54405451733135" lon="13.580442319531421"><time>2023-08-08T14:17:39.000Z</time></trkpt><trkpt lat="52.54342724077777" lon="13.579536355329747"><time>2023-08-08T14:18:47.000Z</time></trkpt><trkpt lat="52.543114023710295" lon="13.579231497955375"><time>2023-08-08T14:19:17.000Z</time></trkpt><trkpt lat="52.54283147275111" lon="13.579042426692814"><time>2023-08-08T14:19:50.000Z</time></trkpt><trkpt lat="52.54148347833" lon="13.578607453352925"><time>2023-08-08T14:21:39.000Z</time></trkpt><trkpt lat="52.540733652848424" lon="13.578018218701404"><time>2023-08-08T14:22:48.000Z</time></trkpt><trkpt lat="52.540227154349786" lon="13.577315735326271"><time>2023-08-08T14:26:32.000Z</time></trkpt><trkpt lat="52.54019968996499" lon="13.5771643617895"><time>2023-08-08T14:26:40.000Z</time></trkpt><trkpt lat="52.54023855085495" lon="13.576538334982722"><time>2023-08-08T14:27:11.000Z</time></trkpt><trkpt lat="52.54005472972574" lon="13.576453252718174"><time>2023-08-08T14:27:28.000Z</time></trkpt><trkpt lat="52.53999929584615" lon="13.576358896129348"><time>2023-08-08T14:27:35.000Z</time></trkpt><trkpt lat="52.53999878539507" lon="13.575979403900106"><time>2023-08-08T14:27:54.000Z</time></trkpt><trkpt lat="52.5400509425522" lon="13.575500879629242"><time>2023-08-08T14:28:16.000Z</time></trkpt><trkpt lat="52.54005963362929" lon="13.575114804169374"><time>2023-08-08T14:28:35.000Z</time></trkpt><trkpt lat="52.54024769226194" lon="13.573030070745409"><time>2023-08-08T14:30:16.000Z</time></trkpt><trkpt lat="52.54031940089074" lon="13.572604822104267"><time>2023-08-08T14:30:38.000Z</time></trkpt><trkpt lat="52.54043820643817" lon="13.572271097218344"><time>2023-08-08T14:30:57.000Z</time></trkpt><trkpt lat="52.54039896040663" lon="13.571798995953014"><time>2023-08-08T14:31:21.000Z</time></trkpt><trkpt lat="52.54048538333572" lon="13.570682591269032"><time>2023-08-08T14:32:18.000Z</time></trkpt><trkpt lat="52.54055830020224" lon="13.570116807109484"><time>2023-08-08T14:32:47.000Z</time></trkpt><trkpt lat="52.54061267740451" lon="13.570001240092665"><time>2023-08-08T14:32:55.000Z</time></trkpt><trkpt lat="52.5406787800479" lon="13.569978318590934"><time>2023-08-08T14:33:09.000Z</time></trkpt><trkpt lat="52.540656837056865" lon="13.569762682439938"><time>2023-08-08T14:33:27.000Z</time></trkpt><trkpt lat="52.540729469950726" lon="13.569467701237086"><time>2023-08-08T14:33:44.000Z</time></trkpt><trkpt lat="52.54083135365258" lon="13.569441315172343"><time>2023-08-08T14:33:57.000Z</time></trkpt><trkpt lat="52.5417188291488" lon="13.569796186535417"><time>2023-08-08T14:35:09.000Z</time></trkpt><trkpt lat="52.54357567594389" lon="13.570413355885647"><time>2023-08-08T14:37:44.000Z</time></trkpt><trkpt lat="52.5441359488208" lon="13.570550770587005"><time>2023-08-08T14:39:03.000Z</time></trkpt><trkpt lat="52.54467421841739" lon="13.570742461695396"><time>2023-08-08T14:39:48.000Z</time></trkpt><trkpt lat="52.545168810208786" lon="13.57079377974179"><time>2023-08-08T14:40:27.000Z</time></trkpt><trkpt lat="52.54564083109829" lon="13.570999095653034"><time>2023-08-08T14:41:10.000Z</time></trkpt><trkpt lat="52.54592290761191" lon="13.571059220572591"><time>2023-08-08T14:41:30.000Z</time></trkpt><trkpt lat="52.54596009013871" lon="13.570978950485436"><time>2023-08-08T14:41:38.000Z</time></trkpt><trkpt lat="52.54589862077267" lon="13.570517141046361"><time>2023-08-08T14:41:55.000Z</time></trkpt><trkpt lat="52.54530094306134" lon="13.568312017560995"><time>2023-08-08T14:42:08.000Z</time></trkpt></trkseg></trk></gpx>