<?xml version="1.0" encoding="UTF-8"?><gpx creator="Health" xsi:schemaLocation="http://www.topografix.com/GPX/1/0 http://www.topografix.com/GPX/1/0/gpx.xsd" version="1.0" xmlns="http://www.topografix.com/GPX/1/0" xmlns:xsi="http://www.w3.org/2001/XMLSchema-instance"><metadata><time>2023-05-05T07:37:00.000Z</time></metadata><trk><type>Ходьба на улице</type><extensions><totalTime>504.0</totalTime><cumulativeDecrease>-0.10000000149011612</cumulativeDecrease><cumulativeClimb>-0.10000000149011612</cumulativeClimb><totalDistance>550.0</totalDistance></extensions><trkseg><trkpt lat="52.53461505274202" lon="13.380762110592444"><time>2023-05-05T07:37:00.000Z</time></trkpt><trkpt lat="52.534605854334515" lon="13.380765346963766"><time>2023-05-05T07:37:01.000Z</time></trkpt><trkpt lat="52.534596522582376" lon="13.38075542801672"><time>2023-05-05T07:37:02.000Z</time></trkpt><trkpt lat="52.53458410936096" lon="13.38075138605635"><time>2023-05-05T07:37:03.000Z</time></trkpt><trkpt lat="52.534571548716826" lon="13.380742958539571"><time>2023-05-05T07:37:04.000Z</time></trkpt><trkpt lat="52.53456420190799" lon="13.380743121622265"><time>2023-05-05T07:37:05.000Z</time></trkpt><trkpt lat="52.53455520234318" lon="13.380741423362524"><time>2023-05-05T07:37:06.000Z</time></trkpt><trkpt lat="52.534546593915" lon="13.380739756351579"><time>2023-05-05T07:37:07.000Z</time></trkpt><trkpt lat="52.534538331637435" lon="13.380739300578142"><time>2023-05-05T07:37:08.000Z</time></trkpt><trkpt lat="52.53453067963565" lon="13.38073954564607"><time>2023-05-05T07:37:09.000Z</time></trkpt><trkpt lat="52.53452390520356" lon="13.380740733872965"><time>2023-05-05T07:37:10.000Z</time></trkpt><trkpt lat="52.53451789443935" lon="13.380742678444035"><time>2023-05-05T07:37:11.000Z</time></trkpt><trkpt lat="52.53451274817814" lon="13.380745114849766"><time>2023-05-05T07:37:12.000Z</time></trkpt><trkpt lat="52.534508460935285" lon="13.380747386563543"><time>2023-05-05T07:37:13.000Z</time></trkpt><trkpt lat="52.53450444670205" lon="13.380748743936634"><time>2023-05-05T07:37:14.000Z</time></trkpt><trkpt lat="52.53450075033823" lon="13.380749397426372"><time>2023-05-05T07:37:15.000Z</time></trkpt><trkpt lat="52.53449750394794" lon="13.380749230219475"><time>2023-05-05T07:37:16.000Z</time></trkpt><trkpt lat="52.53449468361311" lon="13.380748006000436"><time>2023-05-05T07:37:17.000Z</time></trkpt><trkpt lat="52.534491952252395" lon="13.380745902286673"><time>2023-05-05T07:37:18.000Z</time></trkpt><trkpt lat="52.534489278603" lon="13.380743094743288"><time>2023-05-05T07:37:19.000Z</time></trkpt><trkpt lat="52.53448669948743" lon="13.380739656163037"><time>2023-05-05T07:37:20.000Z</time></trkpt><trkpt lat="52.53448401565857" lon="13.380735913466047"><time>2023-05-05T07:37:21.000Z</time></trkpt><trkpt lat="52.5344812650789" lon="13.38073224046866"><time>2023-05-05T07:37:22.000Z</time></trkpt><trkpt lat="52.53447859259047" lon="13.380729703482945"><time>2023-05-05T07:37:23.000Z</time></trkpt><trkpt lat="52.534476289412616" lon="13.3807286991184"><time>2023-05-05T07:37:24.000Z</time></trkpt><trkpt lat="52.53447436841088" lon="13.380729705092206"><time>2023-05-05T07:37:25.000Z</time></trkpt><trkpt lat="52.534472939403074" lon="13.380733052121208"><time>2023-05-05T07:37:26.000Z</time></trkpt><trkpt lat="52.53447208115816" lon="13.380738933654237"><time>2023-05-05T07:37:27.000Z</time></trkpt><trkpt lat="52.53447183807995" lon="13.38074718112714"><time>2023-05-05T07:37:28.000Z</time></trkpt><trkpt lat="52.534472158030844" lon="13.380758219235974"><time>2023-05-05T07:37:29.000Z</time></trkpt><trkpt lat="52.53447303279538" lon="13.380772153933442"><time>2023-05-05T07:37:30.000Z</time></trkpt><trkpt lat="52.53447439408905" lon="13.380788635684091"><time>2023-05-05T07:37:31.000Z</time></trkpt><trkpt lat="52.53447627048545" lon="13.380807812693273"><time>2023-05-05T07:37:32.000Z</time></trkpt><trkpt lat="52.53447883279582" lon="13.380829706709658"><time>2023-05-05T07:37:33.000Z</time></trkpt><trkpt lat="52.534481762524365" lon="13.380852926279486"><time>2023-05-05T07:37:34.000Z</time></trkpt><trkpt lat="52.53448545921033" lon="13.380877058414125"><time>2023-05-05T07:37:35.000Z</time></trkpt><trkpt lat="52.53449032903895" lon="13.38090134779373"><time>2023-05-05T07:37:36.000Z</time></trkpt><trkpt lat="52.534496599182724" lon="13.380925276155915"><time>2023-05-05T07:37:37.000Z</time></trkpt><trkpt lat="52.53450438062121" lon="13.380948543129493"><time>2023-05-05T07:37:38.000Z</time></trkpt><trkpt lat="52.53451383119816" lon="13.380971371873185"><time>2023-05-05T07:37:39.000Z</time></trkpt><trkpt lat="52.534525135122614" lon="13.38099346165666"><time>2023-05-05T07:37:40.000Z</time></trkpt><trkpt lat="52.53453834002642" lon="13.381014661945427"><time>2023-05-05T07:37:41.000Z</time></trkpt><trkpt lat="52.53455339861584" lon="13.381035284684735"><time>2023-05-05T07:37:42.000Z</time></trkpt><trkpt lat="52.53457016689424" lon="13.381054808003187"><time>2023-05-05T07:37:43.000Z</time></trkpt><trkpt lat="52.534588419402546" lon="13.38107289911735"><time>2023-05-05T07:37:44.000Z</time></trkpt><trkpt lat="52.53460817341283" lon="13.381089764266664"><time>2023-05-05T07:37:45.000Z</time></trkpt><trkpt lat="52.534628518085036" lon="13.381105407443567"><time>2023-05-05T07:37:46.000Z</time></trkpt><trkpt lat="52.5346490155393" lon="13.381120188773231"><time>2023-05-05T07:37:47.000Z</time></trkpt><trkpt lat="52.534669393278016" lon="13.381134311218364"><time>2023-05-05T07:37:48.000Z</time></trkpt><trkpt lat="52.53468944537849" lon="13.381147785729087"><time>2023-05-05T07:37:49.000Z</time></trkpt><trkpt lat="52.534708960286004" lon="13.381160298606027"><time>2023-05-05T07:37:50.000Z</time></trkpt><trkpt lat="52.53472789139855" lon="13.38117167948996"><time>2023-05-05T07:37:51.000Z</time></trkpt><trkpt lat="52.53474624319465" lon="13.381181775672355"><time>2023-05-05T07:37:52.000Z</time></trkpt><trkpt lat="52.53476401012702" lon="13.381190535102052"><time>2023-05-05T07:37:53.000Z</time></trkpt><trkpt lat="52.53478118521937" lon="13.381198174863393"><time>2023-05-05T07:37:54.000Z</time></trkpt><trkpt lat="52.53479774296627" lon="13.381204808160993"><time>2023-05-05T07:37:55.000Z</time></trkpt><trkpt lat="52.534813646204384" lon="13.381210432525949"><time>2023-05-05T07:37:56.000Z</time></trkpt><trkpt lat="52.534828876389405" lon="13.381215150196114"><time>2023-05-05T07:37:57.000Z</time></trkpt><trkpt lat="52.534843463485416" lon="13.381219182154258"><time>2023-05-05T07:37:58.000Z</time></trkpt><trkpt lat="52.5348573293444" lon="13.381222494210654"><time>2023-05-05T07:37:59.000Z</time></trkpt><trkpt lat="52.534870171050216" lon="13.381224307529875"><time>2023-05-05T07:38:00.000Z</time></trkpt><trkpt lat="52.53488169043717" lon="13.381224623815841"><time>2023-05-05T07:38:01.000Z</time></trkpt><trkpt lat="52.534891623037126" lon="13.381223392063475"><time>2023-05-05T07:38:02.000Z</time></trkpt><trkpt lat="52.53489967487851" lon="13.381220694188933"><time>2023-05-05T07:38:03.000Z</time></trkpt><trkpt lat="52.53490602823749" lon="13.381216409110168"><time>2023-05-05T07:38:04.000Z</time></trkpt><trkpt lat="52.53491119426701" lon="13.381210332621391"><time>2023-05-05T07:38:05.000Z</time></trkpt><trkpt lat="52.53491545572275" lon="13.38120241784621"><time>2023-05-05T07:38:06.000Z</time></trkpt><trkpt lat="52.53491911448359" lon="13.38119304545887"><time>2023-05-05T07:38:07.000Z</time></trkpt><trkpt lat="52.53492255295679" lon="13.381182698651616"><time>2023-05-05T07:38:08.000Z</time></trkpt><trkpt lat="52.534925753772995" lon="13.381171318298879"><time>2023-05-05T07:38:09.000Z</time></trkpt><trkpt lat="52.53492912767103" lon="13.381159216911005"><time>2023-05-05T07:38:10.000Z</time></trkpt><trkpt lat="52.53493309029656" lon="13.381146835933203"><time>2023-05-05T07:38:11.000Z</time></trkpt><trkpt lat="52.53493794063076" lon="13.381134592046573"><time>2023-05-05T07:38:12.000Z</time></trkpt><trkpt lat="52.53494395853466" lon="13.38112210582667"><time>2023-05-05T07:38:13.000Z</time></trkpt><trkpt lat="52.53495155899878" lon="13.381109199938924"><time>2023-05-05T07:38:14.000Z</time></trkpt><trkpt lat="52.53496065197517" lon="13.381095863674188"><time>2023-05-05T07:38:15.000Z</time></trkpt><trkpt lat="52.53497078753546" lon="13.381082366289245"><time>2023-05-05T07:38:16.000Z</time></trkpt><trkpt lat="52.5349817039863" lon="13.381068805377096"><time>2023-05-05T07:38:17.000Z</time></trkpt><trkpt lat="52.53499316797997" lon="13.381055302664038"><time>2023-05-05T07:38:18.000Z</time></trkpt><trkpt lat="52.53500473324837" lon="13.381041679545639"><time>2023-05-05T07:38:19.000Z</time></trkpt><trkpt lat="52.535016328185186" lon="13.381028051279658"><time>2023-05-05T07:38:20.000Z</time></trkpt><trkpt lat="52.53502762926715" lon="13.381014756427124"><time>2023-05-05T07:38:21.000Z</time></trkpt><trkpt lat="52.535038671161345" lon="13.381002542529579"><time>2023-05-05T07:38:22.000Z</time></trkpt><trkpt lat="52.5350496910221" lon="13.380991631724283"><time>2023-05-05T07:38:23.000Z</time></trkpt><trkpt lat="52.53506073988521" lon="13.380982900751803"><time>2023-05-05T07:38:24.000Z</time></trkpt><trkpt lat="52.53507176203055" lon="13.380976779188178"><time>2023-05-05T07:38:25.000Z</time></trkpt><trkpt lat="52.53508284919615" lon="13.380973443173263"><time>2023-05-05T07:38:26.000Z</time></trkpt><trkpt lat="52.53509409359624" lon="13.38097278804532"><time>2023-05-05T07:38:27.000Z</time></trkpt><trkpt lat="52.53510558093682" lon="13.380974845392142"><time>2023-05-05T07:38:28.000Z</time></trkpt><trkpt lat="52.53511713585926" lon="13.380979137070325"><time>2023-05-05T07:38:29.000Z</time></trkpt><trkpt lat="52.53512889773537" lon="13.380985533059867"><time>2023-05-05T07:38:30.000Z</time></trkpt><trkpt lat="52.53514089571377" lon="13.380993938392084"><time>2023-05-05T07:38:31.000Z</time></trkpt><trkpt lat="52.53515299813546" lon="13.381003989618199"><time>2023-05-05T07:38:32.000Z</time></trkpt><trkpt lat="52.53516505869393" lon="13.381015312852146"><time>2023-05-05T07:38:33.000Z</time></trkpt><trkpt lat="52.53517680289411" lon="13.38102761123932"><time>2023-05-05T07:38:34.000Z</time></trkpt><trkpt lat="52.53518824750308" lon="13.38104042522523"><time>2023-05-05T07:38:35.000Z</time></trkpt><trkpt lat="52.53519934074118" lon="13.381053456673811"><time>2023-05-05T07:38:36.000Z</time></trkpt><trkpt lat="52.535209908821614" lon="13.38106665605237"><time>2023-05-05T07:38:37.000Z</time></trkpt><trkpt lat="52.53521981322849" lon="13.381080014171948"><time>2023-05-05T07:38:38.000Z</time></trkpt><trkpt lat="52.53522896310462" lon="13.381093372089408"><time>2023-05-05T07:38:39.000Z</time></trkpt><trkpt lat="52.53523743613817" lon="13.381107135690591"><time>2023-05-05T07:38:40.000Z</time></trkpt><trkpt lat="52.53524515484018" lon="13.381121157056402"><time>2023-05-05T07:38:41.000Z</time></trkpt><trkpt lat="52.535252204698764" lon="13.38113531270306"><time>2023-05-05T07:38:42.000Z</time></trkpt><trkpt lat="52.535258857413965" lon="13.381149468335325"><time>2023-05-05T07:38:43.000Z</time></trkpt><trkpt lat="52.5352652360356" lon="13.381163553123406"><time>2023-05-05T07:38:44.000Z</time></trkpt><trkpt lat="52.535271619649706" lon="13.381177504524935"><time>2023-05-05T07:38:45.000Z</time></trkpt><trkpt lat="52.53527791420254" lon="13.381191455572122"><time>2023-05-05T07:38:46.000Z</time></trkpt><trkpt lat="52.535284125365095" lon="13.381205481142853"><time>2023-05-05T07:38:47.000Z</time></trkpt><trkpt lat="52.53529032227237" lon="13.381219696489126"><time>2023-05-05T07:38:48.000Z</time></trkpt><trkpt lat="52.53529654539318" lon="13.381234294036393"><time>2023-05-05T07:38:49.000Z</time></trkpt><trkpt lat="52.53530287386611" lon="13.381249444659716"><time>2023-05-05T07:38:50.000Z</time></trkpt><trkpt lat="52.535309462936766" lon="13.381265008940703"><time>2023-05-05T07:38:51.000Z</time></trkpt><trkpt lat="52.5353163682879" lon="13.381281107012217"><time>2023-05-05T07:38:52.000Z</time></trkpt><trkpt lat="52.535323503130364" lon="13.38129789201997"><time>2023-05-05T07:38:53.000Z</time></trkpt><trkpt lat="52.53533070839017" lon="13.381315373198653"><time>2023-05-05T07:38:54.000Z</time></trkpt><trkpt lat="52.53533787323097" lon="13.381333654513066"><time>2023-05-05T07:38:55.000Z</time></trkpt><trkpt lat="52.53534478901522" lon="13.381352836852761"><time>2023-05-05T07:38:56.000Z</time></trkpt><trkpt lat="52.53535141180677" lon="13.381372817014075"><time>2023-05-05T07:38:57.000Z</time></trkpt><trkpt lat="52.5353577454838" lon="13.381393488967547"><time>2023-05-05T07:38:58.000Z</time></trkpt><trkpt lat="52.53536374064463" lon="13.381414369582336"><time>2023-05-05T07:38:59.000Z</time></trkpt><trkpt lat="52.535369403788145" lon="13.381435294360926"><time>2023-05-05T07:39:00.000Z</time></trkpt><trkpt lat="52.535374829646614" lon="13.38145615056819"><time>2023-05-05T07:39:01.000Z</time></trkpt><trkpt lat="52.535380043891976" lon="13.381476880081463"><time>2023-05-05T07:39:02.000Z</time></trkpt><trkpt lat="52.53538505769191" lon="13.38149745644647"><time>2023-05-05T07:39:03.000Z</time></trkpt><trkpt lat="52.53538994954385" lon="13.381517772236839"><time>2023-05-05T07:39:04.000Z</time></trkpt><trkpt lat="52.53539479435335" lon="13.381537761826007"><time>2023-05-05T07:39:05.000Z</time></trkpt><trkpt lat="52.53539964952751" lon="13.381557273160718"><time>2023-05-05T07:39:06.000Z</time></trkpt><trkpt lat="52.535404677427096" lon="13.381576106444662"><time>2023-05-05T07:39:07.000Z</time></trkpt><trkpt lat="52.53541012922518" lon="13.381594032021951"><time>2023-05-05T07:39:08.000Z</time></trkpt><trkpt lat="52.53541617766589" lon="13.381610904949243"><time>2023-05-05T07:39:09.000Z</time></trkpt><trkpt lat="52.53542304125963" lon="13.381626916521157"><time>2023-05-05T07:39:10.000Z</time></trkpt><trkpt lat="52.535430853034924" lon="13.381641917068901"><time>2023-05-05T07:39:11.000Z</time></trkpt><trkpt lat="52.53543940328354" lon="13.38165581344988"><time>2023-05-05T07:39:12.000Z</time></trkpt><trkpt lat="52.535448748242246" lon="13.381668505531847"><time>2023-05-05T07:39:13.000Z</time></trkpt><trkpt lat="52.53545885892115" lon="13.381680126839818"><time>2023-05-05T07:39:14.000Z</time></trkpt><trkpt lat="52.53546971333351" lon="13.381690919095284"><time>2023-05-05T07:39:15.000Z</time></trkpt><trkpt lat="52.535481241254956" lon="13.381701142977773"><time>2023-05-05T07:39:16.000Z</time></trkpt><trkpt lat="52.53549332601628" lon="13.381711241225473"><time>2023-05-05T07:39:17.000Z</time></trkpt><trkpt lat="52.53550582511446" lon="13.38172154315064"><time>2023-05-05T07:39:18.000Z</time></trkpt><trkpt lat="52.535518465028694" lon="13.381732422976416"><time>2023-05-05T07:39:19.000Z</time></trkpt><trkpt lat="52.53553103266429" lon="13.381744090239101"><time>2023-05-05T07:39:20.000Z</time></trkpt><trkpt lat="52.53554333430507" lon="13.381756666526032"><time>2023-05-05T07:39:21.000Z</time></trkpt><trkpt lat="52.535555266223646" lon="13.381770178833882"><time>2023-05-05T07:39:22.000Z</time></trkpt><trkpt lat="52.535566906967226" lon="13.381784702421744"><time>2023-05-05T07:39:23.000Z</time></trkpt><trkpt lat="52.53557815334376" lon="13.381800204311311"><time>2023-05-05T07:39:24.000Z</time></trkpt><trkpt lat="52.53558894666384" lon="13.381816491191922"><time>2023-05-05T07:39:25.000Z</time></trkpt><trkpt lat="52.535599223538156" lon="13.381833458054928"><time>2023-05-05T07:39:26.000Z</time></trkpt><trkpt lat="52.535608954715364" lon="13.381851077581297"><time>2023-05-05T07:39:27.000Z</time></trkpt><trkpt lat="52.53561820476751" lon="13.381869155820748"><time>2023-05-05T07:39:28.000Z</time></trkpt><trkpt lat="52.535626998868565" lon="13.381887392801218"><time>2023-05-05T07:39:29.000Z</time></trkpt><trkpt lat="52.53563530383299" lon="13.381905736770564"><time>2023-05-05T07:39:30.000Z</time></trkpt><trkpt lat="52.535645820974175" lon="13.381919575755477"><time>2023-05-05T07:39:31.000Z</time></trkpt><trkpt lat="52.535653304896705" lon="13.381938987848272"><time>2023-05-05T07:39:32.000Z</time></trkpt><trkpt lat="52.53566051293288" lon="13.381959754343807"><time>2023-05-05T07:39:33.000Z</time></trkpt><trkpt lat="52.535667277387056" lon="13.381979068386917"><time>2023-05-05T07:39:34.000Z</time></trkpt><trkpt lat="52.53567255949129" lon="13.381999367373448"><time>2023-05-05T07:39:35.000Z</time></trkpt><trkpt lat="52.5376793154499" lon="13.382985793960259"><time>2023-05-05T07:44:59.000Z</time></trkpt><trkpt lat="52.537693909993074" lon="13.382990269862717"><time>2023-05-05T07:45:00.000Z</time></trkpt><trkpt lat="52.53770403797421" lon="13.382998868736694"><time>2023-05-05T07:45:01.000Z</time></trkpt><trkpt lat="52.5377178967862" lon="13.38300209350738"><time>2023-05-05T07:45:02.000Z</time></trkpt><trkpt lat="52.53773479943072" lon="13.383001492171378"><time>2023-05-05T07:45:03.000Z</time></trkpt><trkpt lat="52.53774914053675" lon="13.383034806142762"><time>2023-05-05T07:45:04.000Z</time></trkpt><trkpt lat="52.53776288233123" lon="13.383048906620093"><time>2023-05-05T07:45:05.000Z</time></trkpt><trkpt lat="52.53777634605213" lon="13.383064635314382"><time>2023-05-05T07:45:06.000Z</time></trkpt><trkpt lat="52.537789785458706" lon="13.383081689298287"><time>2023-05-05T07:45:07.000Z</time></trkpt><trkpt lat="52.53780262653035" lon="13.383100501573908"><time>2023-05-05T07:45:08.000Z</time></trkpt><trkpt lat="52.537814624282326" lon="13.383121146427085"><time>2023-05-05T07:45:09.000Z</time></trkpt><trkpt lat="52.53782589003266" lon="13.383142335037968"><time>2023-05-05T07:45:10.000Z</time></trkpt><trkpt lat="52.53783651385031" lon="13.38316318329518"><time>2023-05-05T07:45:11.000Z</time></trkpt><trkpt lat="52.53784684819861" lon="13.383182757083434"><time>2023-05-05T07:45:12.000Z</time></trkpt><trkpt lat="52.53785678950191" lon="13.383201075889822"><time>2023-05-05T07:45:13.000Z</time></trkpt><trkpt lat="52.537866359942264" lon="13.383218012982708"><time>2023-05-05T07:45:14.000Z</time></trkpt><trkpt lat="52.53787575820888" lon="13.38323377088196"><time>2023-05-05T07:45:15.000Z</time></trkpt><trkpt lat="52.53788509017442" lon="13.383248053671695"><time>2023-05-05T07:45:16.000Z</time></trkpt><trkpt lat="52.53789442105058" lon="13.383260761675762"><time>2023-05-05T07:45:17.000Z</time></trkpt><trkpt lat="52.537903736287966" lon="13.383271798499443"><time>2023-05-05T07:45:18.000Z</time></trkpt><trkpt lat="52.53791334085774" lon="13.383281293427235"><time>2023-05-05T07:45:19.000Z</time></trkpt><trkpt lat="52.53792332384451" lon="13.38328979901098"><time>2023-05-05T07:45:20.000Z</time></trkpt><trkpt lat="52.537933728395394" lon="13.383297649759498"><time>2023-05-05T07:45:21.000Z</time></trkpt><trkpt lat="52.537944513447094" lon="13.383305080571995"><time>2023-05-05T07:45:22.000Z</time></trkpt><trkpt lat="52.53795572035861" lon="13.38331213851684"><time>2023-05-05T07:45:23.000Z</time></trkpt><trkpt lat="52.53796707477182" lon="13.383319566865389"><time>2023-05-05T07:45:24.000Z</time></trkpt><trkpt lat="52.537978620303825" lon="13.383327234291363"><time>2023-05-05T07:45:25.000Z</time></trkpt><trkpt lat="52.53799037846671" lon="13.38333512037442"><time>2023-05-05T07:45:26.000Z</time></trkpt><trkpt lat="52.53800233008278" lon="13.383343063988042"><time>2023-05-05T07:45:27.000Z</time></trkpt><trkpt lat="52.53801441289101" lon="13.383351091365757"><time>2023-05-05T07:45:28.000Z</time></trkpt><trkpt lat="52.538026773638286" lon="13.383359201642753"><time>2023-05-05T07:45:29.000Z</time></trkpt><trkpt lat="52.53803935946337" lon="13.383367351125479"><time>2023-05-05T07:45:30.000Z</time></trkpt><trkpt lat="52.53805200923179" lon="13.383375337672739"><time>2023-05-05T07:45:31.000Z</time></trkpt><trkpt lat="52.53806459300262" lon="13.383383082706768"><time>2023-05-05T07:45:32.000Z</time></trkpt><trkpt lat="52.53807716753865" lon="13.383390577011415"><time>2023-05-05T07:45:33.000Z</time></trkpt><trkpt lat="52.538089724124845" lon="13.383397804651596"><time>2023-05-05T07:45:34.000Z</time></trkpt><trkpt lat="52.53810220574008" lon="13.383404817979232"><time>2023-05-05T07:45:35.000Z</time></trkpt><trkpt lat="52.53811459998106" lon="13.383411615021624"><time>2023-05-05T07:45:36.000Z</time></trkpt><trkpt lat="52.538126861523416" lon="13.383418335157023"><time>2023-05-05T07:45:37.000Z</time></trkpt><trkpt lat="52.53813898705857" lon="13.383425062218606"><time>2023-05-05T07:45:38.000Z</time></trkpt><trkpt lat="52.53815099955372" lon="13.383431886850593"><time>2023-05-05T07:45:39.000Z</time></trkpt><trkpt lat="52.53816297281571" lon="13.383438826456716"><time>2023-05-05T07:45:40.000Z</time></trkpt><trkpt lat="52.53817493740004" lon="13.383445967231758"><time>2023-05-05T07:45:41.000Z</time></trkpt><trkpt lat="52.538186974754765" lon="13.383453298329728"><time>2023-05-05T07:45:42.000Z</time></trkpt><trkpt lat="52.538199126008564" lon="13.383460820318641"><time>2023-05-05T07:45:43.000Z</time></trkpt><trkpt lat="52.53821134255654" lon="13.383468544093098"><time>2023-05-05T07:45:44.000Z</time></trkpt><trkpt lat="52.5382236405588" lon="13.383476771657222"><time>2023-05-05T07:45:45.000Z</time></trkpt><trkpt lat="52.538236061564206" lon="13.383485696278909"><time>2023-05-05T07:45:46.000Z</time></trkpt><trkpt lat="52.538248668510754" lon="13.38349555833281"><time>2023-05-05T07:45:47.000Z</time></trkpt><trkpt lat="52.538261362121936" lon="13.383506155388607"><time>2023-05-05T07:45:48.000Z</time></trkpt><trkpt lat="52.538274174820735" lon="13.383517565670983"><time>2023-05-05T07:45:49.000Z</time></trkpt><trkpt lat="52.53828705333038" lon="13.383529622214645"><time>2023-05-05T07:45:50.000Z</time></trkpt><trkpt lat="52.538299842271414" lon="13.38354222907136"><time>2023-05-05T07:45:51.000Z</time></trkpt><trkpt lat="52.53831234141319" lon="13.38355517966328"><time>2023-05-05T07:45:52.000Z</time></trkpt><trkpt lat="52.53832436172384" lon="13.383568439469512"><time>2023-05-05T07:45:53.000Z</time></trkpt><trkpt lat="52.53833588737004" lon="13.383582020704905"><time>2023-05-05T07:45:54.000Z</time></trkpt><trkpt lat="52.53834695122296" lon="13.383595933675581"><time>2023-05-05T07:45:55.000Z</time></trkpt><trkpt lat="52.538357607679906" lon="13.383609860493506"><time>2023-05-05T07:45:56.000Z</time></trkpt><trkpt lat="52.53836792732006" lon="13.383623618289015"><time>2023-05-05T07:45:57.000Z</time></trkpt><trkpt lat="52.538377842128924" lon="13.383636989876226"><time>2023-05-05T07:45:58.000Z</time></trkpt><trkpt lat="52.53838760626757" lon="13.383649930356482"><time>2023-05-05T07:45:59.000Z</time></trkpt><trkpt lat="52.53839733570799" lon="13.383662052462217"><time>2023-05-05T07:46:00.000Z</time></trkpt><trkpt lat="52.538407167823785" lon="13.383673125938127"><time>2023-05-05T07:46:01.000Z</time></trkpt><trkpt lat="52.538417244962325" lon="13.383682832594259"><time>2023-05-05T07:46:02.000Z</time></trkpt><trkpt lat="52.538427734097134" lon="13.383690831596882"><time>2023-05-05T07:46:03.000Z</time></trkpt><trkpt lat="52.53843876242391" lon="13.38369676470853"><time>2023-05-05T07:46:04.000Z</time></trkpt><trkpt lat="52.53845029689407" lon="13.383700384116645"><time>2023-05-05T07:46:05.000Z</time></trkpt><trkpt lat="52.53846228926996" lon="13.383701526059333"><time>2023-05-05T07:46:06.000Z</time></trkpt><trkpt lat="52.53847461739194" lon="13.383700102453552"><time>2023-05-05T07:46:07.000Z</time></trkpt><trkpt lat="52.5384870418709" lon="13.383696280515334"><time>2023-05-05T07:46:08.000Z</time></trkpt><trkpt lat="52.53849959027121" lon="13.383690049089095"><time>2023-05-05T07:46:09.000Z</time></trkpt><trkpt lat="52.53851207523241" lon="13.383681566640393"><time>2023-05-05T07:46:10.000Z</time></trkpt><trkpt lat="52.53852421901931" lon="13.383671079472196"><time>2023-05-05T07:46:11.000Z</time></trkpt><trkpt lat="52.53853588641216" lon="13.383658959955783"><time>2023-05-05T07:46:12.000Z</time></trkpt><trkpt lat="52.538547072468326" lon="13.383645778008349"><time>2023-05-05T07:46:13.000Z</time></trkpt><trkpt lat="52.538557742333936" lon="13.383632140033002"><time>2023-05-05T07:46:14.000Z</time></trkpt><trkpt lat="52.53856792438262" lon="13.383618699025323"><time>2023-05-05T07:46:15.000Z</time></trkpt><trkpt lat="52.53857767305833" lon="13.383606042219236"><time>2023-05-05T07:46:16.000Z</time></trkpt><trkpt lat="52.53858697385056" lon="13.383594490828983"><time>2023-05-05T07:46:17.000Z</time></trkpt><trkpt lat="52.53859564203207" lon="13.383584224572013"><time>2023-05-05T07:46:18.000Z</time></trkpt><trkpt lat="52.53860382402759" lon="13.383575308959223"><time>2023-05-05T07:46:19.000Z</time></trkpt><trkpt lat="52.53861133016719" lon="13.383567777672285"><time>2023-05-05T07:46:20.000Z</time></trkpt><trkpt lat="52.53861784802993" lon="13.383561188080224"><time>2023-05-05T07:46:21.000Z</time></trkpt><trkpt lat="52.53862349897242" lon="13.383555807753252"><time>2023-05-05T07:46:22.000Z</time></trkpt><trkpt lat="52.5386283297881" lon="13.383551712073425"><time>2023-05-05T07:46:23.000Z</time></trkpt><trkpt lat="52.53863233852853" lon="13.383548787954867"><time>2023-05-05T07:46:24.000Z</time></trkpt><trkpt lat="52.53863555802443" lon="13.383546892984805"><time>2023-05-05T07:46:25.000Z</time></trkpt><trkpt lat="52.538637986663545" lon="13.383545714888818"><time>2023-05-05T07:46:26.000Z</time></trkpt><trkpt lat="52.53863965747576" lon="13.383545078775017"><time>2023-05-05T07:46:27.000Z</time></trkpt><trkpt lat="52.538640709814246" lon="13.383545015311013"><time>2023-05-05T07:46:28.000Z</time></trkpt><trkpt lat="52.538641568554816" lon="13.383545550487268"><time>2023-05-05T07:46:29.000Z</time></trkpt><trkpt lat="52.53864246694249" lon="13.383546512031915"><time>2023-05-05T07:46:30.000Z</time></trkpt><trkpt lat="52.53864376170789" lon="13.38354786243047"><time>2023-05-05T07:46:31.000Z</time></trkpt><trkpt lat="52.53864570846249" lon="13.383550006221183"><time>2023-05-05T07:46:32.000Z</time></trkpt><trkpt lat="52.53864853201644" lon="13.383552488215367"><time>2023-05-05T07:46:33.000Z</time></trkpt><trkpt lat="52.538652347302126" lon="13.383555129606442"><time>2023-05-05T07:46:34.000Z</time></trkpt><trkpt lat="52.538657222290496" lon="13.383557847745879"><time>2023-05-05T07:46:35.000Z</time></trkpt><trkpt lat="52.538663212931965" lon="13.383560375268143"><time>2023-05-05T07:46:36.000Z</time></trkpt><trkpt lat="52.538670352144386" lon="13.383562490857749"><time>2023-05-05T07:46:37.000Z</time></trkpt><trkpt lat="52.53867859182087" lon="13.383563678640668"><time>2023-05-05T07:46:38.000Z</time></trkpt><trkpt lat="52.53868773078143" lon="13.383563455743952"><time>2023-05-05T07:46:39.000Z</time></trkpt><trkpt lat="52.53869748923665" lon="13.38356132179369"><time>2023-05-05T07:46:40.000Z</time></trkpt><trkpt lat="52.53870749583957" lon="13.383557094779915"><time>2023-05-05T07:46:41.000Z</time></trkpt><trkpt lat="52.53871743930217" lon="13.38355072633959"><time>2023-05-05T07:46:42.000Z</time></trkpt><trkpt lat="52.538727380430394" lon="13.383542478178578"><time>2023-05-05T07:46:43.000Z</time></trkpt><trkpt lat="52.538737162372584" lon="13.383532569811102"><time>2023-05-05T07:46:44.000Z</time></trkpt><trkpt lat="52.538746805335116" lon="13.38352109482891"><time>2023-05-05T07:46:45.000Z</time></trkpt><trkpt lat="52.53875631276667" lon="13.383508304739202"><time>2023-05-05T07:46:46.000Z</time></trkpt><trkpt lat="52.53876561983995" lon="13.38349462386092"><time>2023-05-05T07:46:47.000Z</time></trkpt><trkpt lat="52.538774845919576" lon="13.383480453290968"><time>2023-05-05T07:46:48.000Z</time></trkpt><trkpt lat="52.53878413596744" lon="13.383466250318655"><time>2023-05-05T07:46:49.000Z</time></trkpt><trkpt lat="52.538793505851096" lon="13.383452395464467"><time>2023-05-05T07:46:50.000Z</time></trkpt><trkpt lat="52.538803168235674" lon="13.38343968432609"><time>2023-05-05T07:46:51.000Z</time></trkpt><trkpt lat="52.53881319683778" lon="13.38342875520239"><time>2023-05-05T07:46:52.000Z</time></trkpt><trkpt lat="52.53882358350265" lon="13.383420254318832"><time>2023-05-05T07:46:53.000Z</time></trkpt><trkpt lat="52.5388341888709" lon="13.38341441636481"><time>2023-05-05T07:46:54.000Z</time></trkpt><trkpt lat="52.53884478892922" lon="13.38341160375346"><time>2023-05-05T07:46:55.000Z</time></trkpt><trkpt lat="52.53885511028747" lon="13.38341199664743"><time>2023-05-05T07:46:56.000Z</time></trkpt><trkpt lat="52.538865114170044" lon="13.383415344713923"><time>2023-05-05T07:46:57.000Z</time></trkpt><trkpt lat="52.53887477374092" lon="13.383421546035443"><time>2023-05-05T07:46:58.000Z</time></trkpt><trkpt lat="52.53888389331681" lon="13.383430540000843"><time>2023-05-05T07:46:59.000Z</time></trkpt><trkpt lat="52.53889233749744" lon="13.383442277507653"><time>2023-05-05T07:47:00.000Z</time></trkpt><trkpt lat="52.53890018751299" lon="13.383456682132463"><time>2023-05-05T07:47:01.000Z</time></trkpt><trkpt lat="52.53890721267696" lon="13.383473472299169"><time>2023-05-05T07:47:02.000Z</time></trkpt><trkpt lat="52.538913588509786" lon="13.383492200807098"><time>2023-05-05T07:47:03.000Z</time></trkpt><trkpt lat="52.53891953189095" lon="13.383512367533086"><time>2023-05-05T07:47:04.000Z</time></trkpt><trkpt lat="52.538925380490056" lon="13.383533381423184"><time>2023-05-05T07:47:05.000Z</time></trkpt><trkpt lat="52.53893140150958" lon="13.38355498298218"><time>2023-05-05T07:47:06.000Z</time></trkpt><trkpt lat="52.53893776191683" lon="13.383576852513096"><time>2023-05-05T07:47:07.000Z</time></trkpt><trkpt lat="52.53894426041977" lon="13.383598718139558"><time>2023-05-05T07:47:08.000Z</time></trkpt><trkpt lat="52.53895094640765" lon="13.38362048360629"><time>2023-05-05T07:47:09.000Z</time></trkpt><trkpt lat="52.53895781944473" lon="13.383642033079463"><time>2023-05-05T07:47:10.000Z</time></trkpt><trkpt lat="52.53896492786202" lon="13.383663112457434"><time>2023-05-05T07:47:11.000Z</time></trkpt><trkpt lat="52.538972340495704" lon="13.38368347286326"><time>2023-05-05T07:47:12.000Z</time></trkpt><trkpt lat="52.53898014565382" lon="13.38370288241947"><time>2023-05-05T07:47:13.000Z</time></trkpt><trkpt lat="52.538988253496974" lon="13.38372121438228"><time>2023-05-05T07:47:14.000Z</time></trkpt><trkpt lat="52.5389966024598" lon="13.383738620518777"><time>2023-05-05T07:47:15.000Z</time></trkpt><trkpt lat="52.539005046192216" lon="13.38375536362479"><time>2023-05-05T07:47:16.000Z</time></trkpt><trkpt lat="52.53901343998758" lon="13.383771552538887"><time>2023-05-05T07:47:17.000Z</time></trkpt><trkpt lat="52.53902170417817" lon="13.383787434111582"><time>2023-05-05T07:47:18.000Z</time></trkpt><trkpt lat="52.53903003262335" lon="13.38380326948584"><time>2023-05-05T07:47:19.000Z</time></trkpt><trkpt lat="52.53903835318766" lon="13.383819005273502"><time>2023-05-05T07:47:20.000Z</time></trkpt><trkpt lat="52.53904664150639" lon="13.38383467718778"><time>2023-05-05T07:47:21.000Z</time></trkpt><trkpt lat="52.53905490518653" lon="13.38385041646028"><time>2023-05-05T07:47:22.000Z</time></trkpt><trkpt lat="52.53906318576135" lon="13.383866328429379"><time>2023-05-05T07:47:23.000Z</time></trkpt><trkpt lat="52.53907139992773" lon="13.383882730379272"><time>2023-05-05T07:47:24.000Z</time></trkpt><trkpt lat="52.53907957120377" lon="13.383899657260706"><time>2023-05-05T07:47:25.000Z</time></trkpt><trkpt lat="52.53908763660478" lon="13.383916971844668"><time>2023-05-05T07:47:26.000Z</time></trkpt><trkpt lat="52.5390954669742" lon="13.383934565471701"><time>2023-05-05T07:47:27.000Z</time></trkpt><trkpt lat="52.53910298258206" lon="13.383952252380892"><time>2023-05-05T07:47:28.000Z</time></trkpt><trkpt lat="52.53911012249791" lon="13.383969497580205"><time>2023-05-05T07:47:29.000Z</time></trkpt><trkpt lat="52.5391168117975" lon="13.383986487137589"><time>2023-05-05T07:47:30.000Z</time></trkpt><trkpt lat="52.53912298119644" lon="13.38400290674196"><time>2023-05-05T07:47:31.000Z</time></trkpt><trkpt lat="52.539128752182094" lon="13.3840186195481"><time>2023-05-05T07:47:32.000Z</time></trkpt><trkpt lat="52.53913404710364" lon="13.38403356437429"><time>2023-05-05T07:47:33.000Z</time></trkpt><trkpt lat="52.539138800424126" lon="13.384047742648248"><time>2023-05-05T07:47:34.000Z</time></trkpt><trkpt lat="52.5391431234468" lon="13.384060997884786"><time>2023-05-05T07:47:35.000Z</time></trkpt><trkpt lat="52.539147149175285" lon="13.384073193351268"><time>2023-05-05T07:47:36.000Z</time></trkpt><trkpt lat="52.53915089304764" lon="13.384084329477538"><time>2023-05-05T07:47:37.000Z</time></trkpt><trkpt lat="52.53915419607699" lon="13.384094987448954"><time>2023-05-05T07:47:38.000Z</time></trkpt><trkpt lat="52.539156479225106" lon="13.38410661611976"><time>2023-05-05T07:47:39.000Z</time></trkpt><trkpt lat="52.53915938133871" lon="13.384114908033169"><time>2023-05-05T07:47:40.000Z</time></trkpt><trkpt lat="52.5391639935506" lon="13.384121386744889"><time>2023-05-05T07:47:41.000Z</time></trkpt><trkpt lat="52.539169624124845" lon="13.384140818714608"><time>2023-05-05T07:47:42.000Z</time></trkpt></trkseg></trk></gpx>