<?xml version="1.0" encoding="UTF-8"?><gpx creator="Health" xsi:schemaLocation="http://www.topografix.com/GPX/1/0 http://www.topografix.com/GPX/1/0/gpx.xsd" version="1.0" xmlns="http://www.topografix.com/GPX/1/0" xmlns:xsi="http://www.w3.org/2001/XMLSchema-instance"><metadata><time>2023-04-28T07:23:38.000Z</time></metadata><trk><type>Ходьба на улице</type><extensions><totalTime>569.0</totalTime><cumulativeDecrease>-0.10000000149011612</cumulativeDecrease><cumulativeClimb>-0.10000000149011612</cumulativeClimb><totalDistance>370.0</totalDistance></extensions><trkseg><trkpt lat="52.532649903120785" lon="13.380220450826444"><time>2023-04-28T07:23:38.000Z</time></trkpt><trkpt lat="52.53263662989541" lon="13.380220120428866"><time>2023-04-28T07:23:39.000Z</time></trkpt><trkpt lat="52.532631498273865" lon="13.380235734109592"><time>2023-04-28T07:23:40.000Z</time></trkpt><trkpt lat="52.53262339878224" lon="13.38024921235202"><time>2023-04-28T07:23:41.000Z</time></trkpt><trkpt lat="52.532616982434305" lon="13.380265908011102"><time>2023-04-28T07:23:42.000Z</time></trkpt><trkpt lat="52.532606723612155" lon="13.380284375705427"><time>2023-04-28T07:23:43.000Z</time></trkpt><trkpt lat="52.53259852872483" lon="13.380299360549804"><time>2023-04-28T07:23:44.000Z</time></trkpt><trkpt lat="52.53259106553987" lon="13.380315995528479"><time>2023-04-28T07:23:45.000Z</time></trkpt><trkpt lat="52.532583514507515" lon="13.380332697632623"><time>2023-04-28T07:23:46.000Z</time></trkpt><trkpt lat="52.53257615001575" lon="13.38034958176932"><time>2023-04-28T07:23:47.000Z</time></trkpt><trkpt lat="52.53256874210335" lon="13.380366289085735"><time>2023-04-28T07:23:48.000Z</time></trkpt><trkpt lat="52.53256142198893" lon="13.380383148356463"><time>2023-04-28T07:23:49.000Z</time></trkpt><trkpt lat="52.53255437618671" lon="13.380400425564243"><time>2023-04-28T07:23:50.000Z</time></trkpt><trkpt lat="52.53254767270616" lon="13.380418299180432"><time>2023-04-28T07:23:51.000Z</time></trkpt><trkpt lat="52.53254097191324" lon="13.3804364545655"><time>2023-04-28T07:23:52.000Z</time></trkpt><trkpt lat="52.53253413975349" lon="13.380454841440674"><time>2023-04-28T07:23:53.000Z</time></trkpt><trkpt lat="52.532526992645415" lon="13.380473197118345"><time>2023-04-28T07:23:54.000Z</time></trkpt><trkpt lat="52.53251934586563" lon="13.380491627404469"><time>2023-04-28T07:23:55.000Z</time></trkpt><trkpt lat="52.53251129445689" lon="13.380509899427448"><time>2023-04-28T07:23:56.000Z</time></trkpt><trkpt lat="52.53250292192072" lon="13.380528380381215"><time>2023-04-28T07:23:57.000Z</time></trkpt><trkpt lat="52.53249434233672" lon="13.380547387377923"><time>2023-04-28T07:23:58.000Z</time></trkpt><trkpt lat="52.53248563871467" lon="13.380567047686599"><time>2023-04-28T07:23:59.000Z</time></trkpt><trkpt lat="52.532476811762656" lon="13.380587143693502"><time>2023-04-28T07:24:00.000Z</time></trkpt><trkpt lat="52.53246786250625" lon="13.380607449710805"><time>2023-04-28T07:24:01.000Z</time></trkpt><trkpt lat="52.53245876451172" lon="13.380627698818152"><time>2023-04-28T07:24:02.000Z</time></trkpt><trkpt lat="52.532449574105314" lon="13.380647792338362"><time>2023-04-28T07:24:03.000Z</time></trkpt><trkpt lat="52.53244034777824" lon="13.380667638176822"><time>2023-04-28T07:24:04.000Z</time></trkpt><trkpt lat="52.53243105719191" lon="13.380687113564598"><time>2023-04-28T07:24:05.000Z</time></trkpt><trkpt lat="52.53242186771692" lon="13.380706466618353"><time>2023-04-28T07:24:06.000Z</time></trkpt><trkpt lat="52.532412671654306" lon="13.38072592215096"><time>2023-04-28T07:24:07.000Z</time></trkpt><trkpt lat="52.53240351518122" lon="13.380745341102068"><time>2023-04-28T07:24:08.000Z</time></trkpt><trkpt lat="52.53239439097861" lon="13.380764299444536"><time>2023-04-28T07:24:09.000Z</time></trkpt><trkpt lat="52.532385231142456" lon="13.380782641591225"><time>2023-04-28T07:24:10.000Z</time></trkpt><trkpt lat="52.5323758966869" lon="13.380799973613689"><time>2023-04-28T07:24:11.000Z</time></trkpt><trkpt lat="52.53236632585982" lon="13.380816202527027"><time>2023-04-28T07:24:12.000Z</time></trkpt><trkpt lat="52.532356515061586" lon="13.380831376632425"><time>2023-04-28T07:24:13.000Z</time></trkpt><trkpt lat="52.53234641154456" lon="13.380845338035137"><time>2023-04-28T07:24:14.000Z</time></trkpt><trkpt lat="52.532335999848904" lon="13.380858163648668"><time>2023-04-28T07:24:15.000Z</time></trkpt><trkpt lat="52.532325284188985" lon="13.38086990731554"><time>2023-04-28T07:24:16.000Z</time></trkpt><trkpt lat="52.53231416229559" lon="13.380880304325787"><time>2023-04-28T07:24:17.000Z</time></trkpt><trkpt lat="52.53230258148488" lon="13.380889301000623"><time>2023-04-28T07:24:18.000Z</time></trkpt><trkpt lat="52.53229052722612" lon="13.380896962776903"><time>2023-04-28T07:24:19.000Z</time></trkpt><trkpt lat="52.53227789327857" lon="13.380903637448775"><time>2023-04-28T07:24:20.000Z</time></trkpt><trkpt lat="52.53226495166286" lon="13.380909382757652"><time>2023-04-28T07:24:21.000Z</time></trkpt><trkpt lat="52.53225179593159" lon="13.380914787926889"><time>2023-04-28T07:24:22.000Z</time></trkpt><trkpt lat="52.532238541253726" lon="13.380920111122252"><time>2023-04-28T07:24:23.000Z</time></trkpt><trkpt lat="52.53222526777011" lon="13.380925486338612"><time>2023-04-28T07:24:24.000Z</time></trkpt><trkpt lat="52.532212148987405" lon="13.380931283816869"><time>2023-04-28T07:24:25.000Z</time></trkpt><trkpt lat="52.532199308649545" lon="13.380937599049089"><time>2023-04-28T07:24:26.000Z</time></trkpt><trkpt lat="52.53218684189962" lon="13.380944556763888"><time>2023-04-28T07:24:27.000Z</time></trkpt><trkpt lat="52.53217483303988" lon="13.380952205733188"><time>2023-04-28T07:24:28.000Z</time></trkpt><trkpt lat="52.532163378368175" lon="13.380960511926135"><time>2023-04-28T07:24:29.000Z</time></trkpt><trkpt lat="52.532152444092006" lon="13.38096931463383"><time>2023-04-28T07:24:30.000Z</time></trkpt><trkpt lat="52.53214190907263" lon="13.380978344459448"><time>2023-04-28T07:24:31.000Z</time></trkpt><trkpt lat="52.532131496430786" lon="13.38098733362304"><time>2023-04-28T07:24:32.000Z</time></trkpt><trkpt lat="52.53212113945611" lon="13.380996037952876"><time>2023-04-28T07:24:33.000Z</time></trkpt><trkpt lat="52.53211078804973" lon="13.381004642932687"><time>2023-04-28T07:24:34.000Z</time></trkpt><trkpt lat="52.532100429777145" lon="13.381013254953013"><time>2023-04-28T07:24:35.000Z</time></trkpt><trkpt lat="52.532090063300004" lon="13.381022030122887"><time>2023-04-28T07:24:36.000Z</time></trkpt><trkpt lat="52.532079711417396" lon="13.381031207374587"><time>2023-04-28T07:24:37.000Z</time></trkpt><trkpt lat="52.5320694021948" lon="13.381040902206285"><time>2023-04-28T07:24:38.000Z</time></trkpt><trkpt lat="52.53205898222301" lon="13.381051010350859"><time>2023-04-28T07:24:39.000Z</time></trkpt><trkpt lat="52.53204837739945" lon="13.38106148623941"><time>2023-04-28T07:24:40.000Z</time></trkpt><trkpt lat="52.532037635143155" lon="13.38107231213762"><time>2023-04-28T07:24:41.000Z</time></trkpt><trkpt lat="52.532026921129734" lon="13.381083637554049"><time>2023-04-28T07:24:42.000Z</time></trkpt><trkpt lat="52.532016304475526" lon="13.381095687160865"><time>2023-04-28T07:24:43.000Z</time></trkpt><trkpt lat="52.53200581939943" lon="13.381108462232111"><time>2023-04-28T07:24:44.000Z</time></trkpt><trkpt lat="52.531995485983316" lon="13.381121746369248"><time>2023-04-28T07:24:45.000Z</time></trkpt><trkpt lat="52.53198519274345" lon="13.381135234993364"><time>2023-04-28T07:24:46.000Z</time></trkpt><trkpt lat="52.53197489705092" lon="13.381148752726109"><time>2023-04-28T07:24:47.000Z</time></trkpt><trkpt lat="52.531964530318554" lon="13.381161953185527"><time>2023-04-28T07:24:48.000Z</time></trkpt><trkpt lat="52.53195413679995" lon="13.381174803364102"><time>2023-04-28T07:24:49.000Z</time></trkpt><trkpt lat="52.531943854155045" lon="13.381187513034309"><time>2023-04-28T07:24:50.000Z</time></trkpt><trkpt lat="52.53193372745295" lon="13.381200187655452"><time>2023-04-28T07:24:51.000Z</time></trkpt><trkpt lat="52.53192373545392" lon="13.381212819859554"><time>2023-04-28T07:24:52.000Z</time></trkpt><trkpt lat="52.53191383356196" lon="13.3812253650857"><time>2023-04-28T07:24:53.000Z</time></trkpt><trkpt lat="52.531903958350405" lon="13.381237779719548"><time>2023-04-28T07:24:54.000Z</time></trkpt><trkpt lat="52.53189404535301" lon="13.381249760062252"><time>2023-04-28T07:24:55.000Z</time></trkpt><trkpt lat="52.53188420274808" lon="13.38126160686035"><time>2023-04-28T07:24:56.000Z</time></trkpt><trkpt lat="52.53187450719663" lon="13.381273599851415"><time>2023-04-28T07:24:57.000Z</time></trkpt><trkpt lat="52.53186492200844" lon="13.381285785934676"><time>2023-04-28T07:24:58.000Z</time></trkpt><trkpt lat="52.5318555043727" lon="13.38129807619296"><time>2023-04-28T07:24:59.000Z</time></trkpt><trkpt lat="52.53184611372862" lon="13.381310598133224"><time>2023-04-28T07:25:00.000Z</time></trkpt><trkpt lat="52.53183654304471" lon="13.381323111559379"><time>2023-04-28T07:25:01.000Z</time></trkpt><trkpt lat="52.5318266405925" lon="13.381335559768695"><time>2023-04-28T07:25:02.000Z</time></trkpt><trkpt lat="52.531816296550296" lon="13.38134798145329"><time>2023-04-28T07:25:03.000Z</time></trkpt><trkpt lat="52.531805395848735" lon="13.381360242802494"><time>2023-04-28T07:25:04.000Z</time></trkpt><trkpt lat="52.531793928141845" lon="13.381372363413083"><time>2023-04-28T07:25:05.000Z</time></trkpt><trkpt lat="52.53178194985315" lon="13.381384592527382"><time>2023-04-28T07:25:06.000Z</time></trkpt><trkpt lat="52.531769307430245" lon="13.381396544861536"><time>2023-04-28T07:25:07.000Z</time></trkpt><trkpt lat="52.53175595655103" lon="13.381407859589281"><time>2023-04-28T07:25:08.000Z</time></trkpt><trkpt lat="52.53174194598851" lon="13.381418635441522"><time>2023-04-28T07:25:09.000Z</time></trkpt><trkpt lat="52.531727420766785" lon="13.381428889958146"><time>2023-04-28T07:25:10.000Z</time></trkpt><trkpt lat="52.53171240006514" lon="13.381438647310206"><time>2023-04-28T07:25:11.000Z</time></trkpt><trkpt lat="52.53169709367896" lon="13.381448282752933"><time>2023-04-28T07:25:12.000Z</time></trkpt><trkpt lat="52.531681756348235" lon="13.38145815995744"><time>2023-04-28T07:25:13.000Z</time></trkpt><trkpt lat="52.53166651597832" lon="13.381468273489846"><time>2023-04-28T07:25:14.000Z</time></trkpt><trkpt lat="52.53165156085719" lon="13.381478923278031"><time>2023-04-28T07:25:15.000Z</time></trkpt><trkpt lat="52.53163693128557" lon="13.381489984618959"><time>2023-04-28T07:25:16.000Z</time></trkpt><trkpt lat="52.53162270216283" lon="13.38150128867337"><time>2023-04-28T07:25:17.000Z</time></trkpt><trkpt lat="52.53160898236444" lon="13.381512789585829"><time>2023-04-28T07:25:18.000Z</time></trkpt><trkpt lat="52.53159594787153" lon="13.381524700055541"><time>2023-04-28T07:25:19.000Z</time></trkpt><trkpt lat="52.53158382074276" lon="13.38153692380759"><time>2023-04-28T07:25:20.000Z</time></trkpt><trkpt lat="52.53157248833654" lon="13.381549633047996"><time>2023-04-28T07:25:21.000Z</time></trkpt><trkpt lat="52.531562091114054" lon="13.38156267700951"><time>2023-04-28T07:25:22.000Z</time></trkpt><trkpt lat="52.531552553304444" lon="13.381575934980093"><time>2023-04-28T07:25:23.000Z</time></trkpt><trkpt lat="52.531543701366786" lon="13.381589103439973"><time>2023-04-28T07:25:24.000Z</time></trkpt><trkpt lat="52.531535334662685" lon="13.38160223830392"><time>2023-04-28T07:25:25.000Z</time></trkpt><trkpt lat="52.531527266491544" lon="13.381615217611428"><time>2023-04-28T07:25:26.000Z</time></trkpt><trkpt lat="52.531519339453894" lon="13.381628203611518"><time>2023-04-28T07:25:27.000Z</time></trkpt><trkpt lat="52.53151144459333" lon="13.381641400898614"><time>2023-04-28T07:25:28.000Z</time></trkpt><trkpt lat="52.531503471011256" lon="13.38165496963414"><time>2023-04-28T07:25:29.000Z</time></trkpt><trkpt lat="52.53149522481718" lon="13.381668872343743"><time>2023-04-28T07:25:30.000Z</time></trkpt><trkpt lat="52.53148653842752" lon="13.381683291098348"><time>2023-04-28T07:25:31.000Z</time></trkpt><trkpt lat="52.53147731229809" lon="13.381698331567044"><time>2023-04-28T07:25:32.000Z</time></trkpt><trkpt lat="52.53146745526979" lon="13.381714001568072"><time>2023-04-28T07:25:33.000Z</time></trkpt><trkpt lat="52.531457016339715" lon="13.381730266492404"><time>2023-04-28T07:25:34.000Z</time></trkpt><trkpt lat="52.531446151724566" lon="13.381747270220275"><time>2023-04-28T07:25:35.000Z</time></trkpt><trkpt lat="52.53143491535162" lon="13.38176468493806"><time>2023-04-28T07:25:36.000Z</time></trkpt><trkpt lat="52.53142333932951" lon="13.381782211147685"><time>2023-04-28T07:25:37.000Z</time></trkpt><trkpt lat="52.53141156946048" lon="13.38179966628702"><time>2023-04-28T07:25:38.000Z</time></trkpt><trkpt lat="52.53139975738586" lon="13.381817112513145"><time>2023-04-28T07:25:39.000Z</time></trkpt><trkpt lat="52.531387918605944" lon="13.381834307654948"><time>2023-04-28T07:25:40.000Z</time></trkpt><trkpt lat="52.53137639245863" lon="13.38185182323217"><time>2023-04-28T07:25:41.000Z</time></trkpt><trkpt lat="52.53136551069979" lon="13.3818699427994"><time>2023-04-28T07:25:42.000Z</time></trkpt><trkpt lat="52.53135561065044" lon="13.381888771176362"><time>2023-04-28T07:25:43.000Z</time></trkpt><trkpt lat="52.53134665824728" lon="13.381908268586205"><time>2023-04-28T07:25:44.000Z</time></trkpt><trkpt lat="52.531338651921644" lon="13.381928069761415"><time>2023-04-28T07:25:45.000Z</time></trkpt><trkpt lat="52.531331613535755" lon="13.38194818811785"><time>2023-04-28T07:25:46.000Z</time></trkpt><trkpt lat="52.53132575929678" lon="13.381968882476212"><time>2023-04-28T07:25:47.000Z</time></trkpt><trkpt lat="52.53132113661441" lon="13.381989957400878"><time>2023-04-28T07:25:48.000Z</time></trkpt><trkpt lat="52.53131796693728" lon="13.382011684074376"><time>2023-04-28T07:25:49.000Z</time></trkpt><trkpt lat="52.53131612672377" lon="13.382033617174063"><time>2023-04-28T07:25:50.000Z</time></trkpt><trkpt lat="52.5313156673925" lon="13.38205573848466"><time>2023-04-28T07:25:51.000Z</time></trkpt><trkpt lat="52.53131626160735" lon="13.382077178840573"><time>2023-04-28T07:25:52.000Z</time></trkpt><trkpt lat="52.531317465138955" lon="13.382097128050743"><time>2023-04-28T07:25:53.000Z</time></trkpt><trkpt lat="52.53131887261445" lon="13.382115079556439"><time>2023-04-28T07:25:54.000Z</time></trkpt><trkpt lat="52.53132030109313" lon="13.382130615153265"><time>2023-04-28T07:25:55.000Z</time></trkpt><trkpt lat="52.53132173778883" lon="13.382144053629077"><time>2023-04-28T07:25:56.000Z</time></trkpt><trkpt lat="52.53132325162489" lon="13.382155227485173"><time>2023-04-28T07:25:57.000Z</time></trkpt><trkpt lat="52.531324712847145" lon="13.382164180540554"><time>2023-04-28T07:25:58.000Z</time></trkpt><trkpt lat="52.53132613229956" lon="13.38217144119182"><time>2023-04-28T07:25:59.000Z</time></trkpt><trkpt lat="52.53132734112242" lon="13.382177046033265"><time>2023-04-28T07:26:00.000Z</time></trkpt><trkpt lat="52.53132835743053" lon="13.382181329305029"><time>2023-04-28T07:26:01.000Z</time></trkpt><trkpt lat="52.53132915844033" lon="13.382184507216335"><time>2023-04-28T07:26:02.000Z</time></trkpt><trkpt lat="52.53132979062777" lon="13.382186941023251"><time>2023-04-28T07:26:03.000Z</time></trkpt><trkpt lat="52.53133031294374" lon="13.382188923643836"><time>2023-04-28T07:26:04.000Z</time></trkpt><trkpt lat="52.53133068702968" lon="13.382190630783906"><time>2023-04-28T07:26:05.000Z</time></trkpt><trkpt lat="52.53133108438473" lon="13.382192442631133"><time>2023-04-28T07:26:06.000Z</time></trkpt><trkpt lat="52.531331415841784" lon="13.38219448114602"><time>2023-04-28T07:26:07.000Z</time></trkpt><trkpt lat="52.53133136446052" lon="13.382196814687033"><time>2023-04-28T07:26:08.000Z</time></trkpt><trkpt lat="52.531330851469626" lon="13.38219951881688"><time>2023-04-28T07:26:09.000Z</time></trkpt><trkpt lat="52.53132988076596" lon="13.382202736105938"><time>2023-04-28T07:26:10.000Z</time></trkpt><trkpt lat="52.531328354118834" lon="13.382206539926988"><time>2023-04-28T07:26:11.000Z</time></trkpt><trkpt lat="52.53132636319776" lon="13.382210855965788"><time>2023-04-28T07:26:12.000Z</time></trkpt><trkpt lat="52.531323833974895" lon="13.382215874725505"><time>2023-04-28T07:26:13.000Z</time></trkpt><trkpt lat="52.531320678739796" lon="13.38222161174029"><time>2023-04-28T07:26:14.000Z</time></trkpt><trkpt lat="52.53131673551763" lon="13.382228053768252"><time>2023-04-28T07:26:15.000Z</time></trkpt><trkpt lat="52.53131185178311" lon="13.382235348680616"><time>2023-04-28T07:26:16.000Z</time></trkpt><trkpt lat="52.53130588236893" lon="13.382243453558914"><time>2023-04-28T07:26:17.000Z</time></trkpt><trkpt lat="52.531299061547266" lon="13.38225219282013"><time>2023-04-28T07:26:18.000Z</time></trkpt><trkpt lat="52.53129136744338" lon="13.382261685068245"><time>2023-04-28T07:26:19.000Z</time></trkpt><trkpt lat="52.53128279683274" lon="13.382271957708047"><time>2023-04-28T07:26:20.000Z</time></trkpt><trkpt lat="52.531273335858465" lon="13.382282900588262"><time>2023-04-28T07:26:21.000Z</time></trkpt><trkpt lat="52.531262988940306" lon="13.382294330164365"><time>2023-04-28T07:26:22.000Z</time></trkpt><trkpt lat="52.5312515854631" lon="13.382306036469448"><time>2023-04-28T07:26:23.000Z</time></trkpt><trkpt lat="52.531239129921325" lon="13.382317510069221"><time>2023-04-28T07:26:24.000Z</time></trkpt><trkpt lat="52.531225705194785" lon="13.38232847456217"><time>2023-04-28T07:26:25.000Z</time></trkpt><trkpt lat="52.53121142197667" lon="13.382338805142933"><time>2023-04-28T07:26:26.000Z</time></trkpt><trkpt lat="52.53119650655867" lon="13.382348408299585"><time>2023-04-28T07:26:27.000Z</time></trkpt><trkpt lat="52.531181163893116" lon="13.382357611456893"><time>2023-04-28T07:26:28.000Z</time></trkpt><trkpt lat="52.53116531540788" lon="13.382366692408095"><time>2023-04-28T07:26:29.000Z</time></trkpt><trkpt lat="52.53114938146567" lon="13.382375365152841"><time>2023-04-28T07:26:30.000Z</time></trkpt><trkpt lat="52.53113328244856" lon="13.38238400030043"><time>2023-04-28T07:26:31.000Z</time></trkpt><trkpt lat="52.5311170681193" lon="13.38239255699952"><time>2023-04-28T07:26:32.000Z</time></trkpt><trkpt lat="52.53110054455628" lon="13.382401104611438"><time>2023-04-28T07:26:33.000Z</time></trkpt><trkpt lat="52.53108391593994" lon="13.382409920908959"><time>2023-04-28T07:26:34.000Z</time></trkpt><trkpt lat="52.531067501725495" lon="13.382419074455212"><time>2023-04-28T07:26:35.000Z</time></trkpt><trkpt lat="52.531051370014616" lon="13.382428882277924"><time>2023-04-28T07:26:36.000Z</time></trkpt><trkpt lat="52.53103556942463" lon="13.382439355961196"><time>2023-04-28T07:26:37.000Z</time></trkpt><trkpt lat="52.53102013098101" lon="13.382450458747002"><time>2023-04-28T07:26:38.000Z</time></trkpt><trkpt lat="52.53100498289692" lon="13.38246175146291"><time>2023-04-28T07:26:39.000Z</time></trkpt><trkpt lat="52.53099000882684" lon="13.38247292430591"><time>2023-04-28T07:26:40.000Z</time></trkpt><trkpt lat="52.53097482709032" lon="13.382483837386745"><time>2023-04-28T07:26:41.000Z</time></trkpt><trkpt lat="52.530959563806135" lon="13.38249394748076"><time>2023-04-28T07:26:42.000Z</time></trkpt><trkpt lat="52.530944150424425" lon="13.382503131788324"><time>2023-04-28T07:26:43.000Z</time></trkpt><trkpt lat="52.53092881788074" lon="13.382511204636382"><time>2023-04-28T07:26:44.000Z</time></trkpt><trkpt lat="52.53091346551661" lon="13.382518305013656"><time>2023-04-28T07:26:45.000Z</time></trkpt><trkpt lat="52.53089789995823" lon="13.382524917835445"><time>2023-04-28T07:26:46.000Z</time></trkpt><trkpt lat="52.530882419408634" lon="13.382530881743026"><time>2023-04-28T07:26:47.000Z</time></trkpt><trkpt lat="52.53086710261422" lon="13.382536823874137"><time>2023-04-28T07:26:48.000Z</time></trkpt><trkpt lat="52.53085210070589" lon="13.382543104788976"><time>2023-04-28T07:26:49.000Z</time></trkpt><trkpt lat="52.53083756313374" lon="13.382549945711089"><time>2023-04-28T07:26:50.000Z</time></trkpt><trkpt lat="52.53082356271798" lon="13.382557463627592"><time>2023-04-28T07:26:51.000Z</time></trkpt><trkpt lat="52.530810290815516" lon="13.382566034141643"><time>2023-04-28T07:26:52.000Z</time></trkpt><trkpt lat="52.53079797691768" lon="13.382575883265964"><time>2023-04-28T07:26:53.000Z</time></trkpt><trkpt lat="52.5307867972048" lon="13.382587219637145"><time>2023-04-28T07:26:54.000Z</time></trkpt><trkpt lat="52.530776850343344" lon="13.38260025588275"><time>2023-04-28T07:26:55.000Z</time></trkpt><trkpt lat="52.53076822277383" lon="13.382614521639242"><time>2023-04-28T07:26:56.000Z</time></trkpt><trkpt lat="52.53076073271343" lon="13.382630092817264"><time>2023-04-28T07:26:57.000Z</time></trkpt><trkpt lat="52.53075414555385" lon="13.382646614321198"><time>2023-04-28T07:26:58.000Z</time></trkpt><trkpt lat="52.53074843757779" lon="13.382663498759458"><time>2023-04-28T07:26:59.000Z</time></trkpt><trkpt lat="52.53074352366441" lon="13.382680324315293"><time>2023-04-28T07:27:00.000Z</time></trkpt><trkpt lat="52.53073933358312" lon="13.382696851652211"><time>2023-04-28T07:27:01.000Z</time></trkpt><trkpt lat="52.53073587221433" lon="13.382712747471533"><time>2023-04-28T07:27:02.000Z</time></trkpt><trkpt lat="52.53073301421116" lon="13.382727729948101"><time>2023-04-28T07:27:03.000Z</time></trkpt><trkpt lat="52.53073054370262" lon="13.382741531296837"><time>2023-04-28T07:27:04.000Z</time></trkpt><trkpt lat="52.53072819305048" lon="13.382753923744888"><time>2023-04-28T07:27:05.000Z</time></trkpt><trkpt lat="52.5307258947756" lon="13.38276484065298"><time>2023-04-28T07:27:06.000Z</time></trkpt><trkpt lat="52.53072367291898" lon="13.38277456845126"><time>2023-04-28T07:27:07.000Z</time></trkpt><trkpt lat="52.53072169160933" lon="13.382782741503824"><time>2023-04-28T07:27:08.000Z</time></trkpt><trkpt lat="52.53071994620279" lon="13.382789714619745"><time>2023-04-28T07:27:09.000Z</time></trkpt><trkpt lat="52.53071841777528" lon="13.382795459043443"><time>2023-04-28T07:27:10.000Z</time></trkpt><trkpt lat="52.5307170375778" lon="13.382799984598886"><time>2023-04-28T07:27:11.000Z</time></trkpt><trkpt lat="52.53071573430904" lon="13.38280339361911"><time>2023-04-28T07:27:12.000Z</time></trkpt><trkpt lat="52.53071447422942" lon="13.382806018277126"><time>2023-04-28T07:27:13.000Z</time></trkpt><trkpt lat="52.530713280583136" lon="13.382808035097412"><time>2023-04-28T07:27:14.000Z</time></trkpt><trkpt lat="52.53071219680833" lon="13.382809519970142"><time>2023-04-28T07:27:15.000Z</time></trkpt><trkpt lat="52.53071139029562" lon="13.382810592256561"><time>2023-04-28T07:27:16.000Z</time></trkpt><trkpt lat="52.530710885683604" lon="13.382811305231247"><time>2023-04-28T07:27:17.000Z</time></trkpt><trkpt lat="52.53071060865806" lon="13.382811768063076"><time>2023-04-28T07:27:18.000Z</time></trkpt><trkpt lat="52.53071056154715" lon="13.382812067428121"><time>2023-04-28T07:27:19.000Z</time></trkpt><trkpt lat="52.5307107069759" lon="13.382812380792325"><time>2023-04-28T07:27:20.000Z</time></trkpt><trkpt lat="52.530710977589685" lon="13.3828128168129"><time>2023-04-28T07:27:21.000Z</time></trkpt><trkpt lat="52.53071134776632" lon="13.382813434085735"><time>2023-04-28T07:27:22.000Z</time></trkpt><trkpt lat="52.53071182323283" lon="13.382814247899391"><time>2023-04-28T07:27:23.000Z</time></trkpt><trkpt lat="52.5307123795" lon="13.38281523027601"><time>2023-04-28T07:27:24.000Z</time></trkpt><trkpt lat="52.53071300507648" lon="13.382816359152597"><time>2023-04-28T07:27:25.000Z</time></trkpt><trkpt lat="52.53071368966608" lon="13.38281761015342"><time>2023-04-28T07:27:26.000Z</time></trkpt><trkpt lat="52.53071440849325" lon="13.382818930208572"><time>2023-04-28T07:27:27.000Z</time></trkpt><trkpt lat="52.53071516687416" lon="13.382820278732773"><time>2023-04-28T07:27:28.000Z</time></trkpt><trkpt lat="52.53071596083725" lon="13.382821628628237"><time>2023-04-28T07:27:29.000Z</time></trkpt><trkpt lat="52.530716791552805" lon="13.382822905089519"><time>2023-04-28T07:27:30.000Z</time></trkpt><trkpt lat="52.53071764264907" lon="13.382824032042244"><time>2023-04-28T07:27:31.000Z</time></trkpt><trkpt lat="52.53071854989494" lon="13.382825065135114"><time>2023-04-28T07:27:32.000Z</time></trkpt><trkpt lat="52.53071948811649" lon="13.382826065440481"><time>2023-04-28T07:27:33.000Z</time></trkpt><trkpt lat="52.530720437045055" lon="13.382827020657913"><time>2023-04-28T07:27:34.000Z</time></trkpt><trkpt lat="52.53072142318675" lon="13.382827950373956"><time>2023-04-28T07:27:35.000Z</time></trkpt><trkpt lat="52.530722483605295" lon="13.382828877838671"><time>2023-04-28T07:27:36.000Z</time></trkpt><trkpt lat="52.53072360243937" lon="13.382829800534667"><time>2023-04-28T07:27:37.000Z</time></trkpt><trkpt lat="52.530724798339115" lon="13.382830724888459"><time>2023-04-28T07:27:38.000Z</time></trkpt><trkpt lat="52.53072607465358" lon="13.382831660908215"><time>2023-04-28T07:27:39.000Z</time></trkpt><trkpt lat="52.53072736768843" lon="13.382832599322564"><time>2023-04-28T07:27:40.000Z</time></trkpt><trkpt lat="52.53072861154567" lon="13.38283352815854"><time>2023-04-28T07:27:41.000Z</time></trkpt><trkpt lat="52.53072976962222" lon="13.38283442340882"><time>2023-04-28T07:27:42.000Z</time></trkpt><trkpt lat="52.53073084022489" lon="13.38283521090242"><time>2023-04-28T07:27:43.000Z</time></trkpt><trkpt lat="52.530731855997644" lon="13.382835860655756"><time>2023-04-28T07:27:44.000Z</time></trkpt><trkpt lat="52.53073287671307" lon="13.38283642150216"><time>2023-04-28T07:27:45.000Z</time></trkpt><trkpt lat="52.5307338819282" lon="13.382836952303585"><time>2023-04-28T07:27:46.000Z</time></trkpt><trkpt lat="52.53073481193272" lon="13.382837467407121"><time>2023-04-28T07:27:47.000Z</time></trkpt><trkpt lat="52.53073562562909" lon="13.382838010488513"><time>2023-04-28T07:27:48.000Z</time></trkpt><trkpt lat="52.5307362641287" lon="13.38283861028287"><time>2023-04-28T07:27:49.000Z</time></trkpt><trkpt lat="52.53073668561189" lon="13.382839246671516"><time>2023-04-28T07:27:50.000Z</time></trkpt><trkpt lat="52.5307369293834" lon="13.382839908663886"><time>2023-04-28T07:27:51.000Z</time></trkpt><trkpt lat="52.530737029880015" lon="13.382840571106522"><time>2023-04-28T07:27:52.000Z</time></trkpt><trkpt lat="52.530737057058424" lon="13.382841223336321"><time>2023-04-28T07:27:53.000Z</time></trkpt><trkpt lat="52.530737029319766" lon="13.38284187519772"><time>2023-04-28T07:27:54.000Z</time></trkpt><trkpt lat="52.53073694662669" lon="13.382842528205252"><time>2023-04-28T07:27:55.000Z</time></trkpt><trkpt lat="52.53073677867583" lon="13.382843155977458"><time>2023-04-28T07:27:56.000Z</time></trkpt><trkpt lat="52.53073655400265" lon="13.382843729021959"><time>2023-04-28T07:27:57.000Z</time></trkpt><trkpt lat="52.5307363395385" lon="13.382844238231115"><time>2023-04-28T07:27:58.000Z</time></trkpt><trkpt lat="52.53073624486851" lon="13.382844677444478"><time>2023-04-28T07:27:59.000Z</time></trkpt><trkpt lat="52.53073636496146" lon="13.382845015327673"><time>2023-04-28T07:28:00.000Z</time></trkpt><trkpt lat="52.53073677770474" lon="13.382845293182317"><time>2023-04-28T07:28:01.000Z</time></trkpt><trkpt lat="52.530737492958764" lon="13.382845538720188"><time>2023-04-28T07:28:02.000Z</time></trkpt><trkpt lat="52.530738450378244" lon="13.382845786959654"><time>2023-04-28T07:28:03.000Z</time></trkpt><trkpt lat="52.53073951829171" lon="13.38284605943158"><time>2023-04-28T07:28:04.000Z</time></trkpt><trkpt lat="52.530740597211" lon="13.382846357834696"><time>2023-04-28T07:28:05.000Z</time></trkpt><trkpt lat="52.53074164759483" lon="13.382846682762532"><time>2023-04-28T07:28:06.000Z</time></trkpt><trkpt lat="52.530742670489005" lon="13.38284702895517"><time>2023-04-28T07:28:07.000Z</time></trkpt><trkpt lat="52.53074367328883" lon="13.382847386322577"><time>2023-04-28T07:28:08.000Z</time></trkpt><trkpt lat="52.530744645075636" lon="13.382847745224979"><time>2023-04-28T07:28:09.000Z</time></trkpt><trkpt lat="52.530745549047154" lon="13.382848088961625"><time>2023-04-28T07:28:10.000Z</time></trkpt><trkpt lat="52.530746336473975" lon="13.382848418985647"><time>2023-04-28T07:28:11.000Z</time></trkpt><trkpt lat="52.53074697051647" lon="13.38284871100318"><time>2023-04-28T07:28:12.000Z</time></trkpt><trkpt lat="52.53074744882158" lon="13.382848946164483"><time>2023-04-28T07:28:13.000Z</time></trkpt><trkpt lat="52.53074784107211" lon="13.382849105190012"><time>2023-04-28T07:28:14.000Z</time></trkpt><trkpt lat="52.530748192362054" lon="13.382849223159527"><time>2023-04-28T07:28:15.000Z</time></trkpt><trkpt lat="52.53074857457786" lon="13.382849357809327"><time>2023-04-28T07:28:16.000Z</time></trkpt><trkpt lat="52.530748979527424" lon="13.382849499254041"><time>2023-04-28T07:28:17.000Z</time></trkpt><trkpt lat="52.53074928141566" lon="13.38284984556948"><time>2023-04-28T07:28:18.000Z</time></trkpt><trkpt lat="52.53074929862159" lon="13.38285062370984"><time>2023-04-28T07:28:19.000Z</time></trkpt><trkpt lat="52.53074885055759" lon="13.382851999904894"><time>2023-04-28T07:28:20.000Z</time></trkpt><trkpt lat="52.530747785320884" lon="13.382854072660415"><time>2023-04-28T07:28:21.000Z</time></trkpt><trkpt lat="52.53074602257145" lon="13.382856914366785"><time>2023-04-28T07:28:22.000Z</time></trkpt><trkpt lat="52.53074353191877" lon="13.3828605627849"><time>2023-04-28T07:28:23.000Z</time></trkpt><trkpt lat="52.53074034489875" lon="13.38286502053448"><time>2023-04-28T07:28:24.000Z</time></trkpt><trkpt lat="52.53073652270329" lon="13.382870302085415"><time>2023-04-28T07:28:25.000Z</time></trkpt><trkpt lat="52.53073228331991" lon="13.382876104306805"><time>2023-04-28T07:28:26.000Z</time></trkpt><trkpt lat="52.53072768520145" lon="13.382882294452248"><time>2023-04-28T07:28:27.000Z</time></trkpt><trkpt lat="52.53072281280891" lon="13.382888726246906"><time>2023-04-28T07:28:28.000Z</time></trkpt><trkpt lat="52.530717736746396" lon="13.382895060825188"><time>2023-04-28T07:28:29.000Z</time></trkpt><trkpt lat="52.530712694821844" lon="13.38290113379931"><time>2023-04-28T07:28:30.000Z</time></trkpt><trkpt lat="52.53070787940062" lon="13.382906669709223"><time>2023-04-28T07:28:31.000Z</time></trkpt><trkpt lat="52.53070353962021" lon="13.38291154102751"><time>2023-04-28T07:28:32.000Z</time></trkpt><trkpt lat="52.530699810974255" lon="13.38291568594502"><time>2023-04-28T07:28:33.000Z</time></trkpt><trkpt lat="52.530696748242846" lon="13.38291907327064"><time>2023-04-28T07:28:34.000Z</time></trkpt><trkpt lat="52.53069430639426" lon="13.382921686528755"><time>2023-04-28T07:28:35.000Z</time></trkpt><trkpt lat="52.53069240379368" lon="13.382923536812267"><time>2023-04-28T07:28:36.000Z</time></trkpt><trkpt lat="52.53069082943803" lon="13.382924910858327"><time>2023-04-28T07:28:37.000Z</time></trkpt><trkpt lat="52.53068953387583" lon="13.382925897348734"><time>2023-04-28T07:28:38.000Z</time></trkpt><trkpt lat="52.53068847991885" lon="13.382926630790026"><time>2023-04-28T07:28:39.000Z</time></trkpt><trkpt lat="52.53068774149533" lon="13.382927260649824"><time>2023-04-28T07:28:40.000Z</time></trkpt><trkpt lat="52.53068723008559" lon="13.38292773584348"><time>2023-04-28T07:28:41.000Z</time></trkpt><trkpt lat="52.53068693509466" lon="13.38292819740638"><time>2023-04-28T07:28:42.000Z</time></trkpt><trkpt lat="52.53068675216642" lon="13.382928682935676"><time>2023-04-28T07:28:43.000Z</time></trkpt><trkpt lat="52.53068663640607" lon="13.382929212754705"><time>2023-04-28T07:28:44.000Z</time></trkpt><trkpt lat="52.53068655482105" lon="13.382929807698476"><time>2023-04-28T07:28:45.000Z</time></trkpt><trkpt lat="52.53068654076498" lon="13.382930508597864"><time>2023-04-28T07:28:46.000Z</time></trkpt><trkpt lat="52.530686632496774" lon="13.382931373905496"><time>2023-04-28T07:28:47.000Z</time></trkpt><trkpt lat="52.53068682832324" lon="13.382932373903863"><time>2023-04-28T07:28:48.000Z</time></trkpt><trkpt lat="52.530687104141116" lon="13.382933474147666"><time>2023-04-28T07:28:49.000Z</time></trkpt><trkpt lat="52.530687430929405" lon="13.382934668578791"><time>2023-04-28T07:28:50.000Z</time></trkpt><trkpt lat="52.53068777598189" lon="13.382935904024993"><time>2023-04-28T07:28:51.000Z</time></trkpt><trkpt lat="52.53068814948268" lon="13.382937143073319"><time>2023-04-28T07:28:52.000Z</time></trkpt><trkpt lat="52.53068852701728" lon="13.38293833285852"><time>2023-04-28T07:28:53.000Z</time></trkpt><trkpt lat="52.53068889789111" lon="13.38293944098197"><time>2023-04-28T07:28:54.000Z</time></trkpt><trkpt lat="52.53068924011745" lon="13.382940427472375"><time>2023-04-28T07:28:55.000Z</time></trkpt><trkpt lat="52.530689542877184" lon="13.382941256758784"><time>2023-04-28T07:28:56.000Z</time></trkpt><trkpt lat="52.53068978006263" lon="13.382941898857611"><time>2023-04-28T07:28:57.000Z</time></trkpt><trkpt lat="52.530689911173866" lon="13.382942282299474"><time>2023-04-28T07:28:58.000Z</time></trkpt><trkpt lat="52.5306899479388" lon="13.382942433486294"><time>2023-04-28T07:28:59.000Z</time></trkpt><trkpt lat="52.53068989521294" lon="13.382942402786385"><time>2023-04-28T07:29:00.000Z</time></trkpt><trkpt lat="52.53068978738327" lon="13.382942229106767"><time>2023-04-28T07:29:01.000Z</time></trkpt><trkpt lat="52.530689678208994" lon="13.38294195514078"><time>2023-04-28T07:29:02.000Z</time></trkpt><trkpt lat="52.53068955724453" lon="13.382941638358654"><time>2023-04-28T07:29:03.000Z</time></trkpt><trkpt lat="52.53068943212176" lon="13.382941326979712"><time>2023-04-28T07:29:04.000Z</time></trkpt><trkpt lat="52.53068946577419" lon="13.382940643558806"><time>2023-04-28T07:29:05.000Z</time></trkpt><trkpt lat="52.53068971135096" lon="13.382939499700665"><time>2023-04-28T07:29:06.000Z</time></trkpt><trkpt lat="52.53069016044831" lon="13.382937835356268"><time>2023-04-28T07:29:07.000Z</time></trkpt><trkpt lat="52.53069078979715" lon="13.382935636853922"><time>2023-04-28T07:29:08.000Z</time></trkpt><trkpt lat="52.530691489837224" lon="13.382932832130708"><time>2023-04-28T07:29:09.000Z</time></trkpt><trkpt lat="52.53069226049386" lon="13.38292954857078"><time>2023-04-28T07:29:10.000Z</time></trkpt><trkpt lat="52.53069312924425" lon="13.38292563553992"><time>2023-04-28T07:29:11.000Z</time></trkpt><trkpt lat="52.53069405909937" lon="13.382920975355141"><time>2023-04-28T07:29:12.000Z</time></trkpt><trkpt lat="52.530694976031356" lon="13.382915503075905"><time>2023-04-28T07:29:13.000Z</time></trkpt><trkpt lat="52.530695959508755" lon="13.382909168927421"><time>2023-04-28T07:29:14.000Z</time></trkpt><trkpt lat="52.53069701000463" lon="13.382901966933446"><time>2023-04-28T07:29:15.000Z</time></trkpt><trkpt lat="52.530697871521554" lon="13.382894308309027"><time>2023-04-28T07:29:16.000Z</time></trkpt><trkpt lat="52.53069852603189" lon="13.38288631403227"><time>2023-04-28T07:29:17.000Z</time></trkpt><trkpt lat="52.530699016152084" lon="13.382878059604481"><time>2023-04-28T07:29:18.000Z</time></trkpt><trkpt lat="52.53069933491011" lon="13.382869504460853"><time>2023-04-28T07:29:19.000Z</time></trkpt><trkpt lat="52.530699596335765" lon="13.382860769640889"><time>2023-04-28T07:29:20.000Z</time></trkpt><trkpt lat="52.53069986264183" lon="13.382851768775515"><time>2023-04-28T07:29:21.000Z</time></trkpt><trkpt lat="52.53070013540946" lon="13.382842571983321"><time>2023-04-28T07:29:22.000Z</time></trkpt><trkpt lat="52.5307004364262" lon="13.382833378056453"><time>2023-04-28T07:29:23.000Z</time></trkpt><trkpt lat="52.53070082810404" lon="13.382824387772315"><time>2023-04-28T07:29:24.000Z</time></trkpt><trkpt lat="52.53070130770396" lon="13.382815791572677"><time>2023-04-28T07:29:25.000Z</time></trkpt><trkpt lat="52.53070183536097" lon="13.38280763278534"><time>2023-04-28T07:29:26.000Z</time></trkpt><trkpt lat="52.53070250692785" lon="13.382799910243707"><time>2023-04-28T07:29:27.000Z</time></trkpt><trkpt lat="52.530703314137774" lon="13.38279283737355"><time>2023-04-28T07:29:28.000Z</time></trkpt><trkpt lat="52.53070419818925" lon="13.382786510122315"><time>2023-04-28T07:29:29.000Z</time></trkpt><trkpt lat="52.53070513515333" lon="13.382781024294184"><time>2023-04-28T07:29:30.000Z</time></trkpt><trkpt lat="52.530706297512694" lon="13.382776227249211"><time>2023-04-28T07:29:31.000Z</time></trkpt><trkpt lat="52.530707702747186" lon="13.38277205443572"><time>2023-04-28T07:29:32.000Z</time></trkpt><trkpt lat="52.53070941335591" lon="13.382768456733857"><time>2023-04-28T07:29:33.000Z</time></trkpt><trkpt lat="52.53071147389753" lon="13.382765309010791"><time>2023-04-28T07:29:34.000Z</time></trkpt><trkpt lat="52.53071386541066" lon="13.382762394320501"><time>2023-04-28T07:29:35.000Z</time></trkpt><trkpt lat="52.530716711499146" lon="13.382759561803635"><time>2023-04-28T07:29:36.000Z</time></trkpt><trkpt lat="52.530720368644616" lon="13.382756531047223"><time>2023-04-28T07:29:37.000Z</time></trkpt><trkpt lat="52.530720483558355" lon="13.382756774599837"><time>2023-04-28T07:29:38.000Z</time></trkpt><trkpt lat="52.53072497100853" lon="13.382753373070392"><time>2023-04-28T07:29:39.000Z</time></trkpt><trkpt lat="52.53072958691807" lon="13.382748944485725"><time>2023-04-28T07:29:40.000Z</time></trkpt><trkpt lat="52.53073622859632" lon="13.382744646928272"><time>2023-04-28T07:29:41.000Z</time></trkpt><trkpt lat="52.53074638209087" lon="13.382737880115739"><time>2023-04-28T07:29:42.000Z</time></trkpt></trkseg></trk></gpx>