<?xml version="1.0" encoding="UTF-8"?><gpx creator="Health" xsi:schemaLocation="http://www.topografix.com/GPX/1/0 http://www.topografix.com/GPX/1/0/gpx.xsd" version="1.0" xmlns="http://www.topografix.com/GPX/1/0" xmlns:xsi="http://www.w3.org/2001/XMLSchema-instance"><metadata><time>2023-04-25T07:35:36.000Z</time></metadata><trk><type>Ходьба на улице</type><extensions><totalTime>3619.0</totalTime><cumulativeDecrease>-0.10000000149011612</cumulativeDecrease><cumulativeClimb>-0.10000000149011612</cumulativeClimb><totalDistance>3420.0</totalDistance></extensions><trkseg><trkpt lat="52.532705928643736" lon="13.380430571531175"><time>2023-04-25T07:35:36.000Z</time></trkpt><trkpt lat="52.532737802945476" lon="13.380458902634357"><time>2023-04-25T07:35:38.000Z</time></trkpt><trkpt lat="52.532707355081584" lon="13.380482248039067"><time>2023-04-25T07:35:40.000Z</time></trkpt><trkpt lat="52.53247379964179" lon="13.380512807932456"><time>2023-04-25T07:35:51.000Z</time></trkpt><trkpt lat="52.53239164183806" lon="13.380771130923016"><time>2023-04-25T07:36:02.000Z</time></trkpt><trkpt lat="52.532333569766756" lon="13.380860530944487"><time>2023-04-25T07:36:07.000Z</time></trkpt><trkpt lat="52.53188238792447" lon="13.38115008750281"><time>2023-04-25T07:36:49.000Z</time></trkpt><trkpt lat="52.53173913978796" lon="13.381470025556835"><time>2023-04-25T07:37:12.000Z</time></trkpt><trkpt lat="52.5316012562558" lon="13.381563926683752"><time>2023-04-25T07:37:24.000Z</time></trkpt><trkpt lat="52.531548109533226" lon="13.381702854094927"><time>2023-04-25T07:37:37.000Z</time></trkpt><trkpt lat="52.531393947031255" lon="13.381842368602088"><time>2023-04-25T07:37:54.000Z</time></trkpt><trkpt lat="52.53137612270196" lon="13.382013870031717"><time>2023-04-25T07:38:11.000Z</time></trkpt><trkpt lat="52.531421841253206" lon="13.382194250363257"><time>2023-04-25T07:38:22.000Z</time></trkpt><trkpt lat="52.5318760108342" lon="13.383198439039017"><time>2023-04-25T07:39:01.000Z</time></trkpt><trkpt lat="52.53197513590899" lon="13.383764192854143"><time>2023-04-25T07:39:30.000Z</time></trkpt><trkpt lat="52.53220059022536" lon="13.384329717954499"><time>2023-04-25T07:40:11.000Z</time></trkpt><trkpt lat="52.53233601876796" lon="13.384972561398804"><time>2023-04-25T07:40:53.000Z</time></trkpt><trkpt lat="52.53241599129478" lon="13.385132321788824"><time>2023-04-25T07:41:05.000Z</time></trkpt><trkpt lat="52.53248873748548" lon="13.385123456701894"><time>2023-04-25T07:41:22.000Z</time></trkpt><trkpt lat="52.53270601377719" lon="13.385392318438909"><time>2023-04-25T07:41:46.000Z</time></trkpt><trkpt lat="52.532842136249116" lon="13.385634750776838"><time>2023-04-25T07:42:04.000Z</time></trkpt><trkpt lat="52.53304899694588" lon="13.38627076302766"><time>2023-04-25T07:42:45.000Z</time></trkpt><trkpt lat="52.53342710333945" lon="13.387105964949228"><time>2023-04-25T07:43:57.000Z</time></trkpt><trkpt lat="52.5334344569849" lon="13.387138006466477"><time>2023-04-25T07:44:20.000Z</time></trkpt><trkpt lat="52.53328826430825" lon="13.387356487384055"><time>2023-04-25T07:44:47.000Z</time></trkpt><trkpt lat="52.53323444977243" lon="13.387669085402838"><time>2023-04-25T07:45:09.000Z</time></trkpt><trkpt lat="52.53331124420595" lon="13.387575548285458"><time>2023-04-25T07:45:31.000Z</time></trkpt><trkpt lat="52.533346833101376" lon="13.387674530021973"><time>2023-04-25T07:46:27.000Z</time></trkpt><trkpt lat="52.533339915387366" lon="13.387785440374905"><time>2023-04-25T07:46:33.000Z</time></trkpt><trkpt lat="52.53315244858229" lon="13.388066993356512"><time>2023-04-25T07:46:55.000Z</time></trkpt><trkpt lat="52.53313010162212" lon="13.38819661321233"><time>2023-04-25T07:47:05.000Z</time></trkpt><trkpt lat="52.53329430549681" lon="13.388440085092162"><time>2023-04-25T07:47:45.000Z</time></trkpt><trkpt lat="52.533814862941945" lon="13.38904470920296"><time>2023-04-25T07:48:48.000Z</time></trkpt><trkpt lat="52.533847937825314" lon="13.389228611353145"><time>2023-04-25T07:49:06.000Z</time></trkpt><trkpt lat="52.53447389630701" lon="13.389893363196235"><time>2023-04-25T07:50:14.000Z</time></trkpt><trkpt lat="52.5345622103827" lon="13.389879982020995"><time>2023-04-25T07:50:24.000Z</time></trkpt><trkpt lat="52.534786613269425" lon="13.389465988920632"><time>2023-04-25T07:50:57.000Z</time></trkpt><trkpt lat="52.53530804460365" lon="13.389971955609393"><time>2023-04-25T07:51:53.000Z</time></trkpt><trkpt lat="52.53544399687528" lon="13.390390563365447"><time>2023-04-25T07:52:18.000Z</time></trkpt><trkpt lat="52.53540911521295" lon="13.390645151663302"><time>2023-04-25T07:52:32.000Z</time></trkpt><trkpt lat="52.53542642876749" lon="13.390725713295302"><time>2023-04-25T07:52:38.000Z</time></trkpt><trkpt lat="52.53565160711653" lon="13.391069285332001"><time>2023-04-25T07:53:10.000Z</time></trkpt><trkpt lat="52.536313283815204" lon="13.392299722345086"><time>2023-04-25T07:54:51.000Z</time></trkpt><trkpt lat="52.53633542412047" lon="13.392362162972146"><time>2023-04-25T07:55:01.000Z</time></trkpt><trkpt lat="52.53628317021418" lon="13.392348599152546"><time>2023-04-25T07:55:54.000Z</time></trkpt><trkpt lat="52.53692785827911" lon="13.393332755033935"><time>2023-04-25T07:57:15.000Z</time></trkpt><trkpt lat="52.53696701557931" lon="13.393428241926847"><time>2023-04-25T07:57:21.000Z</time></trkpt><trkpt lat="52.53696307987695" lon="13.393518976218878"><time>2023-04-25T07:57:27.000Z</time></trkpt><trkpt lat="52.53656130377953" lon="13.394130891367768"><time>2023-04-25T07:58:14.000Z</time></trkpt><trkpt lat="52.5364032426763" lon="13.394309877020163"><time>2023-04-25T07:58:34.000Z</time></trkpt><trkpt lat="52.536230531975555" lon="13.394417515370337"><time>2023-04-25T07:58:55.000Z</time></trkpt><trkpt lat="52.53602483333622" lon="13.394726547485334"><time>2023-04-25T07:59:26.000Z</time></trkpt><trkpt lat="52.53558367807912" lon="13.395126884174992"><time>2023-04-25T08:00:17.000Z</time></trkpt><trkpt lat="52.53506029582572" lon="13.395525812268174"><time>2023-04-25T08:01:10.000Z</time></trkpt><trkpt lat="52.53478211894676" lon="13.395817578556576"><time>2023-04-25T08:01:45.000Z</time></trkpt><trkpt lat="52.53454572978467" lon="13.39595715404411"><time>2023-04-25T08:02:17.000Z</time></trkpt><trkpt lat="52.534515968755926" lon="13.395928109253218"><time>2023-04-25T08:03:30.000Z</time></trkpt><trkpt lat="52.534379214055235" lon="13.396099136409248"><time>2023-04-25T08:03:56.000Z</time></trkpt><trkpt lat="52.53404016937131" lon="13.396366440104321"><time>2023-04-25T08:04:35.000Z</time></trkpt><trkpt lat="52.53385217637834" lon="13.396624683759166"><time>2023-04-25T08:04:57.000Z</time></trkpt><trkpt lat="52.533699738040056" lon="13.396732756288772"><time>2023-04-25T08:05:11.000Z</time></trkpt><trkpt lat="52.53355394779181" lon="13.396740151915573"><time>2023-04-25T08:05:25.000Z</time></trkpt><trkpt lat="52.533533318863675" lon="13.397016604620852"><time>2023-04-25T08:05:47.000Z</time></trkpt><trkpt lat="52.53356976725604" lon="13.397281778953033"><time>2023-04-25T08:06:08.000Z</time></trkpt><trkpt lat="52.53349397152631" lon="13.397459293522191"><time>2023-04-25T08:06:22.000Z</time></trkpt><trkpt lat="52.53330090473359" lon="13.397547638389357"><time>2023-04-25T08:06:37.000Z</time></trkpt><trkpt lat="52.53307680919445" lon="13.39756195123875"><time>2023-04-25T08:06:58.000Z</time></trkpt><trkpt lat="52.53294883569659" lon="13.397658649769172"><time>2023-04-25T08:07:19.000Z</time></trkpt><trkpt lat="52.53258500691863" lon="13.397713029196222"><time>2023-04-25T08:08:14.000Z</time></trkpt><trkpt lat="52.532539356058145" lon="13.398494063467295"><time>2023-04-25T08:09:11.000Z</time></trkpt><trkpt lat="52.532679490405705" lon="13.39901651183078"><time>2023-04-25T08:10:02.000Z</time></trkpt><trkpt lat="52.53260154645502" lon="13.399228282323133"><time>2023-04-25T08:10:24.000Z</time></trkpt><trkpt lat="52.53269742378481" lon="13.399809650768082"><time>2023-04-25T08:11:07.000Z</time></trkpt><trkpt lat="52.53267111242187" lon="13.39994680197255"><time>2023-04-25T08:11:20.000Z</time></trkpt><trkpt lat="52.53267579528765" lon="13.400185059999398"><time>2023-04-25T08:11:39.000Z</time></trkpt><trkpt lat="52.5326000331668" lon="13.400259013340595"><time>2023-04-25T08:12:02.000Z</time></trkpt><trkpt lat="52.53254673227554" lon="13.400257748170842"><time>2023-04-25T08:12:40.000Z</time></trkpt><trkpt lat="52.53257944356207" lon="13.40047774922549"><time>2023-04-25T08:14:15.000Z</time></trkpt><trkpt lat="52.53253559766907" lon="13.400456925727479"><time>2023-04-25T08:14:40.000Z</time></trkpt><trkpt lat="52.53248221117146" lon="13.400291807218446"><time>2023-04-25T08:15:27.000Z</time></trkpt><trkpt lat="52.53246405467541" lon="13.400376349433238"><time>2023-04-25T08:16:14.000Z</time></trkpt><trkpt lat="52.53247727036603" lon="13.400301289708107"><time>2023-04-25T08:16:51.000Z</time></trkpt><trkpt lat="52.532411527989055" lon="13.400224777618691"><time>2023-04-25T08:17:39.000Z</time></trkpt><trkpt lat="52.53245533274717" lon="13.400055620529962"><time>2023-04-25T08:18:24.000Z</time></trkpt><trkpt lat="52.532347914877874" lon="13.399907437845128"><time>2023-04-25T08:18:39.000Z</time></trkpt><trkpt lat="52.53224443130404" lon="13.39984254436294"><time>2023-04-25T08:19:22.000Z</time></trkpt><trkpt lat="52.53216697726193" lon="13.399853803358548"><time>2023-04-25T08:19:50.000Z</time></trkpt><trkpt lat="52.53210121908592" lon="13.399750905518859"><time>2023-04-25T08:20:08.000Z</time></trkpt><trkpt lat="52.53195394105015" lon="13.399844739549332"><time>2023-04-25T08:21:30.000Z</time></trkpt><trkpt lat="52.531850108141064" lon="13.39975063477655"><time>2023-04-25T08:21:43.000Z</time></trkpt><trkpt lat="52.53187299981786" lon="13.399624522500375"><time>2023-04-25T08:21:53.000Z</time></trkpt><trkpt lat="52.531907969321345" lon="13.390085998293207"><time>2023-04-25T09:46:55.000Z</time></trkpt><trkpt lat="52.531821563899314" lon="13.39009886655003"><time>2023-04-25T09:46:57.000Z</time></trkpt><trkpt lat="52.53173612672283" lon="13.390029342998988"><time>2023-04-25T09:47:04.000Z</time></trkpt><trkpt lat="52.53166670261397" lon="13.389736232637306"><time>2023-04-25T09:47:50.000Z</time></trkpt><trkpt lat="52.53170646377156" lon="13.389444106544971"><time>2023-04-25T09:48:16.000Z</time></trkpt><trkpt lat="52.53168145657534" lon="13.389343195933764"><time>2023-04-25T09:48:43.000Z</time></trkpt><trkpt lat="52.531773444130906" lon="13.389151454375856"><time>2023-04-25T09:49:09.000Z</time></trkpt><trkpt lat="52.531830987756045" lon="13.388846834506909"><time>2023-04-25T09:49:28.000Z</time></trkpt><trkpt lat="52.53176191656662" lon="13.38847426429212"><time>2023-04-25T09:49:49.000Z</time></trkpt><trkpt lat="52.531485375204824" lon="13.387966916224421"><time>2023-04-25T09:50:15.000Z</time></trkpt><trkpt lat="52.531351905294194" lon="13.386945401150388"><time>2023-04-25T09:51:06.000Z</time></trkpt><trkpt lat="52.5312232767942" lon="13.386535946275682"><time>2023-04-25T09:51:32.000Z</time></trkpt><trkpt lat="52.53124572671918" lon="13.38622239232925"><time>2023-04-25T09:51:48.000Z</time></trkpt><trkpt lat="52.53141430972568" lon="13.385904886906324"><time>2023-04-25T09:52:37.000Z</time></trkpt><trkpt lat="52.53143260592346" lon="13.385799275304338"><time>2023-04-25T09:52:44.000Z</time></trkpt><trkpt lat="52.53123400091704" lon="13.385491147978884"><time>2023-04-25T09:53:08.000Z</time></trkpt><trkpt lat="52.53119576121491" lon="13.385280601347556"><time>2023-04-25T09:53:21.000Z</time></trkpt><trkpt lat="52.531249222686604" lon="13.385172696668194"><time>2023-04-25T09:53:46.000Z</time></trkpt><trkpt lat="52.53110310422142" lon="13.384713826919407"><time>2023-04-25T09:54:11.000Z</time></trkpt><trkpt lat="52.530813129958844" lon="13.384085057127708"><time>2023-04-25T09:54:57.000Z</time></trkpt><trkpt lat="52.53080757120256" lon="13.383866418435412"><time>2023-04-25T09:55:17.000Z</time></trkpt><trkpt lat="52.53071697100168" lon="13.383725863765317"><time>2023-04-25T09:55:30.000Z</time></trkpt><trkpt lat="52.53065092955291" lon="13.383382275632519"><time>2023-04-25T09:55:33.000Z</time></trkpt><trkpt lat="52.530716564883626" lon="13.383569798490075"><time>2023-04-25T09:55:37.000Z</time></trkpt><trkpt lat="52.530691057363406" lon="13.383450870522353"><time>2023-04-25T09:55:38.000Z</time></trkpt><trkpt lat="52.530760978371156" lon="13.383119560787389"><time>2023-04-25T09:55:51.000Z</time></trkpt><trkpt lat="52.530792285000985" lon="13.382730595985395"><time>2023-04-25T09:56:07.000Z</time></trkpt><trkpt lat="52.53088563758836" lon="13.382418331643613"><time>2023-04-25T09:56:23.000Z</time></trkpt><trkpt lat="52.531109737265574" lon="13.3820879843384"><time>2023-04-25T09:56:51.000Z</time></trkpt><trkpt lat="52.53130510483561" lon="13.381889667159596"><time>2023-04-25T09:57:14.000Z</time></trkpt><trkpt lat="52.5316594673294" lon="13.381328789494683"><time>2023-04-25T09:57:54.000Z</time></trkpt><trkpt lat="52.53186231927639" lon="13.381158914455574"><time>2023-04-25T09:58:14.000Z</time></trkpt><trkpt lat="52.53219169967782" lon="13.38063026366312"><time>2023-04-25T09:58:54.000Z</time></trkpt><trkpt lat="52.532418586021095" lon="13.380412749275894"><time>2023-04-25T09:59:18.000Z</time></trkpt><trkpt lat="52.532961456151426" lon="13.379756355287459"><time>2023-04-25T10:00:19.000Z</time></trkpt><trkpt lat="52.533028656077875" lon="13.379626496101476"><time>2023-04-25T10:00:34.000Z</time></trkpt></trkseg></trk></gpx>