<?xml version="1.0" encoding="UTF-8"?><gpx creator="Health" xsi:schemaLocation="http://www.topografix.com/GPX/1/0 http://www.topografix.com/GPX/1/0/gpx.xsd" version="1.0" xmlns="http://www.topografix.com/GPX/1/0" xmlns:xsi="http://www.w3.org/2001/XMLSchema-instance"><metadata><time>2023-06-17T10:22:33.000Z</time></metadata><trk><type>Ходьба на улице</type><extensions><totalTime>4751.0</totalTime><cumulativeDecrease>-0.10000000149011612</cumulativeDecrease><cumulativeClimb>-0.10000000149011612</cumulativeClimb><totalDistance>3610.0</totalDistance></extensions><trkseg><trkpt lat="52.523288720442835" lon="13.416504874545604"><time>2023-06-17T10:22:33.000Z</time></trkpt><trkpt lat="52.52339329805787" lon="13.416611413221228"><time>2023-06-17T10:22:45.000Z</time></trkpt><trkpt lat="52.52367555988274" lon="13.416762203162717"><time>2023-06-17T10:23:02.000Z</time></trkpt><trkpt lat="52.523789087527824" lon="13.416949101074636"><time>2023-06-17T10:23:15.000Z</time></trkpt><trkpt lat="52.523835172698135" lon="13.417097584056062"><time>2023-06-17T10:23:32.000Z</time></trkpt><trkpt lat="52.5241319117043" lon="13.41728191844655"><time>2023-06-17T10:24:34.000Z</time></trkpt><trkpt lat="52.52431789733908" lon="13.417544949680831"><time>2023-06-17T10:25:07.000Z</time></trkpt><trkpt lat="52.52449513279646" lon="13.418055437404497"><time>2023-06-17T10:25:32.000Z</time></trkpt><trkpt lat="52.52437221583325" lon="13.418383762559323"><time>2023-06-17T10:25:53.000Z</time></trkpt><trkpt lat="52.52439242182772" lon="13.418576677761108"><time>2023-06-17T10:26:08.000Z</time></trkpt><trkpt lat="52.5246493428202" lon="13.419023729438784"><time>2023-06-17T10:26:34.000Z</time></trkpt><trkpt lat="52.52489251260284" lon="13.419355004471624"><time>2023-06-17T10:26:58.000Z</time></trkpt><trkpt lat="52.524977067841206" lon="13.41940508769618"><time>2023-06-17T10:27:07.000Z</time></trkpt><trkpt lat="52.52511438139873" lon="13.419331044882343"><time>2023-06-17T10:27:31.000Z</time></trkpt><trkpt lat="52.52541748499853" lon="13.419563273692075"><time>2023-06-17T10:28:38.000Z</time></trkpt><trkpt lat="52.525807342449134" lon="13.420009199618939"><time>2023-06-17T10:30:24.000Z</time></trkpt><trkpt lat="52.52607430814157" lon="13.420347056987332"><time>2023-06-17T10:30:52.000Z</time></trkpt><trkpt lat="52.52625550380919" lon="13.420740339392289"><time>2023-06-17T10:31:16.000Z</time></trkpt><trkpt lat="52.52663295439759" lon="13.421266781445706"><time>2023-06-17T10:32:07.000Z</time></trkpt><trkpt lat="52.52733522131978" lon="13.422030629972745"><time>2023-06-17T10:33:24.000Z</time></trkpt><trkpt lat="52.52768437319737" lon="13.422537973386163"><time>2023-06-17T10:34:00.000Z</time></trkpt><trkpt lat="52.52784881369412" lon="13.422864737455937"><time>2023-06-17T10:34:18.000Z</time></trkpt><trkpt lat="52.52808238004928" lon="13.42318488673704"><time>2023-06-17T10:34:39.000Z</time></trkpt><trkpt lat="52.528311238177956" lon="13.423391839130245"><time>2023-06-17T10:35:01.000Z</time></trkpt><trkpt lat="52.5284432584075" lon="13.423617498557025"><time>2023-06-17T10:35:17.000Z</time></trkpt><trkpt lat="52.52871597245146" lon="13.42394708662109"><time>2023-06-17T10:35:43.000Z</time></trkpt><trkpt lat="52.528903987123044" lon="13.42426996978076"><time>2023-06-17T10:36:03.000Z</time></trkpt><trkpt lat="52.52915683246862" lon="13.424511406907198"><time>2023-06-17T10:36:26.000Z</time></trkpt><trkpt lat="52.52986460661021" lon="13.425334600197795"><time>2023-06-17T10:37:35.000Z</time></trkpt><trkpt lat="52.53013936977911" lon="13.425580795041492"><time>2023-06-17T10:37:59.000Z</time></trkpt><trkpt lat="52.53034009483204" lon="13.425912076315312"><time>2023-06-17T10:38:59.000Z</time></trkpt><trkpt lat="52.53106225731978" lon="13.426662036953696"><time>2023-06-17T10:40:51.000Z</time></trkpt><trkpt lat="52.53137625400792" lon="13.427118367665594"><time>2023-06-17T10:41:24.000Z</time></trkpt><trkpt lat="52.53187340935937" lon="13.427549921546648"><time>2023-06-17T10:42:09.000Z</time></trkpt><trkpt lat="52.53310248323844" lon="13.429039506034426"><time>2023-06-17T10:44:07.000Z</time></trkpt><trkpt lat="52.53310609852692" lon="13.429108550556396"><time>2023-06-17T10:44:14.000Z</time></trkpt><trkpt lat="52.53287278543018" lon="13.429656702805072"><time>2023-06-17T10:44:50.000Z</time></trkpt><trkpt lat="52.53298563077646" lon="13.429729887657487"><time>2023-06-17T10:45:08.000Z</time></trkpt><trkpt lat="52.53301806697971" lon="13.429901170962765"><time>2023-06-17T10:45:26.000Z</time></trkpt><trkpt lat="52.53306193855059" lon="13.42977620727717"><time>2023-06-17T10:46:22.000Z</time></trkpt><trkpt lat="52.533188262940826" lon="13.429855152402501"><time>2023-06-17T10:46:32.000Z</time></trkpt><trkpt lat="52.533297778054546" lon="13.429842745277618"><time>2023-06-17T10:46:44.000Z</time></trkpt><trkpt lat="52.533262983568754" lon="13.430030659215062"><time>2023-06-17T10:52:15.000Z</time></trkpt><trkpt lat="52.533308879130125" lon="13.430137706691363"><time>2023-06-17T10:52:21.000Z</time></trkpt><trkpt lat="52.53353154742752" lon="13.430051026642703"><time>2023-06-17T10:52:42.000Z</time></trkpt><trkpt lat="52.533663983772755" lon="13.430158469373458"><time>2023-06-17T10:52:55.000Z</time></trkpt><trkpt lat="52.534530952215874" lon="13.43135136629155"><time>2023-06-17T10:54:29.000Z</time></trkpt><trkpt lat="52.5347452741419" lon="13.43154063379612"><time>2023-06-17T10:54:47.000Z</time></trkpt><trkpt lat="52.535557064519224" lon="13.432646130976504"><time>2023-06-17T10:56:25.000Z</time></trkpt><trkpt lat="52.535594859512635" lon="13.432593943539974"><time>2023-06-17T10:56:32.000Z</time></trkpt><trkpt lat="52.53573402173877" lon="13.432667023908573"><time>2023-06-17T10:56:46.000Z</time></trkpt><trkpt lat="52.53564504126396" lon="13.432698114276"><time>2023-06-17T10:56:49.000Z</time></trkpt><trkpt lat="52.535641695784484" lon="13.43275387813714"><time>2023-06-17T10:56:53.000Z</time></trkpt><trkpt lat="52.53585702354735" lon="13.4329280590942"><time>2023-06-17T10:57:50.000Z</time></trkpt><trkpt lat="52.53590708469276" lon="13.433129355239641"><time>2023-06-17T10:58:32.000Z</time></trkpt><trkpt lat="52.53607282994605" lon="13.43343784022017"><time>2023-06-17T10:59:00.000Z</time></trkpt><trkpt lat="52.53626828445462" lon="13.433500734939184"><time>2023-06-17T10:59:22.000Z</time></trkpt><trkpt lat="52.53622417236762" lon="13.433527288999422"><time>2023-06-17T10:59:32.000Z</time></trkpt><trkpt lat="52.5362257816954" lon="13.433649239241094"><time>2023-06-17T10:59:41.000Z</time></trkpt><trkpt lat="52.536264282393645" lon="13.433596137403985"><time>2023-06-17T10:59:43.000Z</time></trkpt><trkpt lat="52.53615820208087" lon="13.433506891603614"><time>2023-06-17T11:00:10.000Z</time></trkpt><trkpt lat="52.5362054789218" lon="13.433428265807686"><time>2023-06-17T11:00:14.000Z</time></trkpt><trkpt lat="52.536424882970785" lon="13.43371879275819"><time>2023-06-17T11:00:32.000Z</time></trkpt><trkpt lat="52.53701386346873" lon="13.434318644611636"><time>2023-06-17T11:01:23.000Z</time></trkpt><trkpt lat="52.53736847461439" lon="13.434818151017437"><time>2023-06-17T11:01:59.000Z</time></trkpt><trkpt lat="52.53770144869106" lon="13.435141257634045"><time>2023-06-17T11:02:31.000Z</time></trkpt><trkpt lat="52.53783270741474" lon="13.43535678248366"><time>2023-06-17T11:02:48.000Z</time></trkpt><trkpt lat="52.53836644477844" lon="13.435914831066032"><time>2023-06-17T11:03:36.000Z</time></trkpt><trkpt lat="52.539054980193015" lon="13.43681641448162"><time>2023-06-17T11:04:44.000Z</time></trkpt><trkpt lat="52.53910899620134" lon="13.436943719170522"><time>2023-06-17T11:04:52.000Z</time></trkpt><trkpt lat="52.539175388656425" lon="13.437321972205554"><time>2023-06-17T11:05:13.000Z</time></trkpt><trkpt lat="52.53949874303346" lon="13.4378820903626"><time>2023-06-17T11:05:53.000Z</time></trkpt><trkpt lat="52.53956596617922" lon="13.43791031213877"><time>2023-06-17T11:06:00.000Z</time></trkpt><trkpt lat="52.53984244548463" lon="13.43786343110359"><time>2023-06-17T11:06:23.000Z</time></trkpt><trkpt lat="52.540264153377166" lon="13.43809902024447"><time>2023-06-17T11:06:58.000Z</time></trkpt><trkpt lat="52.5404779576809" lon="13.438090092652182"><time>2023-06-17T11:07:17.000Z</time></trkpt><trkpt lat="52.5406549588599" lon="13.438558129058764"><time>2023-06-17T11:07:37.000Z</time></trkpt><trkpt lat="52.540992241031674" lon="13.43896271461026"><time>2023-06-17T11:08:08.000Z</time></trkpt><trkpt lat="52.541018832196464" lon="13.439054059708695"><time>2023-06-17T11:08:34.000Z</time></trkpt><trkpt lat="52.541276430314745" lon="13.439308820838056"><time>2023-06-17T11:09:01.000Z</time></trkpt><trkpt lat="52.54147427602518" lon="13.439603124441811"><time>2023-06-17T11:09:21.000Z</time></trkpt><trkpt lat="52.5415296994592" lon="13.439840080042552"><time>2023-06-17T11:09:33.000Z</time></trkpt><trkpt lat="52.541652076695115" lon="13.440039282502617"><time>2023-06-17T11:09:45.000Z</time></trkpt><trkpt lat="52.54171204070356" lon="13.440214127590655"><time>2023-06-17T11:09:54.000Z</time></trkpt><trkpt lat="52.54176271923329" lon="13.440660626698675"><time>2023-06-17T11:10:17.000Z</time></trkpt><trkpt lat="52.54188833736323" lon="13.440737572448716"><time>2023-06-17T11:10:29.000Z</time></trkpt><trkpt lat="52.5420842656144" lon="13.44057137053423"><time>2023-06-17T11:32:42.000Z</time></trkpt><trkpt lat="52.542217474578706" lon="13.440639960637888"><time>2023-06-17T11:32:50.000Z</time></trkpt><trkpt lat="52.54232525371043" lon="13.440790080739088"><time>2023-06-17T11:33:07.000Z</time></trkpt><trkpt lat="52.54194056885905" lon="13.441030643381657"><time>2023-06-17T11:34:24.000Z</time></trkpt><trkpt lat="52.54205031942527" lon="13.440936155856749"><time>2023-06-17T11:34:37.000Z</time></trkpt><trkpt lat="52.54212949375912" lon="13.440804188722625"><time>2023-06-17T11:35:13.000Z</time></trkpt><trkpt lat="52.5423298565599" lon="13.440898078867916"><time>2023-06-17T11:35:31.000Z</time></trkpt><trkpt lat="52.54260044844395" lon="13.441127308313845"><time>2023-06-17T11:35:53.000Z</time></trkpt><trkpt lat="52.54276764179094" lon="13.440860762120009"><time>2023-06-17T11:36:42.000Z</time></trkpt><trkpt lat="52.5430558334774" lon="13.44107551739126"><time>2023-06-17T11:37:18.000Z</time></trkpt><trkpt lat="52.54311609719125" lon="13.441100957290693"><time>2023-06-17T11:40:31.000Z</time></trkpt><trkpt lat="52.54310999171054" lon="13.441058964691656"><time>2023-06-17T11:41:43.000Z</time></trkpt></trkseg></trk></gpx>