<?xml version="1.0" encoding="UTF-8"?><gpx creator="Health" xsi:schemaLocation="http://www.topografix.com/GPX/1/0 http://www.topografix.com/GPX/1/0/gpx.xsd" version="1.0" xmlns="http://www.topografix.com/GPX/1/0" xmlns:xsi="http://www.w3.org/2001/XMLSchema-instance"><metadata><time>2024-04-30T15:43:09.663Z</time></metadata><trk><type>Ходьба на улице</type><extensions><totalTime>2760.0</totalTime><cumulativeDecrease>0.0</cumulativeDecrease><cumulativeClimb>0.0</cumulativeClimb><totalDistance>3867.0</totalDistance></extensions><trkseg><trkpt lat="52.510519" lon="13.4178"><time>2024-04-30T15:43:09.663Z</time></trkpt><trkpt lat="52.510531" lon="13.417726"><time>2024-04-30T15:43:10.663Z</time></trkpt><trkpt lat="52.510551" lon="13.417632"><time>2024-04-30T15:43:12.000Z</time></trkpt><trkpt lat="52.510581" lon="13.417512"><time>2024-04-30T15:43:14.000Z</time></trkpt><trkpt lat="52.510618" lon="13.417396"><time>2024-04-30T15:43:16.001Z</time></trkpt><trkpt lat="52.510653" lon="13.417308"><time>2024-04-30T15:43:18.001Z</time></trkpt><trkpt lat="52.510691" lon="13.417255"><time>2024-04-30T15:43:20.001Z</time></trkpt><trkpt lat="52.510717" lon="13.417213"><time>2024-04-30T15:43:24.001Z</time></trkpt><trkpt lat="52.510758" lon="13.417177"><time>2024-04-30T15:43:28.001Z</time></trkpt><trkpt lat="52.510791" lon="13.417137"><time>2024-04-30T15:43:30.001Z</time></trkpt><trkpt lat="52.510833" lon="13.417095"><time>2024-04-30T15:43:32.002Z</time></trkpt><trkpt lat="52.510869" lon="13.417048"><time>2024-04-30T15:43:34.002Z</time></trkpt><trkpt lat="52.510925" lon="13.417"><time>2024-04-30T15:43:36.002Z</time></trkpt><trkpt lat="52.510991" lon="13.416963"><time>2024-04-30T15:43:38.002Z</time></trkpt><trkpt lat="52.511076" lon="13.416917"><time>2024-04-30T15:43:40.002Z</time></trkpt><trkpt lat="52.511168" lon="13.416867"><time>2024-04-30T15:43:42.002Z</time></trkpt><trkpt lat="52.511251" lon="13.416819"><time>2024-04-30T15:43:44.002Z</time></trkpt><trkpt lat="52.511311" lon="13.416791"><time>2024-04-30T15:43:46.002Z</time></trkpt><trkpt lat="52.511352" lon="13.41678"><time>2024-04-30T15:43:48.002Z</time></trkpt><trkpt lat="52.511389" lon="13.416775"><time>2024-04-30T15:43:50.002Z</time></trkpt><trkpt lat="52.511422" lon="13.416777"><time>2024-04-30T15:43:54.002Z</time></trkpt><trkpt lat="52.511453" lon="13.416776"><time>2024-04-30T15:43:56.002Z</time></trkpt><trkpt lat="52.511485" lon="13.416776"><time>2024-04-30T15:43:58.002Z</time></trkpt><trkpt lat="52.511518" lon="13.416781"><time>2024-04-30T15:44:00.002Z</time></trkpt><trkpt lat="52.511558" lon="13.416787"><time>2024-04-30T15:44:02.001Z</time></trkpt><trkpt lat="52.5116" lon="13.416791"><time>2024-04-30T15:44:04.001Z</time></trkpt><trkpt lat="52.511645" lon="13.416788"><time>2024-04-30T15:44:06.001Z</time></trkpt><trkpt lat="52.511689" lon="13.416787"><time>2024-04-30T15:44:08.002Z</time></trkpt><trkpt lat="52.511732" lon="13.416781"><time>2024-04-30T15:44:10.002Z</time></trkpt><trkpt lat="52.511778" lon="13.416781"><time>2024-04-30T15:44:12.002Z</time></trkpt><trkpt lat="52.511823" lon="13.416795"><time>2024-04-30T15:44:16.001Z</time></trkpt><trkpt lat="52.511863" lon="13.41682"><time>2024-04-30T15:44:18.001Z</time></trkpt><trkpt lat="52.511902" lon="13.416837"><time>2024-04-30T15:44:20.001Z</time></trkpt><trkpt lat="52.511942" lon="13.416852"><time>2024-04-30T15:44:22.001Z</time></trkpt><trkpt lat="52.511987" lon="13.416863"><time>2024-04-30T15:44:24.001Z</time></trkpt><trkpt lat="52.512028" lon="13.416881"><time>2024-04-30T15:44:26.001Z</time></trkpt><trkpt lat="52.512058" lon="13.41691"><time>2024-04-30T15:44:30.001Z</time></trkpt><trkpt lat="52.512085" lon="13.416945"><time>2024-04-30T15:44:34.000Z</time></trkpt><trkpt lat="52.51211" lon="13.416973"><time>2024-04-30T15:44:37.997Z</time></trkpt><trkpt lat="52.512144" lon="13.416981"><time>2024-04-30T15:44:41.997Z</time></trkpt><trkpt lat="52.51217" lon="13.416964"><time>2024-04-30T15:44:45.997Z</time></trkpt><trkpt lat="52.512201" lon="13.416953"><time>2024-04-30T15:44:49.997Z</time></trkpt><trkpt lat="52.512232" lon="13.416958"><time>2024-04-30T15:44:53.996Z</time></trkpt><trkpt lat="52.512293" lon="13.41698"><time>2024-04-30T15:44:57.996Z</time></trkpt><trkpt lat="52.512359" lon="13.417024"><time>2024-04-30T15:44:59.996Z</time></trkpt><trkpt lat="52.51243" lon="13.417064"><time>2024-04-30T15:45:01.997Z</time></trkpt><trkpt lat="52.512497" lon="13.417107"><time>2024-04-30T15:45:03.996Z</time></trkpt><trkpt lat="52.512564" lon="13.417122"><time>2024-04-30T15:45:05.995Z</time></trkpt><trkpt lat="52.512617" lon="13.417144"><time>2024-04-30T15:45:07.996Z</time></trkpt><trkpt lat="52.512656" lon="13.417185"><time>2024-04-30T15:45:11.996Z</time></trkpt><trkpt lat="52.512684" lon="13.417231"><time>2024-04-30T15:45:15.999Z</time></trkpt><trkpt lat="52.512716" lon="13.417266"><time>2024-04-30T15:45:18.001Z</time></trkpt><trkpt lat="52.512743" lon="13.417285"><time>2024-04-30T15:45:20.001Z</time></trkpt><trkpt lat="52.512777" lon="13.417305"><time>2024-04-30T15:45:22.001Z</time></trkpt><trkpt lat="52.512817" lon="13.417323"><time>2024-04-30T15:45:26.001Z</time></trkpt><trkpt lat="52.51286" lon="13.417321"><time>2024-04-30T15:45:30.001Z</time></trkpt><trkpt lat="52.512897" lon="13.417314"><time>2024-04-30T15:45:32.000Z</time></trkpt><trkpt lat="52.512929" lon="13.417299"><time>2024-04-30T15:45:36.002Z</time></trkpt><trkpt lat="52.512962" lon="13.417293"><time>2024-04-30T15:45:38.000Z</time></trkpt><trkpt lat="52.512994" lon="13.417298"><time>2024-04-30T15:45:40.000Z</time></trkpt><trkpt lat="52.513032" lon="13.417294"><time>2024-04-30T15:45:42.002Z</time></trkpt><trkpt lat="52.513083" lon="13.417289"><time>2024-04-30T15:45:46.003Z</time></trkpt><trkpt lat="52.513134" lon="13.417279"><time>2024-04-30T15:45:48.006Z</time></trkpt><trkpt lat="52.513178" lon="13.417282"><time>2024-04-30T15:45:50.008Z</time></trkpt><trkpt lat="52.513211" lon="13.417292"><time>2024-04-30T15:45:52.009Z</time></trkpt><trkpt lat="52.513244" lon="13.417301"><time>2024-04-30T15:45:54.009Z</time></trkpt><trkpt lat="52.513277" lon="13.417316"><time>2024-04-30T15:45:58.012Z</time></trkpt><trkpt lat="52.513311" lon="13.417333"><time>2024-04-30T15:46:00.013Z</time></trkpt><trkpt lat="52.513347" lon="13.41736"><time>2024-04-30T15:46:04.012Z</time></trkpt><trkpt lat="52.513386" lon="13.417397"><time>2024-04-30T15:46:08.013Z</time></trkpt><trkpt lat="52.513424" lon="13.417432"><time>2024-04-30T15:46:12.013Z</time></trkpt><trkpt lat="52.513461" lon="13.417461"><time>2024-04-30T15:46:14.013Z</time></trkpt><trkpt lat="52.513502" lon="13.417475"><time>2024-04-30T15:46:18.013Z</time></trkpt><trkpt lat="52.51354" lon="13.417495"><time>2024-04-30T15:46:22.013Z</time></trkpt><trkpt lat="52.513575" lon="13.417515"><time>2024-04-30T15:46:26.015Z</time></trkpt><trkpt lat="52.513603" lon="13.417535"><time>2024-04-30T15:46:30.015Z</time></trkpt><trkpt lat="52.513633" lon="13.417551"><time>2024-04-30T15:46:32.015Z</time></trkpt><trkpt lat="52.513664" lon="13.417563"><time>2024-04-30T15:46:34.015Z</time></trkpt><trkpt lat="52.513697" lon="13.417577"><time>2024-04-30T15:46:36.015Z</time></trkpt><trkpt lat="52.513733" lon="13.41759"><time>2024-04-30T15:46:38.015Z</time></trkpt><trkpt lat="52.513769" lon="13.4176"><time>2024-04-30T15:46:40.015Z</time></trkpt><trkpt lat="52.513804" lon="13.417607"><time>2024-04-30T15:46:42.015Z</time></trkpt><trkpt lat="52.513841" lon="13.417612"><time>2024-04-30T15:46:44.015Z</time></trkpt><trkpt lat="52.51388" lon="13.41762"><time>2024-04-30T15:46:46.015Z</time></trkpt><trkpt lat="52.513918" lon="13.417627"><time>2024-04-30T15:46:48.017Z</time></trkpt><trkpt lat="52.513954" lon="13.417635"><time>2024-04-30T15:46:50.017Z</time></trkpt><trkpt lat="52.513992" lon="13.417642"><time>2024-04-30T15:46:52.017Z</time></trkpt><trkpt lat="52.514032" lon="13.417654"><time>2024-04-30T15:46:54.017Z</time></trkpt><trkpt lat="52.514077" lon="13.417669"><time>2024-04-30T15:46:56.017Z</time></trkpt><trkpt lat="52.514125" lon="13.417686"><time>2024-04-30T15:46:58.015Z</time></trkpt><trkpt lat="52.514171" lon="13.417706"><time>2024-04-30T15:47:00.016Z</time></trkpt><trkpt lat="52.514213" lon="13.417736"><time>2024-04-30T15:47:02.016Z</time></trkpt><trkpt lat="52.514249" lon="13.417781"><time>2024-04-30T15:47:04.016Z</time></trkpt><trkpt lat="52.514283" lon="13.417827"><time>2024-04-30T15:47:06.016Z</time></trkpt><trkpt lat="52.514317" lon="13.417864"><time>2024-04-30T15:47:10.016Z</time></trkpt><trkpt lat="52.514358" lon="13.417888"><time>2024-04-30T15:47:12.016Z</time></trkpt><trkpt lat="52.514375" lon="13.417917"><time>2024-04-30T15:47:14.016Z</time></trkpt><trkpt lat="52.51437" lon="13.417945"><time>2024-04-30T15:47:18.016Z</time></trkpt><trkpt lat="52.514352" lon="13.417979"><time>2024-04-30T15:47:20.015Z</time></trkpt><trkpt lat="52.514365" lon="13.418014"><time>2024-04-30T15:47:26.015Z</time></trkpt><trkpt lat="52.514402" lon="13.418012"><time>2024-04-30T15:47:30.013Z</time></trkpt><trkpt lat="52.514441" lon="13.418003"><time>2024-04-30T15:47:32.000Z</time></trkpt><trkpt lat="52.514474" lon="13.417993"><time>2024-04-30T15:47:36.000Z</time></trkpt><trkpt lat="52.514505" lon="13.418017"><time>2024-04-30T15:47:40.000Z</time></trkpt><trkpt lat="52.51454" lon="13.418031"><time>2024-04-30T15:47:46.000Z</time></trkpt><trkpt lat="52.514577" lon="13.418032"><time>2024-04-30T15:47:50.000Z</time></trkpt><trkpt lat="52.514612" lon="13.418036"><time>2024-04-30T15:47:54.000Z</time></trkpt><trkpt lat="52.514642" lon="13.418063"><time>2024-04-30T15:47:58.000Z</time></trkpt><trkpt lat="52.514674" lon="13.418097"><time>2024-04-30T15:48:06.000Z</time></trkpt><trkpt lat="52.514708" lon="13.418132"><time>2024-04-30T15:48:10.000Z</time></trkpt><trkpt lat="52.514747" lon="13.418148"><time>2024-04-30T15:48:14.000Z</time></trkpt><trkpt lat="52.514782" lon="13.418157"><time>2024-04-30T15:48:16.000Z</time></trkpt><trkpt lat="52.514812" lon="13.418164"><time>2024-04-30T15:48:18.000Z</time></trkpt><trkpt lat="52.514836" lon="13.418198"><time>2024-04-30T15:48:20.000Z</time></trkpt><trkpt lat="52.514862" lon="13.418209"><time>2024-04-30T15:48:24.000Z</time></trkpt><trkpt lat="52.514892" lon="13.418194"><time>2024-04-30T15:48:26.000Z</time></trkpt><trkpt lat="52.51493" lon="13.418153"><time>2024-04-30T15:48:28.000Z</time></trkpt><trkpt lat="52.514965" lon="13.418132"><time>2024-04-30T15:48:30.000Z</time></trkpt><trkpt lat="52.514998" lon="13.418124"><time>2024-04-30T15:48:32.000Z</time></trkpt><trkpt lat="52.515031" lon="13.418116"><time>2024-04-30T15:48:34.000Z</time></trkpt><trkpt lat="52.515066" lon="13.418101"><time>2024-04-30T15:48:36.000Z</time></trkpt><trkpt lat="52.515105" lon="13.418106"><time>2024-04-30T15:48:40.000Z</time></trkpt><trkpt lat="52.515138" lon="13.418126"><time>2024-04-30T15:48:44.000Z</time></trkpt><trkpt lat="52.515168" lon="13.418165"><time>2024-04-30T15:48:46.000Z</time></trkpt><trkpt lat="52.515192" lon="13.418187"><time>2024-04-30T15:48:48.000Z</time></trkpt><trkpt lat="52.515202" lon="13.418223"><time>2024-04-30T15:48:50.000Z</time></trkpt><trkpt lat="52.515213" lon="13.41825"><time>2024-04-30T15:48:52.000Z</time></trkpt><trkpt lat="52.515223" lon="13.418287"><time>2024-04-30T15:48:54.000Z</time></trkpt><trkpt lat="52.515258" lon="13.418307"><time>2024-04-30T15:48:56.000Z</time></trkpt><trkpt lat="52.515293" lon="13.418332"><time>2024-04-30T15:49:00.000Z</time></trkpt><trkpt lat="52.515332" lon="13.418361"><time>2024-04-30T15:49:02.000Z</time></trkpt><trkpt lat="52.515362" lon="13.418389"><time>2024-04-30T15:49:06.000Z</time></trkpt><trkpt lat="52.515392" lon="13.418417"><time>2024-04-30T15:49:12.000Z</time></trkpt><trkpt lat="52.515421" lon="13.418445"><time>2024-04-30T15:49:28.000Z</time></trkpt><trkpt lat="52.515455" lon="13.418467"><time>2024-04-30T15:49:32.000Z</time></trkpt><trkpt lat="52.51549" lon="13.418481"><time>2024-04-30T15:49:36.000Z</time></trkpt><trkpt lat="52.515526" lon="13.418487"><time>2024-04-30T15:49:38.000Z</time></trkpt><trkpt lat="52.515558" lon="13.418488"><time>2024-04-30T15:49:40.000Z</time></trkpt><trkpt lat="52.515598" lon="13.418483"><time>2024-04-30T15:49:44.000Z</time></trkpt><trkpt lat="52.515634" lon="13.418478"><time>2024-04-30T15:49:50.000Z</time></trkpt><trkpt lat="52.515671" lon="13.41847"><time>2024-04-30T15:49:54.000Z</time></trkpt><trkpt lat="52.515706" lon="13.41847"><time>2024-04-30T15:49:56.000Z</time></trkpt><trkpt lat="52.515743" lon="13.418473"><time>2024-04-30T15:50:00.000Z</time></trkpt><trkpt lat="52.515784" lon="13.418483"><time>2024-04-30T15:50:02.000Z</time></trkpt><trkpt lat="52.515819" lon="13.418492"><time>2024-04-30T15:50:04.000Z</time></trkpt><trkpt lat="52.515851" lon="13.4185"><time>2024-04-30T15:50:06.000Z</time></trkpt><trkpt lat="52.515887" lon="13.418497"><time>2024-04-30T15:50:08.000Z</time></trkpt><trkpt lat="52.515924" lon="13.418486"><time>2024-04-30T15:50:12.000Z</time></trkpt><trkpt lat="52.515963" lon="13.418464"><time>2024-04-30T15:50:16.000Z</time></trkpt><trkpt lat="52.515997" lon="13.418455"><time>2024-04-30T15:50:20.000Z</time></trkpt><trkpt lat="52.516032" lon="13.418456"><time>2024-04-30T15:50:24.000Z</time></trkpt><trkpt lat="52.516068" lon="13.418466"><time>2024-04-30T15:50:28.000Z</time></trkpt><trkpt lat="52.516107" lon="13.418475"><time>2024-04-30T15:50:32.000Z</time></trkpt><trkpt lat="52.516149" lon="13.418482"><time>2024-04-30T15:50:36.000Z</time></trkpt><trkpt lat="52.516194" lon="13.418489"><time>2024-04-30T15:50:40.000Z</time></trkpt><trkpt lat="52.516243" lon="13.418492"><time>2024-04-30T15:50:44.000Z</time></trkpt><trkpt lat="52.516287" lon="13.418494"><time>2024-04-30T15:50:48.000Z</time></trkpt><trkpt lat="52.516332" lon="13.41849"><time>2024-04-30T15:50:50.000Z</time></trkpt><trkpt lat="52.516371" lon="13.418477"><time>2024-04-30T15:50:52.000Z</time></trkpt><trkpt lat="52.516411" lon="13.418457"><time>2024-04-30T15:50:56.000Z</time></trkpt><trkpt lat="52.516446" lon="13.418438"><time>2024-04-30T15:50:58.000Z</time></trkpt><trkpt lat="52.51648" lon="13.418426"><time>2024-04-30T15:51:00.000Z</time></trkpt><trkpt lat="52.516518" lon="13.418415"><time>2024-04-30T15:51:02.000Z</time></trkpt><trkpt lat="52.516554" lon="13.418407"><time>2024-04-30T15:51:06.000Z</time></trkpt><trkpt lat="52.516595" lon="13.418403"><time>2024-04-30T15:51:08.000Z</time></trkpt><trkpt lat="52.516637" lon="13.418404"><time>2024-04-30T15:51:12.000Z</time></trkpt><trkpt lat="52.51668" lon="13.41841"><time>2024-04-30T15:51:16.000Z</time></trkpt><trkpt lat="52.516718" lon="13.418411"><time>2024-04-30T15:51:20.000Z</time></trkpt><trkpt lat="52.516759" lon="13.418415"><time>2024-04-30T15:51:24.000Z</time></trkpt><trkpt lat="52.516802" lon="13.418419"><time>2024-04-30T15:51:28.000Z</time></trkpt><trkpt lat="52.516846" lon="13.418427"><time>2024-04-30T15:51:32.000Z</time></trkpt><trkpt lat="52.516886" lon="13.418424"><time>2024-04-30T15:51:36.000Z</time></trkpt><trkpt lat="52.516927" lon="13.418412"><time>2024-04-30T15:51:40.000Z</time></trkpt><trkpt lat="52.516967" lon="13.418402"><time>2024-04-30T15:51:44.000Z</time></trkpt><trkpt lat="52.517009" lon="13.418393"><time>2024-04-30T15:51:48.000Z</time></trkpt><trkpt lat="52.517053" lon="13.418382"><time>2024-04-30T15:51:52.000Z</time></trkpt><trkpt lat="52.517099" lon="13.418367"><time>2024-04-30T15:51:56.000Z</time></trkpt><trkpt lat="52.517142" lon="13.418359"><time>2024-04-30T15:52:00.000Z</time></trkpt><trkpt lat="52.517182" lon="13.418352"><time>2024-04-30T15:52:02.000Z</time></trkpt><trkpt lat="52.517196" lon="13.418348"><time>2024-04-30T15:52:06.000Z</time></trkpt><trkpt lat="52.517155" lon="13.418332"><time>2024-04-30T15:52:42.000Z</time></trkpt><trkpt lat="52.517144" lon="13.418486"><time>2024-04-30T15:52:49.000Z</time></trkpt><trkpt lat="52.517141" lon="13.418596"><time>2024-04-30T15:52:53.000Z</time></trkpt><trkpt lat="52.517158" lon="13.418656"><time>2024-04-30T15:52:57.000Z</time></trkpt><trkpt lat="52.517167" lon="13.418718"><time>2024-04-30T15:53:01.000Z</time></trkpt><trkpt lat="52.517173" lon="13.418778"><time>2024-04-30T15:53:03.000Z</time></trkpt><trkpt lat="52.517151" lon="13.418857"><time>2024-04-30T15:53:07.000Z</time></trkpt><trkpt lat="52.517124" lon="13.418931"><time>2024-04-30T15:53:11.000Z</time></trkpt><trkpt lat="52.517092" lon="13.419001"><time>2024-04-30T15:53:13.000Z</time></trkpt><trkpt lat="52.517069" lon="13.419045"><time>2024-04-30T15:53:17.000Z</time></trkpt><trkpt lat="52.517048" lon="13.419091"><time>2024-04-30T15:53:19.000Z</time></trkpt><trkpt lat="52.517027" lon="13.419122"><time>2024-04-30T15:53:21.000Z</time></trkpt><trkpt lat="52.517006" lon="13.419155"><time>2024-04-30T15:53:23.000Z</time></trkpt><trkpt lat="52.516995" lon="13.419191"><time>2024-04-30T15:53:27.000Z</time></trkpt><trkpt lat="52.517003" lon="13.419242"><time>2024-04-30T15:53:29.000Z</time></trkpt><trkpt lat="52.517027" lon="13.41929"><time>2024-04-30T15:53:31.000Z</time></trkpt><trkpt lat="52.517052" lon="13.419329"><time>2024-04-30T15:53:33.000Z</time></trkpt><trkpt lat="52.517068" lon="13.419377"><time>2024-04-30T15:53:35.000Z</time></trkpt><trkpt lat="52.517069" lon="13.419434"><time>2024-04-30T15:53:39.000Z</time></trkpt><trkpt lat="52.517065" lon="13.4195"><time>2024-04-30T15:53:41.000Z</time></trkpt><trkpt lat="52.517062" lon="13.419556"><time>2024-04-30T15:53:43.000Z</time></trkpt><trkpt lat="52.517067" lon="13.419608"><time>2024-04-30T15:53:47.000Z</time></trkpt><trkpt lat="52.517076" lon="13.419656"><time>2024-04-30T15:53:49.000Z</time></trkpt><trkpt lat="52.517091" lon="13.419698"><time>2024-04-30T15:53:51.000Z</time></trkpt><trkpt lat="52.517114" lon="13.419732"><time>2024-04-30T15:53:53.000Z</time></trkpt><trkpt lat="52.517138" lon="13.419757"><time>2024-04-30T15:53:55.000Z</time></trkpt><trkpt lat="52.51717" lon="13.419773"><time>2024-04-30T15:53:59.000Z</time></trkpt><trkpt lat="52.517205" lon="13.41979"><time>2024-04-30T15:54:03.000Z</time></trkpt><trkpt lat="52.517241" lon="13.419827"><time>2024-04-30T15:54:07.000Z</time></trkpt><trkpt lat="52.517266" lon="13.419877"><time>2024-04-30T15:54:11.000Z</time></trkpt><trkpt lat="52.517282" lon="13.419941"><time>2024-04-30T15:54:13.000Z</time></trkpt><trkpt lat="52.517294" lon="13.419998"><time>2024-04-30T15:54:15.000Z</time></trkpt><trkpt lat="52.517316" lon="13.420042"><time>2024-04-30T15:54:19.000Z</time></trkpt><trkpt lat="52.517346" lon="13.420075"><time>2024-04-30T15:54:23.000Z</time></trkpt><trkpt lat="52.517378" lon="13.420099"><time>2024-04-30T15:54:27.000Z</time></trkpt><trkpt lat="52.517415" lon="13.420122"><time>2024-04-30T15:54:33.000Z</time></trkpt><trkpt lat="52.517456" lon="13.420142"><time>2024-04-30T15:54:37.000Z</time></trkpt><trkpt lat="52.517498" lon="13.420172"><time>2024-04-30T15:54:41.000Z</time></trkpt><trkpt lat="52.517538" lon="13.420211"><time>2024-04-30T15:54:45.000Z</time></trkpt><trkpt lat="52.517581" lon="13.420245"><time>2024-04-30T15:54:49.000Z</time></trkpt><trkpt lat="52.517625" lon="13.42026"><time>2024-04-30T15:54:53.000Z</time></trkpt><trkpt lat="52.517674" lon="13.42027"><time>2024-04-30T15:54:57.000Z</time></trkpt><trkpt lat="52.517714" lon="13.420277"><time>2024-04-30T15:55:01.000Z</time></trkpt><trkpt lat="52.51775" lon="13.420298"><time>2024-04-30T15:55:05.000Z</time></trkpt><trkpt lat="52.517775" lon="13.420312"><time>2024-04-30T15:55:07.000Z</time></trkpt><trkpt lat="52.517804" lon="13.420321"><time>2024-04-30T15:55:09.000Z</time></trkpt><trkpt lat="52.517841" lon="13.420312"><time>2024-04-30T15:55:13.000Z</time></trkpt><trkpt lat="52.517878" lon="13.420308"><time>2024-04-30T15:55:17.000Z</time></trkpt><trkpt lat="52.517913" lon="13.420323"><time>2024-04-30T15:55:19.000Z</time></trkpt><trkpt lat="52.517944" lon="13.420351"><time>2024-04-30T15:55:23.000Z</time></trkpt><trkpt lat="52.518004" lon="13.420402"><time>2024-04-30T15:55:25.000Z</time></trkpt><trkpt lat="52.518071" lon="13.420459"><time>2024-04-30T15:55:31.000Z</time></trkpt><trkpt lat="52.51814" lon="13.420514"><time>2024-04-30T15:55:35.000Z</time></trkpt><trkpt lat="52.518178" lon="13.420548"><time>2024-04-30T15:55:37.000Z</time></trkpt><trkpt lat="52.518206" lon="13.420576"><time>2024-04-30T15:55:39.000Z</time></trkpt><trkpt lat="52.518236" lon="13.42061"><time>2024-04-30T15:55:41.000Z</time></trkpt><trkpt lat="52.518264" lon="13.420653"><time>2024-04-30T15:55:45.000Z</time></trkpt><trkpt lat="52.51829" lon="13.420697"><time>2024-04-30T15:55:47.000Z</time></trkpt><trkpt lat="52.518311" lon="13.420743"><time>2024-04-30T15:55:49.000Z</time></trkpt><trkpt lat="52.518343" lon="13.420766"><time>2024-04-30T15:55:53.000Z</time></trkpt><trkpt lat="52.51838" lon="13.420778"><time>2024-04-30T15:55:57.000Z</time></trkpt><trkpt lat="52.518415" lon="13.420785"><time>2024-04-30T15:56:01.000Z</time></trkpt><trkpt lat="52.518455" lon="13.420805"><time>2024-04-30T15:56:03.000Z</time></trkpt><trkpt lat="52.518495" lon="13.420825"><time>2024-04-30T15:56:07.000Z</time></trkpt><trkpt lat="52.518539" lon="13.42084"><time>2024-04-30T15:56:09.000Z</time></trkpt><trkpt lat="52.518579" lon="13.420861"><time>2024-04-30T15:56:11.000Z</time></trkpt><trkpt lat="52.518612" lon="13.420892"><time>2024-04-30T15:56:15.000Z</time></trkpt><trkpt lat="52.518647" lon="13.420928"><time>2024-04-30T15:56:17.000Z</time></trkpt><trkpt lat="52.518678" lon="13.420946"><time>2024-04-30T15:56:21.000Z</time></trkpt><trkpt lat="52.518714" lon="13.420954"><time>2024-04-30T15:56:23.000Z</time></trkpt><trkpt lat="52.518742" lon="13.420962"><time>2024-04-30T15:56:25.000Z</time></trkpt><trkpt lat="52.518775" lon="13.420979"><time>2024-04-30T15:56:27.000Z</time></trkpt><trkpt lat="52.518809" lon="13.420989"><time>2024-04-30T15:56:31.000Z</time></trkpt><trkpt lat="52.518847" lon="13.421009"><time>2024-04-30T15:56:33.000Z</time></trkpt><trkpt lat="52.51888" lon="13.421029"><time>2024-04-30T15:56:37.000Z</time></trkpt><trkpt lat="52.518913" lon="13.421047"><time>2024-04-30T15:56:39.000Z</time></trkpt><trkpt lat="52.518947" lon="13.421044"><time>2024-04-30T15:56:43.000Z</time></trkpt><trkpt lat="52.518982" lon="13.421054"><time>2024-04-30T15:56:47.000Z</time></trkpt><trkpt lat="52.519022" lon="13.421079"><time>2024-04-30T15:56:51.000Z</time></trkpt><trkpt lat="52.519062" lon="13.421092"><time>2024-04-30T15:56:55.000Z</time></trkpt><trkpt lat="52.519106" lon="13.421092"><time>2024-04-30T15:56:57.000Z</time></trkpt><trkpt lat="52.519145" lon="13.421096"><time>2024-04-30T15:57:01.000Z</time></trkpt><trkpt lat="52.519179" lon="13.421119"><time>2024-04-30T15:57:05.000Z</time></trkpt><trkpt lat="52.519211" lon="13.421147"><time>2024-04-30T15:57:09.000Z</time></trkpt><trkpt lat="52.519241" lon="13.421167"><time>2024-04-30T15:57:13.000Z</time></trkpt><trkpt lat="52.519273" lon="13.421183"><time>2024-04-30T15:57:15.000Z</time></trkpt><trkpt lat="52.5193" lon="13.421208"><time>2024-04-30T15:57:17.000Z</time></trkpt><trkpt lat="52.519335" lon="13.421237"><time>2024-04-30T15:57:21.000Z</time></trkpt><trkpt lat="52.519369" lon="13.421266"><time>2024-04-30T15:57:25.000Z</time></trkpt><trkpt lat="52.519406" lon="13.42128"><time>2024-04-30T15:57:27.000Z</time></trkpt><trkpt lat="52.519434" lon="13.421307"><time>2024-04-30T15:57:29.000Z</time></trkpt><trkpt lat="52.519456" lon="13.421347"><time>2024-04-30T15:57:33.000Z</time></trkpt><trkpt lat="52.519478" lon="13.421389"><time>2024-04-30T15:57:39.000Z</time></trkpt><trkpt lat="52.519501" lon="13.421422"><time>2024-04-30T15:57:43.000Z</time></trkpt><trkpt lat="52.51952" lon="13.421453"><time>2024-04-30T15:57:47.000Z</time></trkpt><trkpt lat="52.519543" lon="13.421473"><time>2024-04-30T15:57:49.000Z</time></trkpt><trkpt lat="52.51957" lon="13.421475"><time>2024-04-30T15:57:51.000Z</time></trkpt><trkpt lat="52.519614" lon="13.421466"><time>2024-04-30T15:57:53.000Z</time></trkpt><trkpt lat="52.519658" lon="13.421446"><time>2024-04-30T15:57:57.000Z</time></trkpt><trkpt lat="52.519705" lon="13.421415"><time>2024-04-30T15:57:59.000Z</time></trkpt><trkpt lat="52.519743" lon="13.42137"><time>2024-04-30T15:58:01.000Z</time></trkpt><trkpt lat="52.519779" lon="13.421321"><time>2024-04-30T15:58:03.000Z</time></trkpt><trkpt lat="52.519809" lon="13.421276"><time>2024-04-30T15:58:05.000Z</time></trkpt><trkpt lat="52.51984" lon="13.421227"><time>2024-04-30T15:58:07.000Z</time></trkpt><trkpt lat="52.51987" lon="13.421187"><time>2024-04-30T15:58:11.000Z</time></trkpt><trkpt lat="52.519904" lon="13.421178"><time>2024-04-30T15:58:15.000Z</time></trkpt><trkpt lat="52.519936" lon="13.421195"><time>2024-04-30T15:58:21.000Z</time></trkpt><trkpt lat="52.519968" lon="13.421232"><time>2024-04-30T15:58:23.000Z</time></trkpt><trkpt lat="52.52" lon="13.421262"><time>2024-04-30T15:58:25.000Z</time></trkpt><trkpt lat="52.520036" lon="13.421291"><time>2024-04-30T15:58:27.000Z</time></trkpt><trkpt lat="52.52007" lon="13.421326"><time>2024-04-30T15:58:29.000Z</time></trkpt><trkpt lat="52.520076" lon="13.421367"><time>2024-04-30T15:58:31.000Z</time></trkpt><trkpt lat="52.520074" lon="13.421382"><time>2024-04-30T15:58:35.000Z</time></trkpt><trkpt lat="52.520064" lon="13.421365"><time>2024-04-30T15:58:39.000Z</time></trkpt><trkpt lat="52.520067" lon="13.421312"><time>2024-04-30T15:58:45.000Z</time></trkpt><trkpt lat="52.520076" lon="13.421252"><time>2024-04-30T15:58:49.000Z</time></trkpt><trkpt lat="52.520087" lon="13.421193"><time>2024-04-30T15:58:53.000Z</time></trkpt><trkpt lat="52.520101" lon="13.421139"><time>2024-04-30T15:58:55.000Z</time></trkpt><trkpt lat="52.520118" lon="13.421088"><time>2024-04-30T15:58:59.000Z</time></trkpt><trkpt lat="52.520139" lon="13.421042"><time>2024-04-30T15:59:03.000Z</time></trkpt><trkpt lat="52.520166" lon="13.420999"><time>2024-04-30T15:59:05.000Z</time></trkpt><trkpt lat="52.520192" lon="13.420965"><time>2024-04-30T15:59:07.000Z</time></trkpt><trkpt lat="52.520223" lon="13.420934"><time>2024-04-30T15:59:09.000Z</time></trkpt><trkpt lat="52.520257" lon="13.420911"><time>2024-04-30T15:59:13.000Z</time></trkpt><trkpt lat="52.520296" lon="13.420891"><time>2024-04-30T15:59:15.000Z</time></trkpt><trkpt lat="52.520329" lon="13.420851"><time>2024-04-30T15:59:17.000Z</time></trkpt><trkpt lat="52.520353" lon="13.420799"><time>2024-04-30T15:59:21.000Z</time></trkpt><trkpt lat="52.520367" lon="13.420723"><time>2024-04-30T15:59:23.000Z</time></trkpt><trkpt lat="52.520375" lon="13.420651"><time>2024-04-30T15:59:27.000Z</time></trkpt><trkpt lat="52.520384" lon="13.420578"><time>2024-04-30T15:59:31.000Z</time></trkpt><trkpt lat="52.520391" lon="13.420517"><time>2024-04-30T15:59:33.000Z</time></trkpt><trkpt lat="52.520396" lon="13.420457"><time>2024-04-30T15:59:35.000Z</time></trkpt><trkpt lat="52.520402" lon="13.420398"><time>2024-04-30T15:59:39.000Z</time></trkpt><trkpt lat="52.520412" lon="13.420337"><time>2024-04-30T15:59:43.000Z</time></trkpt><trkpt lat="52.520424" lon="13.420278"><time>2024-04-30T15:59:47.000Z</time></trkpt><trkpt lat="52.520438" lon="13.420216"><time>2024-04-30T15:59:49.000Z</time></trkpt><trkpt lat="52.520452" lon="13.420152"><time>2024-04-30T15:59:51.000Z</time></trkpt><trkpt lat="52.52047" lon="13.420098"><time>2024-04-30T15:59:53.000Z</time></trkpt><trkpt lat="52.520493" lon="13.420044"><time>2024-04-30T15:59:55.000Z</time></trkpt><trkpt lat="52.520516" lon="13.419997"><time>2024-04-30T15:59:59.000Z</time></trkpt><trkpt lat="52.520538" lon="13.419943"><time>2024-04-30T16:00:01.000Z</time></trkpt><trkpt lat="52.520554" lon="13.419896"><time>2024-04-30T16:00:03.000Z</time></trkpt><trkpt lat="52.520574" lon="13.419854"><time>2024-04-30T16:00:05.000Z</time></trkpt><trkpt lat="52.520595" lon="13.419815"><time>2024-04-30T16:00:09.000Z</time></trkpt><trkpt lat="52.520619" lon="13.419778"><time>2024-04-30T16:00:11.000Z</time></trkpt><trkpt lat="52.520637" lon="13.419733"><time>2024-04-30T16:00:13.000Z</time></trkpt><trkpt lat="52.520651" lon="13.419687"><time>2024-04-30T16:00:15.000Z</time></trkpt><trkpt lat="52.520657" lon="13.419639"><time>2024-04-30T16:00:17.000Z</time></trkpt><trkpt lat="52.520664" lon="13.419583"><time>2024-04-30T16:00:21.000Z</time></trkpt><trkpt lat="52.520674" lon="13.419527"><time>2024-04-30T16:00:27.000Z</time></trkpt><trkpt lat="52.52069" lon="13.419472"><time>2024-04-30T16:00:29.000Z</time></trkpt><trkpt lat="52.520704" lon="13.419427"><time>2024-04-30T16:00:31.000Z</time></trkpt><trkpt lat="52.520716" lon="13.419382"><time>2024-04-30T16:00:33.000Z</time></trkpt><trkpt lat="52.520726" lon="13.419329"><time>2024-04-30T16:00:35.000Z</time></trkpt><trkpt lat="52.520733" lon="13.419275"><time>2024-04-30T16:00:39.000Z</time></trkpt><trkpt lat="52.520741" lon="13.419222"><time>2024-04-30T16:00:41.000Z</time></trkpt><trkpt lat="52.520749" lon="13.419176"><time>2024-04-30T16:00:43.000Z</time></trkpt><trkpt lat="52.520765" lon="13.419129"><time>2024-04-30T16:00:47.000Z</time></trkpt><trkpt lat="52.520789" lon="13.419085"><time>2024-04-30T16:00:51.000Z</time></trkpt><trkpt lat="52.520818" lon="13.419044"><time>2024-04-30T16:00:53.000Z</time></trkpt><trkpt lat="52.52085" lon="13.419011"><time>2024-04-30T16:00:55.000Z</time></trkpt><trkpt lat="52.520885" lon="13.418976"><time>2024-04-30T16:00:59.000Z</time></trkpt><trkpt lat="52.520918" lon="13.418945"><time>2024-04-30T16:01:03.000Z</time></trkpt><trkpt lat="52.520949" lon="13.418915"><time>2024-04-30T16:01:05.000Z</time></trkpt><trkpt lat="52.520973" lon="13.418885"><time>2024-04-30T16:01:07.000Z</time></trkpt><trkpt lat="52.520997" lon="13.418844"><time>2024-04-30T16:01:11.000Z</time></trkpt><trkpt lat="52.521021" lon="13.418791"><time>2024-04-30T16:01:15.000Z</time></trkpt><trkpt lat="52.521049" lon="13.418736"><time>2024-04-30T16:01:19.000Z</time></trkpt><trkpt lat="52.52108" lon="13.418686"><time>2024-04-30T16:01:21.000Z</time></trkpt><trkpt lat="52.52111" lon="13.418645"><time>2024-04-30T16:01:23.000Z</time></trkpt><trkpt lat="52.521138" lon="13.418596"><time>2024-04-30T16:01:25.000Z</time></trkpt><trkpt lat="52.521163" lon="13.418552"><time>2024-04-30T16:01:29.000Z</time></trkpt><trkpt lat="52.52118" lon="13.418494"><time>2024-04-30T16:01:31.000Z</time></trkpt><trkpt lat="52.521188" lon="13.418438"><time>2024-04-30T16:01:35.000Z</time></trkpt><trkpt lat="52.521192" lon="13.418373"><time>2024-04-30T16:01:37.000Z</time></trkpt><trkpt lat="52.5212" lon="13.418316"><time>2024-04-30T16:01:39.000Z</time></trkpt><trkpt lat="52.521217" lon="13.418254"><time>2024-04-30T16:01:41.000Z</time></trkpt><trkpt lat="52.52124" lon="13.418182"><time>2024-04-30T16:01:45.000Z</time></trkpt><trkpt lat="52.521265" lon="13.418108"><time>2024-04-30T16:01:49.000Z</time></trkpt><trkpt lat="52.521287" lon="13.418047"><time>2024-04-30T16:01:51.000Z</time></trkpt><trkpt lat="52.521306" lon="13.418001"><time>2024-04-30T16:01:53.000Z</time></trkpt><trkpt lat="52.521324" lon="13.417951"><time>2024-04-30T16:01:55.000Z</time></trkpt><trkpt lat="52.521339" lon="13.4179"><time>2024-04-30T16:01:59.000Z</time></trkpt><trkpt lat="52.521353" lon="13.417847"><time>2024-04-30T16:02:01.000Z</time></trkpt><trkpt lat="52.521363" lon="13.4178"><time>2024-04-30T16:02:03.000Z</time></trkpt><trkpt lat="52.521375" lon="13.417748"><time>2024-04-30T16:02:07.000Z</time></trkpt><trkpt lat="52.521399" lon="13.41769"><time>2024-04-30T16:02:11.000Z</time></trkpt><trkpt lat="52.521426" lon="13.417636"><time>2024-04-30T16:02:15.000Z</time></trkpt><trkpt lat="52.521457" lon="13.417584"><time>2024-04-30T16:02:17.000Z</time></trkpt><trkpt lat="52.521484" lon="13.417549"><time>2024-04-30T16:02:21.000Z</time></trkpt><trkpt lat="52.521518" lon="13.417519"><time>2024-04-30T16:02:23.000Z</time></trkpt><trkpt lat="52.521554" lon="13.417495"><time>2024-04-30T16:02:25.000Z</time></trkpt><trkpt lat="52.52159" lon="13.417467"><time>2024-04-30T16:02:27.000Z</time></trkpt><trkpt lat="52.521627" lon="13.417433"><time>2024-04-30T16:02:29.000Z</time></trkpt><trkpt lat="52.521662" lon="13.417396"><time>2024-04-30T16:02:31.000Z</time></trkpt><trkpt lat="52.521693" lon="13.417354"><time>2024-04-30T16:02:33.000Z</time></trkpt><trkpt lat="52.521716" lon="13.417311"><time>2024-04-30T16:02:35.000Z</time></trkpt><trkpt lat="52.521738" lon="13.417257"><time>2024-04-30T16:02:37.000Z</time></trkpt><trkpt lat="52.52175" lon="13.417188"><time>2024-04-30T16:02:41.000Z</time></trkpt><trkpt lat="52.521755" lon="13.417109"><time>2024-04-30T16:02:45.000Z</time></trkpt><trkpt lat="52.521745" lon="13.417032"><time>2024-04-30T16:02:49.000Z</time></trkpt><trkpt lat="52.521749" lon="13.416964"><time>2024-04-30T16:02:53.000Z</time></trkpt><trkpt lat="52.521761" lon="13.416907"><time>2024-04-30T16:02:57.000Z</time></trkpt><trkpt lat="52.521763" lon="13.416857"><time>2024-04-30T16:03:01.000Z</time></trkpt><trkpt lat="52.521757" lon="13.416804"><time>2024-04-30T16:03:05.000Z</time></trkpt><trkpt lat="52.52175" lon="13.416736"><time>2024-04-30T16:03:09.000Z</time></trkpt><trkpt lat="52.521767" lon="13.416672"><time>2024-04-30T16:03:13.000Z</time></trkpt><trkpt lat="52.521794" lon="13.41664"><time>2024-04-30T16:03:17.000Z</time></trkpt><trkpt lat="52.521832" lon="13.416657"><time>2024-04-30T16:03:21.000Z</time></trkpt><trkpt lat="52.521867" lon="13.416699"><time>2024-04-30T16:03:25.000Z</time></trkpt><trkpt lat="52.521901" lon="13.416744"><time>2024-04-30T16:03:27.000Z</time></trkpt><trkpt lat="52.521929" lon="13.416777"><time>2024-04-30T16:03:29.000Z</time></trkpt><trkpt lat="52.52196" lon="13.416808"><time>2024-04-30T16:03:31.000Z</time></trkpt><trkpt lat="52.521995" lon="13.416841"><time>2024-04-30T16:03:33.000Z</time></trkpt><trkpt lat="52.522029" lon="13.416874"><time>2024-04-30T16:03:35.000Z</time></trkpt><trkpt lat="52.522062" lon="13.416912"><time>2024-04-30T16:03:37.000Z</time></trkpt><trkpt lat="52.522093" lon="13.416948"><time>2024-04-30T16:03:39.000Z</time></trkpt><trkpt lat="52.522126" lon="13.416982"><time>2024-04-30T16:03:41.000Z</time></trkpt><trkpt lat="52.522159" lon="13.417006"><time>2024-04-30T16:03:43.000Z</time></trkpt><trkpt lat="52.522195" lon="13.417005"><time>2024-04-30T16:03:47.000Z</time></trkpt><trkpt lat="52.522228" lon="13.416982"><time>2024-04-30T16:03:51.000Z</time></trkpt><trkpt lat="52.522257" lon="13.416943"><time>2024-04-30T16:03:53.000Z</time></trkpt><trkpt lat="52.522281" lon="13.416903"><time>2024-04-30T16:03:55.000Z</time></trkpt><trkpt lat="52.522307" lon="13.416862"><time>2024-04-30T16:03:57.000Z</time></trkpt><trkpt lat="52.522335" lon="13.416822"><time>2024-04-30T16:03:59.000Z</time></trkpt><trkpt lat="52.522362" lon="13.416782"><time>2024-04-30T16:04:01.000Z</time></trkpt><trkpt lat="52.522386" lon="13.416735"><time>2024-04-30T16:04:03.000Z</time></trkpt><trkpt lat="52.522411" lon="13.416677"><time>2024-04-30T16:04:07.000Z</time></trkpt><trkpt lat="52.522438" lon="13.416612"><time>2024-04-30T16:04:11.000Z</time></trkpt><trkpt lat="52.522472" lon="13.416557"><time>2024-04-30T16:04:15.000Z</time></trkpt><trkpt lat="52.522507" lon="13.416524"><time>2024-04-30T16:04:19.000Z</time></trkpt><trkpt lat="52.522541" lon="13.416514"><time>2024-04-30T16:04:21.000Z</time></trkpt><trkpt lat="52.522581" lon="13.416523"><time>2024-04-30T16:04:23.000Z</time></trkpt><trkpt lat="52.522624" lon="13.416543"><time>2024-04-30T16:04:27.000Z</time></trkpt><trkpt lat="52.522663" lon="13.416573"><time>2024-04-30T16:04:31.000Z</time></trkpt><trkpt lat="52.522694" lon="13.416603"><time>2024-04-30T16:04:33.000Z</time></trkpt><trkpt lat="52.522724" lon="13.416629"><time>2024-04-30T16:04:35.000Z</time></trkpt><trkpt lat="52.522756" lon="13.416649"><time>2024-04-30T16:04:37.000Z</time></trkpt><trkpt lat="52.522787" lon="13.416676"><time>2024-04-30T16:04:39.000Z</time></trkpt><trkpt lat="52.522818" lon="13.416703"><time>2024-04-30T16:04:43.000Z</time></trkpt><trkpt lat="52.522856" lon="13.416731"><time>2024-04-30T16:04:47.000Z</time></trkpt><trkpt lat="52.522892" lon="13.41675"><time>2024-04-30T16:04:51.000Z</time></trkpt><trkpt lat="52.522924" lon="13.416777"><time>2024-04-30T16:04:53.000Z</time></trkpt><trkpt lat="52.52295" lon="13.41681"><time>2024-04-30T16:04:57.000Z</time></trkpt><trkpt lat="52.522977" lon="13.416861"><time>2024-04-30T16:05:03.000Z</time></trkpt><trkpt lat="52.523001" lon="13.416917"><time>2024-04-30T16:05:07.000Z</time></trkpt><trkpt lat="52.523018" lon="13.416972"><time>2024-04-30T16:05:09.000Z</time></trkpt><trkpt lat="52.523035" lon="13.417029"><time>2024-04-30T16:05:11.000Z</time></trkpt><trkpt lat="52.523053" lon="13.41708"><time>2024-04-30T16:05:15.000Z</time></trkpt><trkpt lat="52.523072" lon="13.417132"><time>2024-04-30T16:05:17.000Z</time></trkpt><trkpt lat="52.523088" lon="13.417172"><time>2024-04-30T16:05:19.000Z</time></trkpt><trkpt lat="52.523105" lon="13.417214"><time>2024-04-30T16:05:21.000Z</time></trkpt><trkpt lat="52.523122" lon="13.417254"><time>2024-04-30T16:05:23.000Z</time></trkpt><trkpt lat="52.52314" lon="13.417305"><time>2024-04-30T16:05:25.000Z</time></trkpt><trkpt lat="52.52316" lon="13.417371"><time>2024-04-30T16:05:29.000Z</time></trkpt><trkpt lat="52.523179" lon="13.417438"><time>2024-04-30T16:05:33.000Z</time></trkpt><trkpt lat="52.5232" lon="13.417499"><time>2024-04-30T16:05:35.000Z</time></trkpt><trkpt lat="52.523219" lon="13.417551"><time>2024-04-30T16:05:37.000Z</time></trkpt><trkpt lat="52.523239" lon="13.417604"><time>2024-04-30T16:05:39.000Z</time></trkpt><trkpt lat="52.523262" lon="13.417666"><time>2024-04-30T16:05:41.000Z</time></trkpt><trkpt lat="52.523282" lon="13.417722"><time>2024-04-30T16:05:45.000Z</time></trkpt><trkpt lat="52.523302" lon="13.417775"><time>2024-04-30T16:05:47.000Z</time></trkpt><trkpt lat="52.523328" lon="13.417811"><time>2024-04-30T16:05:49.000Z</time></trkpt><trkpt lat="52.523356" lon="13.417846"><time>2024-04-30T16:05:53.000Z</time></trkpt><trkpt lat="52.523386" lon="13.417869"><time>2024-04-30T16:05:55.000Z</time></trkpt><trkpt lat="52.523417" lon="13.417907"><time>2024-04-30T16:05:57.000Z</time></trkpt><trkpt lat="52.523446" lon="13.417945"><time>2024-04-30T16:06:01.000Z</time></trkpt><trkpt lat="52.523474" lon="13.417994"><time>2024-04-30T16:06:03.000Z</time></trkpt><trkpt lat="52.5235" lon="13.418032"><time>2024-04-30T16:06:05.000Z</time></trkpt><trkpt lat="52.52353" lon="13.418072"><time>2024-04-30T16:06:09.000Z</time></trkpt><trkpt lat="52.523562" lon="13.418112"><time>2024-04-30T16:06:13.000Z</time></trkpt><trkpt lat="52.523593" lon="13.418149"><time>2024-04-30T16:06:15.000Z</time></trkpt><trkpt lat="52.523622" lon="13.418183"><time>2024-04-30T16:06:17.000Z</time></trkpt><trkpt lat="52.523653" lon="13.418226"><time>2024-04-30T16:06:19.000Z</time></trkpt><trkpt lat="52.523685" lon="13.418278"><time>2024-04-30T16:06:23.000Z</time></trkpt><trkpt lat="52.523714" lon="13.418329"><time>2024-04-30T16:06:27.000Z</time></trkpt><trkpt lat="52.523733" lon="13.418384"><time>2024-04-30T16:06:29.000Z</time></trkpt><trkpt lat="52.523741" lon="13.418439"><time>2024-04-30T16:06:33.000Z</time></trkpt><trkpt lat="52.523751" lon="13.418507"><time>2024-04-30T16:06:37.000Z</time></trkpt><trkpt lat="52.523766" lon="13.418566"><time>2024-04-30T16:06:41.000Z</time></trkpt><trkpt lat="52.523789" lon="13.418619"><time>2024-04-30T16:06:43.000Z</time></trkpt><trkpt lat="52.52381" lon="13.41866"><time>2024-04-30T16:06:45.000Z</time></trkpt><trkpt lat="52.523832" lon="13.418698"><time>2024-04-30T16:06:49.000Z</time></trkpt><trkpt lat="52.523855" lon="13.418734"><time>2024-04-30T16:06:51.000Z</time></trkpt><trkpt lat="52.523884" lon="13.418775"><time>2024-04-30T16:06:53.000Z</time></trkpt><trkpt lat="52.523914" lon="13.418813"><time>2024-04-30T16:06:57.000Z</time></trkpt><trkpt lat="52.523947" lon="13.418855"><time>2024-04-30T16:06:59.000Z</time></trkpt><trkpt lat="52.52398" lon="13.418906"><time>2024-04-30T16:07:03.000Z</time></trkpt><trkpt lat="52.524009" lon="13.418965"><time>2024-04-30T16:07:07.000Z</time></trkpt><trkpt lat="52.524041" lon="13.419002"><time>2024-04-30T16:07:09.000Z</time></trkpt><trkpt lat="52.524068" lon="13.41901"><time>2024-04-30T16:07:11.000Z</time></trkpt><trkpt lat="52.524098" lon="13.419002"><time>2024-04-30T16:07:13.000Z</time></trkpt><trkpt lat="52.52413" lon="13.418986"><time>2024-04-30T16:07:15.000Z</time></trkpt><trkpt lat="52.524167" lon="13.418968"><time>2024-04-30T16:07:17.000Z</time></trkpt><trkpt lat="52.524203" lon="13.418945"><time>2024-04-30T16:07:19.000Z</time></trkpt><trkpt lat="52.524235" lon="13.418916"><time>2024-04-30T16:07:21.000Z</time></trkpt><trkpt lat="52.524265" lon="13.418894"><time>2024-04-30T16:07:23.000Z</time></trkpt><trkpt lat="52.524295" lon="13.41889"><time>2024-04-30T16:07:29.000Z</time></trkpt><trkpt lat="52.524324" lon="13.418926"><time>2024-04-30T16:07:33.000Z</time></trkpt><trkpt lat="52.524344" lon="13.418976"><time>2024-04-30T16:07:37.000Z</time></trkpt><trkpt lat="52.524368" lon="13.419019"><time>2024-04-30T16:07:39.000Z</time></trkpt><trkpt lat="52.524399" lon="13.419044"><time>2024-04-30T16:07:43.000Z</time></trkpt><trkpt lat="52.524438" lon="13.419061"><time>2024-04-30T16:07:47.000Z</time></trkpt><trkpt lat="52.524475" lon="13.419074"><time>2024-04-30T16:07:49.000Z</time></trkpt><trkpt lat="52.524516" lon="13.419083"><time>2024-04-30T16:07:51.000Z</time></trkpt><trkpt lat="52.524564" lon="13.419091"><time>2024-04-30T16:07:55.000Z</time></trkpt><trkpt lat="52.52461" lon="13.419099"><time>2024-04-30T16:07:59.000Z</time></trkpt><trkpt lat="52.524649" lon="13.419107"><time>2024-04-30T16:08:01.000Z</time></trkpt><trkpt lat="52.524684" lon="13.419106"><time>2024-04-30T16:08:03.000Z</time></trkpt><trkpt lat="52.524721" lon="13.419101"><time>2024-04-30T16:08:05.000Z</time></trkpt><trkpt lat="52.524757" lon="13.419097"><time>2024-04-30T16:08:07.000Z</time></trkpt><trkpt lat="52.524792" lon="13.419105"><time>2024-04-30T16:08:09.000Z</time></trkpt><trkpt lat="52.524827" lon="13.41912"><time>2024-04-30T16:08:11.000Z</time></trkpt><trkpt lat="52.524863" lon="13.419137"><time>2024-04-30T16:08:13.000Z</time></trkpt><trkpt lat="52.524896" lon="13.419148"><time>2024-04-30T16:08:15.000Z</time></trkpt><trkpt lat="52.524926" lon="13.419155"><time>2024-04-30T16:08:17.000Z</time></trkpt><trkpt lat="52.524953" lon="13.419169"><time>2024-04-30T16:08:19.000Z</time></trkpt><trkpt lat="52.524982" lon="13.419191"><time>2024-04-30T16:08:21.000Z</time></trkpt><trkpt lat="52.525011" lon="13.419215"><time>2024-04-30T16:08:23.000Z</time></trkpt><trkpt lat="52.525043" lon="13.419237"><time>2024-04-30T16:08:25.000Z</time></trkpt><trkpt lat="52.525077" lon="13.419256"><time>2024-04-30T16:08:27.000Z</time></trkpt><trkpt lat="52.525108" lon="13.419278"><time>2024-04-30T16:08:29.000Z</time></trkpt><trkpt lat="52.525138" lon="13.419307"><time>2024-04-30T16:08:31.000Z</time></trkpt><trkpt lat="52.525163" lon="13.419343"><time>2024-04-30T16:08:33.000Z</time></trkpt><trkpt lat="52.525196" lon="13.419387"><time>2024-04-30T16:08:35.000Z</time></trkpt><trkpt lat="52.525234" lon="13.419425"><time>2024-04-30T16:08:39.000Z</time></trkpt><trkpt lat="52.525275" lon="13.419463"><time>2024-04-30T16:08:41.000Z</time></trkpt><trkpt lat="52.525306" lon="13.4195"><time>2024-04-30T16:08:43.000Z</time></trkpt><trkpt lat="52.525365" lon="13.419485"><time>2024-04-30T16:09:21.000Z</time></trkpt><trkpt lat="52.525395" lon="13.419517"><time>2024-04-30T16:09:25.000Z</time></trkpt><trkpt lat="52.525427" lon="13.419541"><time>2024-04-30T16:09:33.000Z</time></trkpt><trkpt lat="52.525456" lon="13.419564"><time>2024-04-30T16:09:37.000Z</time></trkpt><trkpt lat="52.525487" lon="13.419605"><time>2024-04-30T16:09:41.000Z</time></trkpt><trkpt lat="52.525518" lon="13.419644"><time>2024-04-30T16:09:45.000Z</time></trkpt><trkpt lat="52.525551" lon="13.419677"><time>2024-04-30T16:09:47.000Z</time></trkpt><trkpt lat="52.525583" lon="13.419702"><time>2024-04-30T16:09:49.000Z</time></trkpt><trkpt lat="52.525608" lon="13.419738"><time>2024-04-30T16:09:53.000Z</time></trkpt><trkpt lat="52.525627" lon="13.419782"><time>2024-04-30T16:09:57.000Z</time></trkpt><trkpt lat="52.525643" lon="13.41983"><time>2024-04-30T16:10:01.000Z</time></trkpt><trkpt lat="52.525662" lon="13.41987"><time>2024-04-30T16:10:03.000Z</time></trkpt><trkpt lat="52.525689" lon="13.419914"><time>2024-04-30T16:10:05.000Z</time></trkpt><trkpt lat="52.525718" lon="13.419953"><time>2024-04-30T16:10:09.000Z</time></trkpt><trkpt lat="52.525752" lon="13.41999"><time>2024-04-30T16:10:11.000Z</time></trkpt><trkpt lat="52.525786" lon="13.420013"><time>2024-04-30T16:10:13.000Z</time></trkpt><trkpt lat="52.52582" lon="13.420041"><time>2024-04-30T16:10:15.000Z</time></trkpt><trkpt lat="52.52585" lon="13.420073"><time>2024-04-30T16:10:17.000Z</time></trkpt><trkpt lat="52.525874" lon="13.420112"><time>2024-04-30T16:10:19.000Z</time></trkpt><trkpt lat="52.525896" lon="13.420151"><time>2024-04-30T16:10:23.000Z</time></trkpt><trkpt lat="52.525918" lon="13.420197"><time>2024-04-30T16:10:27.000Z</time></trkpt><trkpt lat="52.525945" lon="13.420245"><time>2024-04-30T16:10:31.000Z</time></trkpt><trkpt lat="52.525972" lon="13.42029"><time>2024-04-30T16:10:35.000Z</time></trkpt><trkpt lat="52.526" lon="13.420325"><time>2024-04-30T16:10:37.000Z</time></trkpt><trkpt lat="52.526026" lon="13.420353"><time>2024-04-30T16:10:39.000Z</time></trkpt><trkpt lat="52.526049" lon="13.420385"><time>2024-04-30T16:10:41.000Z</time></trkpt><trkpt lat="52.526072" lon="13.420429"><time>2024-04-30T16:10:43.000Z</time></trkpt><trkpt lat="52.526094" lon="13.420474"><time>2024-04-30T16:10:47.000Z</time></trkpt><trkpt lat="52.526123" lon="13.420517"><time>2024-04-30T16:10:49.000Z</time></trkpt><trkpt lat="52.526157" lon="13.42055"><time>2024-04-30T16:10:51.000Z</time></trkpt><trkpt lat="52.526192" lon="13.420584"><time>2024-04-30T16:10:53.000Z</time></trkpt><trkpt lat="52.526225" lon="13.420622"><time>2024-04-30T16:10:55.000Z</time></trkpt><trkpt lat="52.526256" lon="13.420663"><time>2024-04-30T16:10:59.000Z</time></trkpt><trkpt lat="52.526293" lon="13.42071"><time>2024-04-30T16:11:03.000Z</time></trkpt><trkpt lat="52.526332" lon="13.420753"><time>2024-04-30T16:11:07.000Z</time></trkpt><trkpt lat="52.526369" lon="13.420789"><time>2024-04-30T16:11:09.000Z</time></trkpt><trkpt lat="52.526402" lon="13.420817"><time>2024-04-30T16:11:11.000Z</time></trkpt><trkpt lat="52.526439" lon="13.420843"><time>2024-04-30T16:11:13.000Z</time></trkpt><trkpt lat="52.526477" lon="13.420879"><time>2024-04-30T16:11:17.000Z</time></trkpt><trkpt lat="52.526511" lon="13.42093"><time>2024-04-30T16:11:21.000Z</time></trkpt><trkpt lat="52.526536" lon="13.420983"><time>2024-04-30T16:11:25.000Z</time></trkpt><trkpt lat="52.526556" lon="13.421031"><time>2024-04-30T16:11:27.000Z</time></trkpt><trkpt lat="52.526578" lon="13.421066"><time>2024-04-30T16:11:29.000Z</time></trkpt><trkpt lat="52.5266" lon="13.4211"><time>2024-04-30T16:11:31.000Z</time></trkpt><trkpt lat="52.526623" lon="13.421135"><time>2024-04-30T16:11:33.000Z</time></trkpt><trkpt lat="52.52665" lon="13.421173"><time>2024-04-30T16:11:35.000Z</time></trkpt><trkpt lat="52.526683" lon="13.421205"><time>2024-04-30T16:11:37.000Z</time></trkpt><trkpt lat="52.52672" lon="13.421234"><time>2024-04-30T16:11:41.000Z</time></trkpt><trkpt lat="52.526754" lon="13.421258"><time>2024-04-30T16:11:45.000Z</time></trkpt><trkpt lat="52.526782" lon="13.421298"><time>2024-04-30T16:11:47.000Z</time></trkpt><trkpt lat="52.526804" lon="13.421357"><time>2024-04-30T16:11:51.000Z</time></trkpt><trkpt lat="52.526815" lon="13.421424"><time>2024-04-30T16:11:55.000Z</time></trkpt><trkpt lat="52.526822" lon="13.421499"><time>2024-04-30T16:11:57.000Z</time></trkpt><trkpt lat="52.526824" lon="13.421562"><time>2024-04-30T16:12:01.000Z</time></trkpt><trkpt lat="52.52683" lon="13.421624"><time>2024-04-30T16:12:03.000Z</time></trkpt><trkpt lat="52.526836" lon="13.421672"><time>2024-04-30T16:12:05.000Z</time></trkpt><trkpt lat="52.526848" lon="13.421722"><time>2024-04-30T16:12:07.000Z</time></trkpt><trkpt lat="52.526866" lon="13.421773"><time>2024-04-30T16:12:09.000Z</time></trkpt><trkpt lat="52.526887" lon="13.421834"><time>2024-04-30T16:12:11.000Z</time></trkpt><trkpt lat="52.526907" lon="13.421892"><time>2024-04-30T16:12:15.000Z</time></trkpt><trkpt lat="52.526927" lon="13.42195"><time>2024-04-30T16:12:17.000Z</time></trkpt><trkpt lat="52.526944" lon="13.422001"><time>2024-04-30T16:12:19.000Z</time></trkpt><trkpt lat="52.526965" lon="13.422054"><time>2024-04-30T16:12:21.000Z</time></trkpt><trkpt lat="52.526987" lon="13.422106"><time>2024-04-30T16:12:23.000Z</time></trkpt><trkpt lat="52.527009" lon="13.422151"><time>2024-04-30T16:12:25.000Z</time></trkpt><trkpt lat="52.527036" lon="13.422188"><time>2024-04-30T16:12:27.000Z</time></trkpt><trkpt lat="52.527061" lon="13.42222"><time>2024-04-30T16:12:31.000Z</time></trkpt><trkpt lat="52.527082" lon="13.422257"><time>2024-04-30T16:12:33.000Z</time></trkpt><trkpt lat="52.527098" lon="13.422302"><time>2024-04-30T16:12:35.000Z</time></trkpt><trkpt lat="52.527121" lon="13.422344"><time>2024-04-30T16:12:39.000Z</time></trkpt><trkpt lat="52.52715" lon="13.422375"><time>2024-04-30T16:12:43.000Z</time></trkpt><trkpt lat="52.527181" lon="13.422399"><time>2024-04-30T16:12:45.000Z</time></trkpt><trkpt lat="52.527215" lon="13.422418"><time>2024-04-30T16:12:47.000Z</time></trkpt><trkpt lat="52.52726" lon="13.422445"><time>2024-04-30T16:12:51.000Z</time></trkpt><trkpt lat="52.527309" lon="13.422487"><time>2024-04-30T16:12:55.000Z</time></trkpt><trkpt lat="52.527352" lon="13.422535"><time>2024-04-30T16:12:59.000Z</time></trkpt><trkpt lat="52.527385" lon="13.422588"><time>2024-04-30T16:13:01.000Z</time></trkpt><trkpt lat="52.527412" lon="13.422627"><time>2024-04-30T16:13:05.000Z</time></trkpt><trkpt lat="52.527445" lon="13.422651"><time>2024-04-30T16:13:07.000Z</time></trkpt><trkpt lat="52.527481" lon="13.422673"><time>2024-04-30T16:13:11.000Z</time></trkpt><trkpt lat="52.527517" lon="13.422696"><time>2024-04-30T16:13:15.000Z</time></trkpt><trkpt lat="52.527556" lon="13.422739"><time>2024-04-30T16:13:21.000Z</time></trkpt><trkpt lat="52.527588" lon="13.422784"><time>2024-04-30T16:13:25.000Z</time></trkpt><trkpt lat="52.527621" lon="13.422833"><time>2024-04-30T16:13:27.000Z</time></trkpt><trkpt lat="52.527638" lon="13.422881"><time>2024-04-30T16:13:29.000Z</time></trkpt><trkpt lat="52.527646" lon="13.422931"><time>2024-04-30T16:13:31.000Z</time></trkpt><trkpt lat="52.527645" lon="13.422992"><time>2024-04-30T16:13:33.000Z</time></trkpt><trkpt lat="52.527644" lon="13.423059"><time>2024-04-30T16:13:37.000Z</time></trkpt><trkpt lat="52.527642" lon="13.423132"><time>2024-04-30T16:13:39.000Z</time></trkpt><trkpt lat="52.527647" lon="13.4232"><time>2024-04-30T16:13:41.000Z</time></trkpt><trkpt lat="52.527653" lon="13.423263"><time>2024-04-30T16:13:43.000Z</time></trkpt><trkpt lat="52.527662" lon="13.423327"><time>2024-04-30T16:13:45.000Z</time></trkpt><trkpt lat="52.527678" lon="13.423378"><time>2024-04-30T16:13:49.000Z</time></trkpt><trkpt lat="52.527698" lon="13.423425"><time>2024-04-30T16:13:53.000Z</time></trkpt><trkpt lat="52.527722" lon="13.423461"><time>2024-04-30T16:13:55.000Z</time></trkpt><trkpt lat="52.527739" lon="13.423504"><time>2024-04-30T16:13:57.000Z</time></trkpt><trkpt lat="52.527761" lon="13.423538"><time>2024-04-30T16:13:59.000Z</time></trkpt><trkpt lat="52.527789" lon="13.423582"><time>2024-04-30T16:14:01.000Z</time></trkpt><trkpt lat="52.527814" lon="13.423623"><time>2024-04-30T16:14:05.000Z</time></trkpt><trkpt lat="52.527838" lon="13.423668"><time>2024-04-30T16:14:07.000Z</time></trkpt><trkpt lat="52.527866" lon="13.423704"><time>2024-04-30T16:14:09.000Z</time></trkpt><trkpt lat="52.5279" lon="13.423747"><time>2024-04-30T16:14:13.000Z</time></trkpt><trkpt lat="52.527939" lon="13.42378"><time>2024-04-30T16:14:17.000Z</time></trkpt><trkpt lat="52.527982" lon="13.42381"><time>2024-04-30T16:14:21.000Z</time></trkpt><trkpt lat="52.528029" lon="13.423828"><time>2024-04-30T16:14:25.000Z</time></trkpt><trkpt lat="52.528073" lon="13.423846"><time>2024-04-30T16:14:29.000Z</time></trkpt><trkpt lat="52.528118" lon="13.423856"><time>2024-04-30T16:14:31.000Z</time></trkpt><trkpt lat="52.528158" lon="13.423851"><time>2024-04-30T16:14:35.000Z</time></trkpt><trkpt lat="52.528198" lon="13.423843"><time>2024-04-30T16:14:37.000Z</time></trkpt><trkpt lat="52.528227" lon="13.423824"><time>2024-04-30T16:14:39.000Z</time></trkpt><trkpt lat="52.528251" lon="13.423799"><time>2024-04-30T16:14:41.000Z</time></trkpt><trkpt lat="52.528273" lon="13.423761"><time>2024-04-30T16:14:43.000Z</time></trkpt><trkpt lat="52.528298" lon="13.423722"><time>2024-04-30T16:14:45.000Z</time></trkpt><trkpt lat="52.528333" lon="13.423694"><time>2024-04-30T16:14:49.000Z</time></trkpt><trkpt lat="52.528378" lon="13.423688"><time>2024-04-30T16:14:53.000Z</time></trkpt><trkpt lat="52.52842" lon="13.423685"><time>2024-04-30T16:14:57.000Z</time></trkpt><trkpt lat="52.528455" lon="13.423685"><time>2024-04-30T16:14:59.000Z</time></trkpt><trkpt lat="52.528482" lon="13.423692"><time>2024-04-30T16:15:03.000Z</time></trkpt><trkpt lat="52.528508" lon="13.423725"><time>2024-04-30T16:15:09.000Z</time></trkpt><trkpt lat="52.528531" lon="13.423779"><time>2024-04-30T16:15:13.000Z</time></trkpt><trkpt lat="52.528553" lon="13.423831"><time>2024-04-30T16:15:19.000Z</time></trkpt><trkpt lat="52.52858" lon="13.423875"><time>2024-04-30T16:15:21.000Z</time></trkpt><trkpt lat="52.528607" lon="13.423917"><time>2024-04-30T16:15:25.000Z</time></trkpt><trkpt lat="52.528624" lon="13.423966"><time>2024-04-30T16:15:29.000Z</time></trkpt><trkpt lat="52.528635" lon="13.424021"><time>2024-04-30T16:15:33.000Z</time></trkpt><trkpt lat="52.528646" lon="13.424079"><time>2024-04-30T16:15:37.000Z</time></trkpt><trkpt lat="52.528668" lon="13.424134"><time>2024-04-30T16:15:41.000Z</time></trkpt><trkpt lat="52.528693" lon="13.424188"><time>2024-04-30T16:15:43.000Z</time></trkpt><trkpt lat="52.528719" lon="13.424232"><time>2024-04-30T16:15:45.000Z</time></trkpt><trkpt lat="52.52875" lon="13.424272"><time>2024-04-30T16:15:47.000Z</time></trkpt><trkpt lat="52.528779" lon="13.424304"><time>2024-04-30T16:15:51.000Z</time></trkpt><trkpt lat="52.528815" lon="13.424339"><time>2024-04-30T16:15:53.000Z</time></trkpt><trkpt lat="52.528846" lon="13.424368"><time>2024-04-30T16:15:57.000Z</time></trkpt><trkpt lat="52.52889" lon="13.424397"><time>2024-04-30T16:15:59.000Z</time></trkpt><trkpt lat="52.528931" lon="13.424402"><time>2024-04-30T16:16:03.000Z</time></trkpt><trkpt lat="52.528977" lon="13.424393"><time>2024-04-30T16:16:05.000Z</time></trkpt><trkpt lat="52.529013" lon="13.42437"><time>2024-04-30T16:16:07.000Z</time></trkpt><trkpt lat="52.529045" lon="13.424348"><time>2024-04-30T16:16:09.000Z</time></trkpt><trkpt lat="52.529072" lon="13.424328"><time>2024-04-30T16:16:11.000Z</time></trkpt><trkpt lat="52.529102" lon="13.424318"><time>2024-04-30T16:16:13.000Z</time></trkpt><trkpt lat="52.529133" lon="13.424319"><time>2024-04-30T16:16:15.000Z</time></trkpt><trkpt lat="52.529162" lon="13.424338"><time>2024-04-30T16:16:17.000Z</time></trkpt><trkpt lat="52.529188" lon="13.424363"><time>2024-04-30T16:16:19.000Z</time></trkpt><trkpt lat="52.52921" lon="13.424394"><time>2024-04-30T16:16:21.000Z</time></trkpt><trkpt lat="52.529234" lon="13.424423"><time>2024-04-30T16:16:23.000Z</time></trkpt><trkpt lat="52.529262" lon="13.424451"><time>2024-04-30T16:16:25.000Z</time></trkpt><trkpt lat="52.529292" lon="13.424477"><time>2024-04-30T16:16:27.000Z</time></trkpt><trkpt lat="52.529327" lon="13.424511"><time>2024-04-30T16:16:29.000Z</time></trkpt><trkpt lat="52.529364" lon="13.424549"><time>2024-04-30T16:16:33.000Z</time></trkpt><trkpt lat="52.529399" lon="13.424588"><time>2024-04-30T16:16:37.000Z</time></trkpt><trkpt lat="52.52943" lon="13.424619"><time>2024-04-30T16:16:39.000Z</time></trkpt><trkpt lat="52.529453" lon="13.424648"><time>2024-04-30T16:16:41.000Z</time></trkpt><trkpt lat="52.529467" lon="13.424685"><time>2024-04-30T16:16:45.000Z</time></trkpt><trkpt lat="52.529482" lon="13.424725"><time>2024-04-30T16:16:53.000Z</time></trkpt><trkpt lat="52.5295" lon="13.424769"><time>2024-04-30T16:16:57.000Z</time></trkpt><trkpt lat="52.529536" lon="13.424808"><time>2024-04-30T16:17:01.000Z</time></trkpt><trkpt lat="52.529572" lon="13.42484"><time>2024-04-30T16:17:05.000Z</time></trkpt><trkpt lat="52.529613" lon="13.424868"><time>2024-04-30T16:17:07.000Z</time></trkpt><trkpt lat="52.529647" lon="13.424889"><time>2024-04-30T16:17:11.000Z</time></trkpt><trkpt lat="52.529684" lon="13.424913"><time>2024-04-30T16:17:13.000Z</time></trkpt><trkpt lat="52.529719" lon="13.424932"><time>2024-04-30T16:17:15.000Z</time></trkpt><trkpt lat="52.529759" lon="13.424963"><time>2024-04-30T16:17:19.000Z</time></trkpt><trkpt lat="52.529794" lon="13.424998"><time>2024-04-30T16:17:23.000Z</time></trkpt><trkpt lat="52.529827" lon="13.425032"><time>2024-04-30T16:17:25.000Z</time></trkpt><trkpt lat="52.529854" lon="13.425061"><time>2024-04-30T16:17:27.000Z</time></trkpt><trkpt lat="52.529881" lon="13.425092"><time>2024-04-30T16:17:29.000Z</time></trkpt><trkpt lat="52.529905" lon="13.425133"><time>2024-04-30T16:17:31.000Z</time></trkpt><trkpt lat="52.529928" lon="13.425181"><time>2024-04-30T16:17:33.000Z</time></trkpt><trkpt lat="52.529952" lon="13.425229"><time>2024-04-30T16:17:35.000Z</time></trkpt><trkpt lat="52.529983" lon="13.425264"><time>2024-04-30T16:17:37.000Z</time></trkpt><trkpt lat="52.53002" lon="13.425287"><time>2024-04-30T16:17:41.000Z</time></trkpt><trkpt lat="52.530064" lon="13.425305"><time>2024-04-30T16:17:45.000Z</time></trkpt><trkpt lat="52.530096" lon="13.425335"><time>2024-04-30T16:17:49.000Z</time></trkpt><trkpt lat="52.530112" lon="13.425376"><time>2024-04-30T16:17:53.000Z</time></trkpt><trkpt lat="52.530118" lon="13.425426"><time>2024-04-30T16:17:57.000Z</time></trkpt><trkpt lat="52.530124" lon="13.425484"><time>2024-04-30T16:17:59.000Z</time></trkpt><trkpt lat="52.530136" lon="13.425554"><time>2024-04-30T16:18:01.000Z</time></trkpt><trkpt lat="52.530144" lon="13.425624"><time>2024-04-30T16:18:05.000Z</time></trkpt><trkpt lat="52.530156" lon="13.425686"><time>2024-04-30T16:18:07.000Z</time></trkpt><trkpt lat="52.530172" lon="13.425728"><time>2024-04-30T16:18:09.000Z</time></trkpt><trkpt lat="52.530194" lon="13.425766"><time>2024-04-30T16:18:11.000Z</time></trkpt><trkpt lat="52.53021" lon="13.425802"><time>2024-04-30T16:18:15.000Z</time></trkpt><trkpt lat="52.530225" lon="13.425843"><time>2024-04-30T16:18:17.000Z</time></trkpt><trkpt lat="52.53024" lon="13.425893"><time>2024-04-30T16:18:19.000Z</time></trkpt><trkpt lat="52.530262" lon="13.425947"><time>2024-04-30T16:18:23.000Z</time></trkpt><trkpt lat="52.530291" lon="13.426003"><time>2024-04-30T16:18:25.000Z</time></trkpt><trkpt lat="52.530321" lon="13.426051"><time>2024-04-30T16:18:29.000Z</time></trkpt><trkpt lat="52.530351" lon="13.426093"><time>2024-04-30T16:18:31.000Z</time></trkpt><trkpt lat="52.530377" lon="13.426126"><time>2024-04-30T16:18:33.000Z</time></trkpt><trkpt lat="52.530407" lon="13.426157"><time>2024-04-30T16:18:35.000Z</time></trkpt><trkpt lat="52.530444" lon="13.426186"><time>2024-04-30T16:18:39.000Z</time></trkpt><trkpt lat="52.530476" lon="13.426221"><time>2024-04-30T16:18:43.000Z</time></trkpt><trkpt lat="52.5305" lon="13.426263"><time>2024-04-30T16:18:45.000Z</time></trkpt><trkpt lat="52.53052" lon="13.42628"><time>2024-04-30T16:18:47.000Z</time></trkpt><trkpt lat="52.530545" lon="13.426299"><time>2024-04-30T16:18:51.000Z</time></trkpt><trkpt lat="52.530565" lon="13.426319"><time>2024-04-30T16:18:53.000Z</time></trkpt><trkpt lat="52.530584" lon="13.426365"><time>2024-04-30T16:18:55.000Z</time></trkpt><trkpt lat="52.530605" lon="13.426409"><time>2024-04-30T16:18:59.000Z</time></trkpt><trkpt lat="52.530633" lon="13.426445"><time>2024-04-30T16:19:03.000Z</time></trkpt><trkpt lat="52.53066" lon="13.426476"><time>2024-04-30T16:19:05.000Z</time></trkpt><trkpt lat="52.530684" lon="13.426504"><time>2024-04-30T16:19:07.000Z</time></trkpt><trkpt lat="52.530709" lon="13.426538"><time>2024-04-30T16:19:09.000Z</time></trkpt><trkpt lat="52.530731" lon="13.426578"><time>2024-04-30T16:19:11.000Z</time></trkpt><trkpt lat="52.530752" lon="13.426621"><time>2024-04-30T16:19:13.000Z</time></trkpt><trkpt lat="52.530773" lon="13.426664"><time>2024-04-30T16:19:15.000Z</time></trkpt><trkpt lat="52.530794" lon="13.42671"><time>2024-04-30T16:19:17.000Z</time></trkpt><trkpt lat="52.530813" lon="13.42676"><time>2024-04-30T16:19:19.000Z</time></trkpt><trkpt lat="52.53083" lon="13.42681"><time>2024-04-30T16:19:23.000Z</time></trkpt><trkpt lat="52.530847" lon="13.426859"><time>2024-04-30T16:19:25.000Z</time></trkpt><trkpt lat="52.530863" lon="13.426902"><time>2024-04-30T16:19:27.000Z</time></trkpt><trkpt lat="52.530875" lon="13.426951"><time>2024-04-30T16:19:29.000Z</time></trkpt><trkpt lat="52.530897" lon="13.426987"><time>2024-04-30T16:19:31.000Z</time></trkpt><trkpt lat="52.530923" lon="13.427001"><time>2024-04-30T16:19:35.000Z</time></trkpt><trkpt lat="52.530957" lon="13.426999"><time>2024-04-30T16:19:37.000Z</time></trkpt><trkpt lat="52.530993" lon="13.427009"><time>2024-04-30T16:19:41.000Z</time></trkpt><trkpt lat="52.531029" lon="13.427052"><time>2024-04-30T16:19:45.000Z</time></trkpt><trkpt lat="52.531061" lon="13.427113"><time>2024-04-30T16:19:49.000Z</time></trkpt><trkpt lat="52.531087" lon="13.42717"><time>2024-04-30T16:19:53.000Z</time></trkpt><trkpt lat="52.531117" lon="13.427217"><time>2024-04-30T16:19:57.000Z</time></trkpt><trkpt lat="52.531148" lon="13.427254"><time>2024-04-30T16:20:01.000Z</time></trkpt><trkpt lat="52.531174" lon="13.427317"><time>2024-04-30T16:20:03.000Z</time></trkpt><trkpt lat="52.531191" lon="13.427383"><time>2024-04-30T16:20:07.000Z</time></trkpt><trkpt lat="52.531205" lon="13.427451"><time>2024-04-30T16:20:09.000Z</time></trkpt><trkpt lat="52.531222" lon="13.427503"><time>2024-04-30T16:20:11.000Z</time></trkpt><trkpt lat="52.531241" lon="13.427551"><time>2024-04-30T16:20:13.000Z</time></trkpt><trkpt lat="52.531261" lon="13.4276"><time>2024-04-30T16:20:15.000Z</time></trkpt><trkpt lat="52.531282" lon="13.427624"><time>2024-04-30T16:20:17.000Z</time></trkpt><trkpt lat="52.53131" lon="13.427614"><time>2024-04-30T16:20:19.000Z</time></trkpt><trkpt lat="52.531345" lon="13.427584"><time>2024-04-30T16:20:21.000Z</time></trkpt><trkpt lat="52.531384" lon="13.427565"><time>2024-04-30T16:20:23.000Z</time></trkpt><trkpt lat="52.531417" lon="13.427572"><time>2024-04-30T16:20:27.000Z</time></trkpt><trkpt lat="52.531454" lon="13.427587"><time>2024-04-30T16:20:29.000Z</time></trkpt><trkpt lat="52.531488" lon="13.427614"><time>2024-04-30T16:20:33.000Z</time></trkpt><trkpt lat="52.531525" lon="13.427654"><time>2024-04-30T16:20:37.000Z</time></trkpt><trkpt lat="52.531557" lon="13.427692"><time>2024-04-30T16:20:41.000Z</time></trkpt><trkpt lat="52.531583" lon="13.427729"><time>2024-04-30T16:20:45.000Z</time></trkpt><trkpt lat="52.531606" lon="13.427764"><time>2024-04-30T16:20:49.000Z</time></trkpt><trkpt lat="52.531626" lon="13.427811"><time>2024-04-30T16:20:53.000Z</time></trkpt><trkpt lat="52.53165" lon="13.427861"><time>2024-04-30T16:20:55.000Z</time></trkpt><trkpt lat="52.531678" lon="13.427916"><time>2024-04-30T16:20:59.000Z</time></trkpt><trkpt lat="52.531709" lon="13.427981"><time>2024-04-30T16:21:03.000Z</time></trkpt><trkpt lat="52.531733" lon="13.428049"><time>2024-04-30T16:21:07.000Z</time></trkpt><trkpt lat="52.531762" lon="13.428113"><time>2024-04-30T16:21:11.000Z</time></trkpt><trkpt lat="52.53179" lon="13.428158"><time>2024-04-30T16:21:15.000Z</time></trkpt><trkpt lat="52.531826" lon="13.428194"><time>2024-04-30T16:21:17.000Z</time></trkpt><trkpt lat="52.531856" lon="13.42823"><time>2024-04-30T16:21:21.000Z</time></trkpt><trkpt lat="52.531883" lon="13.428271"><time>2024-04-30T16:21:23.000Z</time></trkpt><trkpt lat="52.531902" lon="13.428312"><time>2024-04-30T16:21:25.000Z</time></trkpt><trkpt lat="52.531918" lon="13.428353"><time>2024-04-30T16:21:27.000Z</time></trkpt><trkpt lat="52.531931" lon="13.428404"><time>2024-04-30T16:21:29.000Z</time></trkpt><trkpt lat="52.531941" lon="13.428458"><time>2024-04-30T16:21:31.000Z</time></trkpt><trkpt lat="52.531949" lon="13.428511"><time>2024-04-30T16:21:33.000Z</time></trkpt><trkpt lat="52.531967" lon="13.428572"><time>2024-04-30T16:21:35.000Z</time></trkpt><trkpt lat="52.531986" lon="13.428636"><time>2024-04-30T16:21:39.000Z</time></trkpt><trkpt lat="52.532009" lon="13.428696"><time>2024-04-30T16:21:41.000Z</time></trkpt><trkpt lat="52.532024" lon="13.428741"><time>2024-04-30T16:21:43.000Z</time></trkpt><trkpt lat="52.532046" lon="13.428765"><time>2024-04-30T16:21:45.000Z</time></trkpt><trkpt lat="52.532072" lon="13.428795"><time>2024-04-30T16:21:47.000Z</time></trkpt><trkpt lat="52.532105" lon="13.428834"><time>2024-04-30T16:21:51.000Z</time></trkpt><trkpt lat="52.532132" lon="13.428887"><time>2024-04-30T16:21:55.000Z</time></trkpt><trkpt lat="52.532163" lon="13.428906"><time>2024-04-30T16:21:57.000Z</time></trkpt><trkpt lat="52.532193" lon="13.428899"><time>2024-04-30T16:21:59.000Z</time></trkpt><trkpt lat="52.532226" lon="13.428889"><time>2024-04-30T16:22:01.000Z</time></trkpt><trkpt lat="52.532253" lon="13.428907"><time>2024-04-30T16:22:03.000Z</time></trkpt><trkpt lat="52.532275" lon="13.42894"><time>2024-04-30T16:22:05.000Z</time></trkpt><trkpt lat="52.532302" lon="13.428981"><time>2024-04-30T16:22:07.000Z</time></trkpt><trkpt lat="52.532332" lon="13.429025"><time>2024-04-30T16:22:11.000Z</time></trkpt><trkpt lat="52.532368" lon="13.429071"><time>2024-04-30T16:22:15.000Z</time></trkpt><trkpt lat="52.532402" lon="13.429121"><time>2024-04-30T16:22:19.000Z</time></trkpt><trkpt lat="52.532429" lon="13.429173"><time>2024-04-30T16:22:23.000Z</time></trkpt><trkpt lat="52.532446" lon="13.429228"><time>2024-04-30T16:22:25.000Z</time></trkpt><trkpt lat="52.532456" lon="13.42928"><time>2024-04-30T16:22:27.000Z</time></trkpt><trkpt lat="52.532462" lon="13.429338"><time>2024-04-30T16:22:29.000Z</time></trkpt><trkpt lat="52.532478" lon="13.429392"><time>2024-04-30T16:22:31.000Z</time></trkpt><trkpt lat="52.532501" lon="13.429441"><time>2024-04-30T16:22:35.000Z</time></trkpt><trkpt lat="52.532534" lon="13.429478"><time>2024-04-30T16:22:37.000Z</time></trkpt><trkpt lat="52.532563" lon="13.429512"><time>2024-04-30T16:22:39.000Z</time></trkpt><trkpt lat="52.532593" lon="13.429551"><time>2024-04-30T16:22:41.000Z</time></trkpt><trkpt lat="52.532621" lon="13.429596"><time>2024-04-30T16:22:45.000Z</time></trkpt><trkpt lat="52.532655" lon="13.429645"><time>2024-04-30T16:22:49.000Z</time></trkpt><trkpt lat="52.532695" lon="13.429687"><time>2024-04-30T16:22:53.000Z</time></trkpt><trkpt lat="52.532738" lon="13.429717"><time>2024-04-30T16:22:57.000Z</time></trkpt><trkpt lat="52.532778" lon="13.429743"><time>2024-04-30T16:22:59.000Z</time></trkpt><trkpt lat="52.532815" lon="13.429766"><time>2024-04-30T16:23:01.000Z</time></trkpt><trkpt lat="52.53285" lon="13.429788"><time>2024-04-30T16:23:05.000Z</time></trkpt><trkpt lat="52.532883" lon="13.429813"><time>2024-04-30T16:23:09.000Z</time></trkpt><trkpt lat="52.532909" lon="13.429816"><time>2024-04-30T16:23:13.000Z</time></trkpt><trkpt lat="52.532935" lon="13.429811"><time>2024-04-30T16:23:19.000Z</time></trkpt><trkpt lat="52.532963" lon="13.429777"><time>2024-04-30T16:23:27.000Z</time></trkpt><trkpt lat="52.532994" lon="13.429759"><time>2024-04-30T16:23:35.000Z</time></trkpt><trkpt lat="52.53303" lon="13.429713"><time>2024-04-30T16:23:39.000Z</time></trkpt><trkpt lat="52.533063" lon="13.429661"><time>2024-04-30T16:23:41.000Z</time></trkpt><trkpt lat="52.533099" lon="13.429602"><time>2024-04-30T16:23:43.000Z</time></trkpt><trkpt lat="52.533134" lon="13.429562"><time>2024-04-30T16:23:49.000Z</time></trkpt><trkpt lat="52.533181" lon="13.429529"><time>2024-04-30T16:23:51.000Z</time></trkpt><trkpt lat="52.533227" lon="13.429494"><time>2024-04-30T16:23:53.000Z</time></trkpt><trkpt lat="52.533273" lon="13.429467"><time>2024-04-30T16:23:55.000Z</time></trkpt><trkpt lat="52.533313" lon="13.429452"><time>2024-04-30T16:23:57.000Z</time></trkpt><trkpt lat="52.533348" lon="13.429439"><time>2024-04-30T16:23:59.000Z</time></trkpt><trkpt lat="52.53338" lon="13.429429"><time>2024-04-30T16:24:01.000Z</time></trkpt><trkpt lat="52.533411" lon="13.42943"><time>2024-04-30T16:24:03.000Z</time></trkpt><trkpt lat="52.53344" lon="13.429442"><time>2024-04-30T16:24:05.000Z</time></trkpt><trkpt lat="52.533467" lon="13.429466"><time>2024-04-30T16:24:07.000Z</time></trkpt><trkpt lat="52.533495" lon="13.429498"><time>2024-04-30T16:24:09.000Z</time></trkpt><trkpt lat="52.533523" lon="13.429531"><time>2024-04-30T16:24:13.000Z</time></trkpt><trkpt lat="52.533553" lon="13.429564"><time>2024-04-30T16:24:15.000Z</time></trkpt><trkpt lat="52.533585" lon="13.429589"><time>2024-04-30T16:24:17.000Z</time></trkpt><trkpt lat="52.53362" lon="13.429609"><time>2024-04-30T16:24:21.000Z</time></trkpt><trkpt lat="52.533659" lon="13.429628"><time>2024-04-30T16:24:23.000Z</time></trkpt><trkpt lat="52.533691" lon="13.429652"><time>2024-04-30T16:24:27.000Z</time></trkpt><trkpt lat="52.533714" lon="13.429687"><time>2024-04-30T16:24:29.000Z</time></trkpt><trkpt lat="52.533733" lon="13.429735"><time>2024-04-30T16:24:31.000Z</time></trkpt><trkpt lat="52.533757" lon="13.429779"><time>2024-04-30T16:24:35.000Z</time></trkpt><trkpt lat="52.53379" lon="13.429824"><time>2024-04-30T16:24:39.000Z</time></trkpt><trkpt lat="52.533822" lon="13.429862"><time>2024-04-30T16:24:43.000Z</time></trkpt><trkpt lat="52.533854" lon="13.429911"><time>2024-04-30T16:24:47.000Z</time></trkpt><trkpt lat="52.533882" lon="13.429954"><time>2024-04-30T16:24:51.000Z</time></trkpt><trkpt lat="52.533909" lon="13.430001"><time>2024-04-30T16:24:53.000Z</time></trkpt><trkpt lat="52.533934" lon="13.430043"><time>2024-04-30T16:24:55.000Z</time></trkpt><trkpt lat="52.533966" lon="13.430101"><time>2024-04-30T16:24:59.000Z</time></trkpt><trkpt lat="52.533997" lon="13.430156"><time>2024-04-30T16:25:03.000Z</time></trkpt><trkpt lat="52.534025" lon="13.430209"><time>2024-04-30T16:25:05.000Z</time></trkpt><trkpt lat="52.53405" lon="13.430244"><time>2024-04-30T16:25:07.000Z</time></trkpt><trkpt lat="52.53408" lon="13.430284"><time>2024-04-30T16:25:09.000Z</time></trkpt><trkpt lat="52.534107" lon="13.430326"><time>2024-04-30T16:25:13.000Z</time></trkpt><trkpt lat="52.534129" lon="13.430375"><time>2024-04-30T16:25:15.000Z</time></trkpt><trkpt lat="52.534149" lon="13.430415"><time>2024-04-30T16:25:17.000Z</time></trkpt><trkpt lat="52.534173" lon="13.430449"><time>2024-04-30T16:25:21.000Z</time></trkpt><trkpt lat="52.534211" lon="13.430475"><time>2024-04-30T16:25:23.000Z</time></trkpt><trkpt lat="52.534247" lon="13.430498"><time>2024-04-30T16:25:27.000Z</time></trkpt><trkpt lat="52.534283" lon="13.430522"><time>2024-04-30T16:25:29.000Z</time></trkpt><trkpt lat="52.534317" lon="13.430555"><time>2024-04-30T16:25:31.000Z</time></trkpt><trkpt lat="52.53435" lon="13.430586"><time>2024-04-30T16:25:35.000Z</time></trkpt><trkpt lat="52.534389" lon="13.430621"><time>2024-04-30T16:25:37.000Z</time></trkpt><trkpt lat="52.534424" lon="13.430655"><time>2024-04-30T16:25:41.000Z</time></trkpt><trkpt lat="52.534453" lon="13.4307"><time>2024-04-30T16:25:45.000Z</time></trkpt><trkpt lat="52.534474" lon="13.430758"><time>2024-04-30T16:25:49.000Z</time></trkpt><trkpt lat="52.534487" lon="13.430817"><time>2024-04-30T16:25:53.000Z</time></trkpt><trkpt lat="52.534505" lon="13.430867"><time>2024-04-30T16:25:55.000Z</time></trkpt><trkpt lat="52.534528" lon="13.430896"><time>2024-04-30T16:25:57.000Z</time></trkpt><trkpt lat="52.534548" lon="13.430926"><time>2024-04-30T16:26:01.000Z</time></trkpt><trkpt lat="52.534569" lon="13.430971"><time>2024-04-30T16:26:03.000Z</time></trkpt><trkpt lat="52.534587" lon="13.431028"><time>2024-04-30T16:26:07.000Z</time></trkpt><trkpt lat="52.534609" lon="13.431076"><time>2024-04-30T16:26:09.000Z</time></trkpt><trkpt lat="52.534632" lon="13.431124"><time>2024-04-30T16:26:11.000Z</time></trkpt><trkpt lat="52.534654" lon="13.431181"><time>2024-04-30T16:26:15.000Z</time></trkpt><trkpt lat="52.534676" lon="13.431248"><time>2024-04-30T16:26:19.000Z</time></trkpt><trkpt lat="52.534692" lon="13.431309"><time>2024-04-30T16:26:23.000Z</time></trkpt><trkpt lat="52.534719" lon="13.431349"><time>2024-04-30T16:26:25.000Z</time></trkpt><trkpt lat="52.534753" lon="13.431363"><time>2024-04-30T16:26:29.000Z</time></trkpt><trkpt lat="52.534795" lon="13.431353"><time>2024-04-30T16:26:31.000Z</time></trkpt><trkpt lat="52.534832" lon="13.431337"><time>2024-04-30T16:26:33.000Z</time></trkpt><trkpt lat="52.534867" lon="13.431329"><time>2024-04-30T16:26:35.000Z</time></trkpt><trkpt lat="52.534904" lon="13.43133"><time>2024-04-30T16:26:37.000Z</time></trkpt><trkpt lat="52.53494" lon="13.431335"><time>2024-04-30T16:26:39.000Z</time></trkpt><trkpt lat="52.534973" lon="13.431336"><time>2024-04-30T16:26:41.000Z</time></trkpt><trkpt lat="52.535008" lon="13.431348"><time>2024-04-30T16:26:45.000Z</time></trkpt><trkpt lat="52.535042" lon="13.431362"><time>2024-04-30T16:26:49.000Z</time></trkpt><trkpt lat="52.53507" lon="13.431395"><time>2024-04-30T16:26:51.000Z</time></trkpt><trkpt lat="52.535093" lon="13.431422"><time>2024-04-30T16:26:55.000Z</time></trkpt><trkpt lat="52.535118" lon="13.431455"><time>2024-04-30T16:26:57.000Z</time></trkpt><trkpt lat="52.535148" lon="13.431477"><time>2024-04-30T16:27:01.000Z</time></trkpt><trkpt lat="52.53518" lon="13.431496"><time>2024-04-30T16:27:03.000Z</time></trkpt><trkpt lat="52.53522" lon="13.431507"><time>2024-04-30T16:27:05.000Z</time></trkpt><trkpt lat="52.535262" lon="13.431509"><time>2024-04-30T16:27:09.000Z</time></trkpt><trkpt lat="52.535306" lon="13.431498"><time>2024-04-30T16:27:11.000Z</time></trkpt><trkpt lat="52.535341" lon="13.431465"><time>2024-04-30T16:27:13.000Z</time></trkpt><trkpt lat="52.53538" lon="13.431434"><time>2024-04-30T16:27:15.000Z</time></trkpt><trkpt lat="52.535419" lon="13.431412"><time>2024-04-30T16:27:19.000Z</time></trkpt><trkpt lat="52.535463" lon="13.431407"><time>2024-04-30T16:27:21.000Z</time></trkpt><trkpt lat="52.535497" lon="13.4314"><time>2024-04-30T16:27:25.000Z</time></trkpt><trkpt lat="52.535529" lon="13.431387"><time>2024-04-30T16:27:27.000Z</time></trkpt><trkpt lat="52.535559" lon="13.431375"><time>2024-04-30T16:27:29.000Z</time></trkpt><trkpt lat="52.535597" lon="13.43137"><time>2024-04-30T16:27:33.000Z</time></trkpt><trkpt lat="52.535636" lon="13.43137"><time>2024-04-30T16:27:37.000Z</time></trkpt><trkpt lat="52.535664" lon="13.431393"><time>2024-04-30T16:27:39.000Z</time></trkpt><trkpt lat="52.535676" lon="13.431445"><time>2024-04-30T16:27:41.000Z</time></trkpt><trkpt lat="52.535683" lon="13.431525"><time>2024-04-30T16:27:43.000Z</time></trkpt><trkpt lat="52.535693" lon="13.431611"><time>2024-04-30T16:27:45.000Z</time></trkpt><trkpt lat="52.535706" lon="13.43169"><time>2024-04-30T16:27:49.000Z</time></trkpt><trkpt lat="52.535716" lon="13.431756"><time>2024-04-30T16:27:51.000Z</time></trkpt><trkpt lat="52.535731" lon="13.431817"><time>2024-04-30T16:27:53.000Z</time></trkpt><trkpt lat="52.535749" lon="13.431879"><time>2024-04-30T16:27:57.000Z</time></trkpt><trkpt lat="52.535767" lon="13.431941"><time>2024-04-30T16:28:01.000Z</time></trkpt><trkpt lat="52.535774" lon="13.431997"><time>2024-04-30T16:28:03.000Z</time></trkpt><trkpt lat="52.535774" lon="13.432049"><time>2024-04-30T16:28:05.000Z</time></trkpt><trkpt lat="52.53576" lon="13.432094"><time>2024-04-30T16:28:07.000Z</time></trkpt><trkpt lat="52.535733" lon="13.432115"><time>2024-04-30T16:28:13.000Z</time></trkpt><trkpt lat="52.535691" lon="13.432116"><time>2024-04-30T16:28:15.000Z</time></trkpt><trkpt lat="52.53565" lon="13.432107"><time>2024-04-30T16:28:17.000Z</time></trkpt><trkpt lat="52.535614" lon="13.4321"><time>2024-04-30T16:28:19.000Z</time></trkpt><trkpt lat="52.535583" lon="13.432083"><time>2024-04-30T16:28:21.000Z</time></trkpt><trkpt lat="52.535556" lon="13.43206"><time>2024-04-30T16:28:23.000Z</time></trkpt><trkpt lat="52.535531" lon="13.432032"><time>2024-04-30T16:28:25.000Z</time></trkpt><trkpt lat="52.535508" lon="13.432005"><time>2024-04-30T16:28:27.000Z</time></trkpt><trkpt lat="52.535482" lon="13.431996"><time>2024-04-30T16:28:29.000Z</time></trkpt><trkpt lat="52.535454" lon="13.432003"><time>2024-04-30T16:28:33.000Z</time></trkpt><trkpt lat="52.535438" lon="13.432041"><time>2024-04-30T16:28:37.000Z</time></trkpt><trkpt lat="52.53544" lon="13.432085"><time>2024-04-30T16:28:43.000Z</time></trkpt><trkpt lat="52.53546" lon="13.432146"><time>2024-04-30T16:28:45.000Z</time></trkpt></trkseg></trk></gpx>