<?xml version="1.0" encoding="UTF-8"?><gpx creator="Health" xsi:schemaLocation="http://www.topografix.com/GPX/1/0 http://www.topografix.com/GPX/1/0/gpx.xsd" version="1.0" xmlns="http://www.topografix.com/GPX/1/0" xmlns:xsi="http://www.w3.org/2001/XMLSchema-instance"><metadata><time>2024-03-31T12:32:00.472Z</time></metadata><trk><type>Ходьба на улице</type><extensions><totalTime>10067.0</totalTime><cumulativeDecrease>0.0</cumulativeDecrease><cumulativeClimb>0.0</cumulativeClimb><totalDistance>4199.0</totalDistance></extensions><trkseg><trkpt lat="52.537781" lon="13.569829"><time>2024-03-31T12:32:00.472Z</time></trkpt><trkpt lat="52.53781" lon="13.569829"><time>2024-03-31T12:32:01.500Z</time></trkpt><trkpt lat="52.537841" lon="13.569824"><time>2024-03-31T12:32:03.000Z</time></trkpt><trkpt lat="52.53792" lon="13.569808"><time>2024-03-31T12:32:29.000Z</time></trkpt><trkpt lat="52.537867" lon="13.569843"><time>2024-03-31T12:34:05.000Z</time></trkpt><trkpt lat="52.537888" lon="13.569867"><time>2024-03-31T12:35:01.000Z</time></trkpt><trkpt lat="52.537894" lon="13.56979"><time>2024-03-31T12:35:11.000Z</time></trkpt><trkpt lat="52.537883" lon="13.569729"><time>2024-03-31T12:35:15.000Z</time></trkpt><trkpt lat="52.537872" lon="13.569713"><time>2024-03-31T12:35:19.000Z</time></trkpt><trkpt lat="52.537861" lon="13.569732"><time>2024-03-31T12:35:35.000Z</time></trkpt><trkpt lat="52.537855" lon="13.569826"><time>2024-03-31T12:35:43.000Z</time></trkpt><trkpt lat="52.537845" lon="13.569922"><time>2024-03-31T12:35:49.000Z</time></trkpt><trkpt lat="52.537839" lon="13.570014"><time>2024-03-31T12:35:51.000Z</time></trkpt><trkpt lat="52.537846" lon="13.570065"><time>2024-03-31T12:35:53.000Z</time></trkpt><trkpt lat="52.537862" lon="13.570117"><time>2024-03-31T12:35:55.000Z</time></trkpt><trkpt lat="52.537881" lon="13.570137"><time>2024-03-31T12:35:57.000Z</time></trkpt><trkpt lat="52.537898" lon="13.570119"><time>2024-03-31T12:36:05.000Z</time></trkpt><trkpt lat="52.537893" lon="13.570075"><time>2024-03-31T12:36:21.000Z</time></trkpt><trkpt lat="52.537873" lon="13.570033"><time>2024-03-31T12:36:23.000Z</time></trkpt><trkpt lat="52.538922" lon="13.570942"><time>2024-03-31T12:54:23.722Z</time></trkpt><trkpt lat="52.538466" lon="13.570763"><time>2024-03-31T12:54:32.000Z</time></trkpt><trkpt lat="52.538251" lon="13.570738"><time>2024-03-31T12:54:36.000Z</time></trkpt><trkpt lat="52.538273" lon="13.570864"><time>2024-03-31T12:54:40.000Z</time></trkpt><trkpt lat="52.538299" lon="13.570899"><time>2024-03-31T12:54:46.000Z</time></trkpt><trkpt lat="52.53833" lon="13.570909"><time>2024-03-31T12:54:50.000Z</time></trkpt><trkpt lat="52.53837" lon="13.570902"><time>2024-03-31T12:54:54.000Z</time></trkpt><trkpt lat="52.538448" lon="13.570893"><time>2024-03-31T12:55:32.000Z</time></trkpt><trkpt lat="52.538483" lon="13.57088"><time>2024-03-31T12:55:40.000Z</time></trkpt><trkpt lat="52.538525" lon="13.570869"><time>2024-03-31T12:55:44.000Z</time></trkpt><trkpt lat="52.538565" lon="13.57086"><time>2024-03-31T12:55:48.000Z</time></trkpt><trkpt lat="52.538602" lon="13.570851"><time>2024-03-31T12:55:50.000Z</time></trkpt><trkpt lat="52.538632" lon="13.570841"><time>2024-03-31T12:55:52.000Z</time></trkpt><trkpt lat="52.538672" lon="13.570829"><time>2024-03-31T12:55:54.000Z</time></trkpt><trkpt lat="52.538713" lon="13.570823"><time>2024-03-31T12:55:58.000Z</time></trkpt><trkpt lat="52.538758" lon="13.570819"><time>2024-03-31T12:56:00.000Z</time></trkpt><trkpt lat="52.538798" lon="13.570818"><time>2024-03-31T12:56:02.000Z</time></trkpt><trkpt lat="52.538835" lon="13.570809"><time>2024-03-31T12:56:04.000Z</time></trkpt><trkpt lat="52.538876" lon="13.570798"><time>2024-03-31T12:56:06.000Z</time></trkpt><trkpt lat="52.538915" lon="13.570788"><time>2024-03-31T12:56:10.000Z</time></trkpt><trkpt lat="52.53896" lon="13.570784"><time>2024-03-31T12:56:12.000Z</time></trkpt><trkpt lat="52.539001" lon="13.570783"><time>2024-03-31T12:56:14.000Z</time></trkpt><trkpt lat="52.539044" lon="13.570783"><time>2024-03-31T12:56:16.000Z</time></trkpt><trkpt lat="52.539084" lon="13.57078"><time>2024-03-31T12:56:18.000Z</time></trkpt><trkpt lat="52.539122" lon="13.570779"><time>2024-03-31T12:56:20.000Z</time></trkpt><trkpt lat="52.539155" lon="13.570779"><time>2024-03-31T12:56:22.000Z</time></trkpt><trkpt lat="52.539189" lon="13.570785"><time>2024-03-31T12:56:24.000Z</time></trkpt><trkpt lat="52.539225" lon="13.570792"><time>2024-03-31T12:56:26.000Z</time></trkpt><trkpt lat="52.539263" lon="13.570797"><time>2024-03-31T12:56:28.000Z</time></trkpt><trkpt lat="52.539306" lon="13.570797"><time>2024-03-31T12:56:30.000Z</time></trkpt><trkpt lat="52.539348" lon="13.570798"><time>2024-03-31T12:56:34.000Z</time></trkpt><trkpt lat="52.539393" lon="13.5708"><time>2024-03-31T12:56:36.000Z</time></trkpt><trkpt lat="52.539432" lon="13.570807"><time>2024-03-31T12:56:38.000Z</time></trkpt><trkpt lat="52.539467" lon="13.570812"><time>2024-03-31T12:56:40.000Z</time></trkpt><trkpt lat="52.539505" lon="13.570823"><time>2024-03-31T12:56:42.000Z</time></trkpt><trkpt lat="52.539541" lon="13.570839"><time>2024-03-31T12:56:46.000Z</time></trkpt><trkpt lat="52.539583" lon="13.570858"><time>2024-03-31T12:56:48.000Z</time></trkpt><trkpt lat="52.539618" lon="13.57089"><time>2024-03-31T12:56:54.000Z</time></trkpt><trkpt lat="52.539647" lon="13.570932"><time>2024-03-31T12:56:58.000Z</time></trkpt><trkpt lat="52.539675" lon="13.570981"><time>2024-03-31T12:57:02.000Z</time></trkpt><trkpt lat="52.539703" lon="13.571031"><time>2024-03-31T12:57:06.000Z</time></trkpt><trkpt lat="52.539735" lon="13.571071"><time>2024-03-31T12:57:10.000Z</time></trkpt><trkpt lat="52.539763" lon="13.571099"><time>2024-03-31T12:57:12.000Z</time></trkpt><trkpt lat="52.539792" lon="13.571118"><time>2024-03-31T12:57:16.000Z</time></trkpt><trkpt lat="52.539825" lon="13.571137"><time>2024-03-31T12:57:20.000Z</time></trkpt><trkpt lat="52.53986" lon="13.571166"><time>2024-03-31T12:57:24.000Z</time></trkpt><trkpt lat="52.539899" lon="13.571202"><time>2024-03-31T12:57:28.000Z</time></trkpt><trkpt lat="52.539941" lon="13.57124"><time>2024-03-31T12:57:32.000Z</time></trkpt><trkpt lat="52.53998" lon="13.571284"><time>2024-03-31T12:57:36.000Z</time></trkpt><trkpt lat="52.540018" lon="13.571321"><time>2024-03-31T12:57:40.000Z</time></trkpt><trkpt lat="52.540054" lon="13.571357"><time>2024-03-31T12:57:44.000Z</time></trkpt><trkpt lat="52.540093" lon="13.571383"><time>2024-03-31T12:57:48.000Z</time></trkpt><trkpt lat="52.540132" lon="13.571402"><time>2024-03-31T12:57:52.000Z</time></trkpt><trkpt lat="52.540168" lon="13.571427"><time>2024-03-31T12:57:56.000Z</time></trkpt><trkpt lat="52.540195" lon="13.571473"><time>2024-03-31T12:58:06.000Z</time></trkpt><trkpt lat="52.540217" lon="13.571532"><time>2024-03-31T12:58:10.000Z</time></trkpt><trkpt lat="52.540244" lon="13.571584"><time>2024-03-31T12:58:14.000Z</time></trkpt><trkpt lat="52.540278" lon="13.571623"><time>2024-03-31T12:58:18.000Z</time></trkpt><trkpt lat="52.540311" lon="13.571652"><time>2024-03-31T12:58:22.000Z</time></trkpt><trkpt lat="52.540348" lon="13.571686"><time>2024-03-31T12:58:24.000Z</time></trkpt><trkpt lat="52.540389" lon="13.571719"><time>2024-03-31T12:58:28.000Z</time></trkpt><trkpt lat="52.540429" lon="13.571766"><time>2024-03-31T12:58:32.000Z</time></trkpt><trkpt lat="52.540463" lon="13.571816"><time>2024-03-31T12:58:36.000Z</time></trkpt><trkpt lat="52.540481" lon="13.571873"><time>2024-03-31T12:58:40.000Z</time></trkpt><trkpt lat="52.540468" lon="13.571908"><time>2024-03-31T12:58:46.000Z</time></trkpt><trkpt lat="52.540439" lon="13.571938"><time>2024-03-31T12:58:50.000Z</time></trkpt><trkpt lat="52.540394" lon="13.571963"><time>2024-03-31T12:58:58.000Z</time></trkpt><trkpt lat="52.540359" lon="13.571991"><time>2024-03-31T12:59:00.000Z</time></trkpt><trkpt lat="52.54033" lon="13.572023"><time>2024-03-31T12:59:04.000Z</time></trkpt><trkpt lat="52.540305" lon="13.572049"><time>2024-03-31T12:59:08.000Z</time></trkpt><trkpt lat="52.540279" lon="13.572082"><time>2024-03-31T12:59:14.000Z</time></trkpt><trkpt lat="52.540224" lon="13.572112"><time>2024-03-31T12:59:16.000Z</time></trkpt><trkpt lat="52.54017" lon="13.572153"><time>2024-03-31T12:59:20.000Z</time></trkpt><trkpt lat="52.540116" lon="13.572201"><time>2024-03-31T12:59:24.000Z</time></trkpt><trkpt lat="52.540077" lon="13.572249"><time>2024-03-31T12:59:28.000Z</time></trkpt><trkpt lat="52.540044" lon="13.572288"><time>2024-03-31T12:59:30.000Z</time></trkpt><trkpt lat="52.540014" lon="13.572327"><time>2024-03-31T12:59:34.000Z</time></trkpt><trkpt lat="52.539978" lon="13.572369"><time>2024-03-31T12:59:38.000Z</time></trkpt><trkpt lat="52.539937" lon="13.572412"><time>2024-03-31T12:59:42.000Z</time></trkpt><trkpt lat="52.539893" lon="13.572456"><time>2024-03-31T12:59:46.000Z</time></trkpt><trkpt lat="52.53986" lon="13.572488"><time>2024-03-31T12:59:50.000Z</time></trkpt><trkpt lat="52.539828" lon="13.572516"><time>2024-03-31T12:59:54.000Z</time></trkpt><trkpt lat="52.539807" lon="13.572548"><time>2024-03-31T12:59:58.000Z</time></trkpt><trkpt lat="52.539786" lon="13.5726"><time>2024-03-31T13:00:04.000Z</time></trkpt><trkpt lat="52.539775" lon="13.572662"><time>2024-03-31T13:00:10.000Z</time></trkpt><trkpt lat="52.539771" lon="13.57272"><time>2024-03-31T13:00:14.000Z</time></trkpt><trkpt lat="52.539767" lon="13.572766"><time>2024-03-31T13:00:18.000Z</time></trkpt><trkpt lat="52.539759" lon="13.572818"><time>2024-03-31T13:00:20.000Z</time></trkpt><trkpt lat="52.539745" lon="13.57288"><time>2024-03-31T13:00:26.000Z</time></trkpt><trkpt lat="52.539729" lon="13.572944"><time>2024-03-31T13:00:30.000Z</time></trkpt><trkpt lat="52.539706" lon="13.572987"><time>2024-03-31T13:00:36.000Z</time></trkpt><trkpt lat="52.539667" lon="13.573019"><time>2024-03-31T13:00:40.000Z</time></trkpt><trkpt lat="52.539626" lon="13.573024"><time>2024-03-31T13:00:46.000Z</time></trkpt><trkpt lat="52.539584" lon="13.573031"><time>2024-03-31T13:00:48.000Z</time></trkpt><trkpt lat="52.53955" lon="13.573029"><time>2024-03-31T13:00:50.000Z</time></trkpt><trkpt lat="52.539543" lon="13.573032"><time>2024-03-31T13:00:52.000Z</time></trkpt><trkpt lat="52.539559" lon="13.57304"><time>2024-03-31T13:00:56.000Z</time></trkpt><trkpt lat="52.539593" lon="13.57305"><time>2024-03-31T13:01:00.000Z</time></trkpt><trkpt lat="52.539618" lon="13.573088"><time>2024-03-31T13:01:04.000Z</time></trkpt><trkpt lat="52.539642" lon="13.573141"><time>2024-03-31T13:01:06.000Z</time></trkpt><trkpt lat="52.539651" lon="13.573211"><time>2024-03-31T13:01:08.000Z</time></trkpt><trkpt lat="52.539648" lon="13.57328"><time>2024-03-31T13:01:10.000Z</time></trkpt><trkpt lat="52.539646" lon="13.573299"><time>2024-03-31T13:01:14.000Z</time></trkpt><trkpt lat="52.539625" lon="13.573292"><time>2024-03-31T13:01:16.000Z</time></trkpt><trkpt lat="52.539603" lon="13.57325"><time>2024-03-31T13:01:20.000Z</time></trkpt><trkpt lat="52.539616" lon="13.573242"><time>2024-03-31T13:01:22.000Z</time></trkpt><trkpt lat="52.53964" lon="13.573239"><time>2024-03-31T13:01:24.000Z</time></trkpt><trkpt lat="52.539655" lon="13.573244"><time>2024-03-31T13:01:26.000Z</time></trkpt><trkpt lat="52.53959" lon="13.573244"><time>2024-03-31T13:01:28.000Z</time></trkpt><trkpt lat="52.539493" lon="13.573232"><time>2024-03-31T13:01:30.000Z</time></trkpt><trkpt lat="52.539375" lon="13.573215"><time>2024-03-31T13:01:32.000Z</time></trkpt><trkpt lat="52.539272" lon="13.57317"><time>2024-03-31T13:01:34.000Z</time></trkpt><trkpt lat="52.5392" lon="13.573126"><time>2024-03-31T13:01:36.000Z</time></trkpt><trkpt lat="52.539158" lon="13.573083"><time>2024-03-31T13:01:38.000Z</time></trkpt><trkpt lat="52.539152" lon="13.57308"><time>2024-03-31T13:01:40.000Z</time></trkpt><trkpt lat="52.539164" lon="13.573117"><time>2024-03-31T13:01:42.000Z</time></trkpt><trkpt lat="52.539191" lon="13.573133"><time>2024-03-31T13:01:48.000Z</time></trkpt><trkpt lat="52.539208" lon="13.573122"><time>2024-03-31T13:01:50.000Z</time></trkpt><trkpt lat="52.539235" lon="13.573102"><time>2024-03-31T13:01:52.000Z</time></trkpt><trkpt lat="52.539258" lon="13.573083"><time>2024-03-31T13:01:54.000Z</time></trkpt><trkpt lat="52.539274" lon="13.57305"><time>2024-03-31T13:01:56.000Z</time></trkpt><trkpt lat="52.539269" lon="13.572968"><time>2024-03-31T13:01:58.000Z</time></trkpt><trkpt lat="52.539256" lon="13.572881"><time>2024-03-31T13:02:00.000Z</time></trkpt><trkpt lat="52.539251" lon="13.572811"><time>2024-03-31T13:02:02.000Z</time></trkpt><trkpt lat="52.539258" lon="13.572782"><time>2024-03-31T13:02:10.000Z</time></trkpt><trkpt lat="52.539275" lon="13.572802"><time>2024-03-31T13:02:12.000Z</time></trkpt><trkpt lat="52.539273" lon="13.572837"><time>2024-03-31T13:02:14.000Z</time></trkpt><trkpt lat="52.539261" lon="13.572894"><time>2024-03-31T13:02:20.000Z</time></trkpt><trkpt lat="52.539237" lon="13.572911"><time>2024-03-31T13:02:22.000Z</time></trkpt><trkpt lat="52.539211" lon="13.572928"><time>2024-03-31T13:02:26.000Z</time></trkpt><trkpt lat="52.539184" lon="13.572923"><time>2024-03-31T13:02:30.000Z</time></trkpt><trkpt lat="52.539157" lon="13.572945"><time>2024-03-31T13:02:34.000Z</time></trkpt><trkpt lat="52.539156" lon="13.572975"><time>2024-03-31T13:02:38.000Z</time></trkpt><trkpt lat="52.539154" lon="13.57297"><time>2024-03-31T13:02:42.000Z</time></trkpt><trkpt lat="52.539166" lon="13.572943"><time>2024-03-31T13:02:44.000Z</time></trkpt><trkpt lat="52.539171" lon="13.572936"><time>2024-03-31T13:02:48.000Z</time></trkpt><trkpt lat="52.539189" lon="13.572961"><time>2024-03-31T13:02:56.000Z</time></trkpt><trkpt lat="52.539196" lon="13.573016"><time>2024-03-31T13:03:00.000Z</time></trkpt><trkpt lat="52.539197" lon="13.573062"><time>2024-03-31T13:03:04.000Z</time></trkpt><trkpt lat="52.539198" lon="13.573109"><time>2024-03-31T13:03:08.000Z</time></trkpt><trkpt lat="52.539212" lon="13.573158"><time>2024-03-31T13:03:10.000Z</time></trkpt><trkpt lat="52.539234" lon="13.573191"><time>2024-03-31T13:03:12.000Z</time></trkpt><trkpt lat="52.539266" lon="13.573213"><time>2024-03-31T13:03:14.000Z</time></trkpt><trkpt lat="52.539304" lon="13.573237"><time>2024-03-31T13:03:16.000Z</time></trkpt><trkpt lat="52.539331" lon="13.573268"><time>2024-03-31T13:03:20.000Z</time></trkpt><trkpt lat="52.539334" lon="13.573315"><time>2024-03-31T13:03:22.000Z</time></trkpt><trkpt lat="52.53932" lon="13.573372"><time>2024-03-31T13:03:26.000Z</time></trkpt><trkpt lat="52.539323" lon="13.573421"><time>2024-03-31T13:03:30.000Z</time></trkpt><trkpt lat="52.539345" lon="13.57346"><time>2024-03-31T13:03:34.000Z</time></trkpt><trkpt lat="52.539362" lon="13.57349"><time>2024-03-31T13:03:38.000Z</time></trkpt><trkpt lat="52.539372" lon="13.573528"><time>2024-03-31T13:03:46.000Z</time></trkpt><trkpt lat="52.539386" lon="13.573563"><time>2024-03-31T13:04:06.000Z</time></trkpt><trkpt lat="52.539417" lon="13.573579"><time>2024-03-31T13:04:10.000Z</time></trkpt><trkpt lat="52.539452" lon="13.573578"><time>2024-03-31T13:04:14.000Z</time></trkpt><trkpt lat="52.539484" lon="13.573573"><time>2024-03-31T13:04:16.000Z</time></trkpt><trkpt lat="52.539518" lon="13.573576"><time>2024-03-31T13:04:18.000Z</time></trkpt><trkpt lat="52.539552" lon="13.573583"><time>2024-03-31T13:04:20.000Z</time></trkpt><trkpt lat="52.539588" lon="13.573603"><time>2024-03-31T13:04:22.000Z</time></trkpt><trkpt lat="52.539617" lon="13.573639"><time>2024-03-31T13:04:26.000Z</time></trkpt><trkpt lat="52.539645" lon="13.573685"><time>2024-03-31T13:04:32.000Z</time></trkpt><trkpt lat="52.539668" lon="13.573728"><time>2024-03-31T13:04:36.000Z</time></trkpt><trkpt lat="52.539698" lon="13.57376"><time>2024-03-31T13:04:40.000Z</time></trkpt><trkpt lat="52.539728" lon="13.573783"><time>2024-03-31T13:04:44.000Z</time></trkpt><trkpt lat="52.539764" lon="13.573801"><time>2024-03-31T13:04:46.000Z</time></trkpt><trkpt lat="52.539789" lon="13.573828"><time>2024-03-31T13:04:50.000Z</time></trkpt><trkpt lat="52.539818" lon="13.573866"><time>2024-03-31T13:04:54.000Z</time></trkpt><trkpt lat="52.539847" lon="13.573909"><time>2024-03-31T13:04:58.000Z</time></trkpt><trkpt lat="52.539884" lon="13.573938"><time>2024-03-31T13:05:02.000Z</time></trkpt><trkpt lat="52.539914" lon="13.573969"><time>2024-03-31T13:05:06.000Z</time></trkpt><trkpt lat="52.539919" lon="13.573995"><time>2024-03-31T13:05:10.000Z</time></trkpt><trkpt lat="52.539905" lon="13.574026"><time>2024-03-31T13:05:16.000Z</time></trkpt><trkpt lat="52.539895" lon="13.574056"><time>2024-03-31T13:05:20.000Z</time></trkpt><trkpt lat="52.539906" lon="13.574086"><time>2024-03-31T13:05:28.000Z</time></trkpt><trkpt lat="52.539936" lon="13.574117"><time>2024-03-31T13:05:32.000Z</time></trkpt><trkpt lat="52.539962" lon="13.57415"><time>2024-03-31T13:05:36.000Z</time></trkpt><trkpt lat="52.539994" lon="13.574182"><time>2024-03-31T13:05:40.000Z</time></trkpt><trkpt lat="52.54003" lon="13.574208"><time>2024-03-31T13:05:44.000Z</time></trkpt><trkpt lat="52.540075" lon="13.574221"><time>2024-03-31T13:05:48.000Z</time></trkpt><trkpt lat="52.540115" lon="13.574233"><time>2024-03-31T13:05:52.000Z</time></trkpt><trkpt lat="52.54015" lon="13.574251"><time>2024-03-31T13:05:56.000Z</time></trkpt><trkpt lat="52.540172" lon="13.574293"><time>2024-03-31T13:06:00.000Z</time></trkpt><trkpt lat="52.540187" lon="13.574344"><time>2024-03-31T13:06:06.000Z</time></trkpt><trkpt lat="52.5402" lon="13.574399"><time>2024-03-31T13:06:10.000Z</time></trkpt><trkpt lat="52.540221" lon="13.574441"><time>2024-03-31T13:06:16.000Z</time></trkpt><trkpt lat="52.540238" lon="13.574426"><time>2024-03-31T13:06:22.000Z</time></trkpt><trkpt lat="52.540095" lon="13.575513"><time>2024-03-31T13:07:38.000Z</time></trkpt><trkpt lat="52.540094" lon="13.575549"><time>2024-03-31T13:07:40.000Z</time></trkpt><trkpt lat="52.540089" lon="13.575508"><time>2024-03-31T13:07:46.000Z</time></trkpt><trkpt lat="52.540075" lon="13.575406"><time>2024-03-31T13:07:50.000Z</time></trkpt><trkpt lat="52.540051" lon="13.575337"><time>2024-03-31T13:07:54.000Z</time></trkpt><trkpt lat="52.539995" lon="13.575305"><time>2024-03-31T13:07:56.000Z</time></trkpt><trkpt lat="52.539961" lon="13.57529"><time>2024-03-31T13:08:04.000Z</time></trkpt><trkpt lat="52.53994" lon="13.575306"><time>2024-03-31T13:08:20.000Z</time></trkpt><trkpt lat="52.539944" lon="13.575332"><time>2024-03-31T13:08:24.000Z</time></trkpt><trkpt lat="52.539927" lon="13.575379"><time>2024-03-31T13:08:28.000Z</time></trkpt><trkpt lat="52.539903" lon="13.575427"><time>2024-03-31T13:08:36.000Z</time></trkpt><trkpt lat="52.539877" lon="13.575474"><time>2024-03-31T13:08:42.000Z</time></trkpt><trkpt lat="52.539815" lon="13.57553"><time>2024-03-31T13:09:10.000Z</time></trkpt><trkpt lat="52.539825" lon="13.575516"><time>2024-03-31T13:09:30.000Z</time></trkpt><trkpt lat="52.5398" lon="13.575597"><time>2024-03-31T13:10:26.000Z</time></trkpt><trkpt lat="52.539843" lon="13.575517"><time>2024-03-31T13:11:14.000Z</time></trkpt><trkpt lat="52.539823" lon="13.575577"><time>2024-03-31T13:11:24.000Z</time></trkpt><trkpt lat="52.539803" lon="13.575636"><time>2024-03-31T13:11:30.000Z</time></trkpt><trkpt lat="52.539792" lon="13.575693"><time>2024-03-31T13:11:36.000Z</time></trkpt><trkpt lat="52.539801" lon="13.575703"><time>2024-03-31T13:11:44.000Z</time></trkpt><trkpt lat="52.539812" lon="13.575668"><time>2024-03-31T13:11:54.000Z</time></trkpt><trkpt lat="52.539815" lon="13.575601"><time>2024-03-31T13:11:58.000Z</time></trkpt><trkpt lat="52.539805" lon="13.575547"><time>2024-03-31T13:12:00.000Z</time></trkpt><trkpt lat="52.539783" lon="13.575515"><time>2024-03-31T13:12:02.000Z</time></trkpt><trkpt lat="52.539752" lon="13.575495"><time>2024-03-31T13:12:04.000Z</time></trkpt><trkpt lat="52.53972" lon="13.575488"><time>2024-03-31T13:12:06.000Z</time></trkpt><trkpt lat="52.539687" lon="13.57549"><time>2024-03-31T13:12:08.000Z</time></trkpt><trkpt lat="52.53965" lon="13.575508"><time>2024-03-31T13:12:10.000Z</time></trkpt><trkpt lat="52.53963" lon="13.575535"><time>2024-03-31T13:12:14.000Z</time></trkpt><trkpt lat="52.539633" lon="13.575628"><time>2024-03-31T13:12:46.000Z</time></trkpt><trkpt lat="52.539645" lon="13.575673"><time>2024-03-31T13:12:52.000Z</time></trkpt><trkpt lat="52.539661" lon="13.575719"><time>2024-03-31T13:13:00.000Z</time></trkpt><trkpt lat="52.539673" lon="13.575766"><time>2024-03-31T13:13:04.000Z</time></trkpt><trkpt lat="52.539669" lon="13.575813"><time>2024-03-31T13:13:06.000Z</time></trkpt><trkpt lat="52.53965" lon="13.575861"><time>2024-03-31T13:13:08.000Z</time></trkpt><trkpt lat="52.53963" lon="13.575915"><time>2024-03-31T13:13:12.000Z</time></trkpt><trkpt lat="52.539621" lon="13.575977"><time>2024-03-31T13:13:16.000Z</time></trkpt><trkpt lat="52.539624" lon="13.576041"><time>2024-03-31T13:13:26.000Z</time></trkpt><trkpt lat="52.539641" lon="13.576064"><time>2024-03-31T13:13:34.000Z</time></trkpt><trkpt lat="52.53971" lon="13.5759"><time>2024-03-31T13:14:40.000Z</time></trkpt><trkpt lat="52.539732" lon="13.575833"><time>2024-03-31T13:14:44.000Z</time></trkpt><trkpt lat="52.539735" lon="13.575783"><time>2024-03-31T13:14:48.000Z</time></trkpt><trkpt lat="52.539733" lon="13.575735"><time>2024-03-31T13:14:52.000Z</time></trkpt><trkpt lat="52.539711" lon="13.575697"><time>2024-03-31T13:14:58.000Z</time></trkpt><trkpt lat="52.539698" lon="13.575643"><time>2024-03-31T13:15:04.000Z</time></trkpt><trkpt lat="52.539685" lon="13.575586"><time>2024-03-31T13:15:08.000Z</time></trkpt><trkpt lat="52.539683" lon="13.575512"><time>2024-03-31T13:15:12.000Z</time></trkpt><trkpt lat="52.539683" lon="13.575439"><time>2024-03-31T13:15:16.000Z</time></trkpt><trkpt lat="52.539684" lon="13.575369"><time>2024-03-31T13:15:20.000Z</time></trkpt><trkpt lat="52.539694" lon="13.575315"><time>2024-03-31T13:15:26.000Z</time></trkpt><trkpt lat="52.539715" lon="13.575275"><time>2024-03-31T13:15:30.000Z</time></trkpt><trkpt lat="52.539748" lon="13.57525"><time>2024-03-31T13:15:34.000Z</time></trkpt><trkpt lat="52.539786" lon="13.575232"><time>2024-03-31T13:15:40.000Z</time></trkpt><trkpt lat="52.539826" lon="13.575205"><time>2024-03-31T13:15:44.000Z</time></trkpt><trkpt lat="52.539856" lon="13.575161"><time>2024-03-31T13:15:48.000Z</time></trkpt><trkpt lat="52.539881" lon="13.575112"><time>2024-03-31T13:15:52.000Z</time></trkpt><trkpt lat="52.539859" lon="13.575087"><time>2024-03-31T13:15:56.000Z</time></trkpt><trkpt lat="52.539772" lon="13.575075"><time>2024-03-31T13:16:15.000Z</time></trkpt><trkpt lat="52.539674" lon="13.575088"><time>2024-03-31T13:16:21.000Z</time></trkpt><trkpt lat="52.539603" lon="13.575107"><time>2024-03-31T13:16:23.000Z</time></trkpt><trkpt lat="52.539587" lon="13.575154"><time>2024-03-31T13:16:27.000Z</time></trkpt><trkpt lat="52.53957" lon="13.575204"><time>2024-03-31T13:16:33.000Z</time></trkpt><trkpt lat="52.539557" lon="13.575265"><time>2024-03-31T13:16:37.000Z</time></trkpt><trkpt lat="52.539553" lon="13.575325"><time>2024-03-31T13:16:41.000Z</time></trkpt><trkpt lat="52.539541" lon="13.575391"><time>2024-03-31T13:16:45.000Z</time></trkpt><trkpt lat="52.539528" lon="13.575447"><time>2024-03-31T13:16:49.000Z</time></trkpt><trkpt lat="52.539518" lon="13.575504"><time>2024-03-31T13:16:53.000Z</time></trkpt><trkpt lat="52.539521" lon="13.575554"><time>2024-03-31T13:16:57.000Z</time></trkpt><trkpt lat="52.539529" lon="13.575603"><time>2024-03-31T13:17:01.000Z</time></trkpt><trkpt lat="52.539536" lon="13.575659"><time>2024-03-31T13:17:03.000Z</time></trkpt><trkpt lat="52.539535" lon="13.575713"><time>2024-03-31T13:17:07.000Z</time></trkpt><trkpt lat="52.539531" lon="13.575769"><time>2024-03-31T13:17:09.000Z</time></trkpt><trkpt lat="52.539524" lon="13.575829"><time>2024-03-31T13:17:11.000Z</time></trkpt><trkpt lat="52.539517" lon="13.57589"><time>2024-03-31T13:17:15.000Z</time></trkpt><trkpt lat="52.539508" lon="13.575956"><time>2024-03-31T13:17:19.000Z</time></trkpt><trkpt lat="52.5395" lon="13.576013"><time>2024-03-31T13:17:25.000Z</time></trkpt><trkpt lat="52.539496" lon="13.576069"><time>2024-03-31T13:17:29.000Z</time></trkpt><trkpt lat="52.539487" lon="13.576125"><time>2024-03-31T13:17:33.000Z</time></trkpt><trkpt lat="52.539484" lon="13.576184"><time>2024-03-31T13:17:37.000Z</time></trkpt><trkpt lat="52.539485" lon="13.576241"><time>2024-03-31T13:17:41.000Z</time></trkpt><trkpt lat="52.5395" lon="13.576295"><time>2024-03-31T13:17:43.000Z</time></trkpt><trkpt lat="52.53951" lon="13.576344"><time>2024-03-31T13:17:45.000Z</time></trkpt><trkpt lat="52.539521" lon="13.576398"><time>2024-03-31T13:17:47.000Z</time></trkpt><trkpt lat="52.539519" lon="13.576456"><time>2024-03-31T13:17:51.000Z</time></trkpt><trkpt lat="52.539519" lon="13.576515"><time>2024-03-31T13:17:55.000Z</time></trkpt><trkpt lat="52.539515" lon="13.576576"><time>2024-03-31T13:18:01.000Z</time></trkpt><trkpt lat="52.539511" lon="13.576629"><time>2024-03-31T13:18:05.000Z</time></trkpt><trkpt lat="52.539506" lon="13.57668"><time>2024-03-31T13:18:07.000Z</time></trkpt><trkpt lat="52.539496" lon="13.576727"><time>2024-03-31T13:18:09.000Z</time></trkpt><trkpt lat="52.539487" lon="13.576776"><time>2024-03-31T13:18:11.000Z</time></trkpt><trkpt lat="52.539473" lon="13.576831"><time>2024-03-31T13:18:13.000Z</time></trkpt><trkpt lat="52.539476" lon="13.576879"><time>2024-03-31T13:18:17.000Z</time></trkpt><trkpt lat="52.539498" lon="13.576917"><time>2024-03-31T13:18:21.000Z</time></trkpt><trkpt lat="52.539538" lon="13.576948"><time>2024-03-31T13:18:25.000Z</time></trkpt><trkpt lat="52.539475" lon="13.57701"><time>2024-03-31T13:19:07.000Z</time></trkpt><trkpt lat="52.539457" lon="13.577057"><time>2024-03-31T13:19:13.000Z</time></trkpt><trkpt lat="52.539435" lon="13.577102"><time>2024-03-31T13:19:17.000Z</time></trkpt><trkpt lat="52.539401" lon="13.577131"><time>2024-03-31T13:19:21.000Z</time></trkpt><trkpt lat="52.539359" lon="13.577141"><time>2024-03-31T13:19:25.000Z</time></trkpt><trkpt lat="52.539315" lon="13.577137"><time>2024-03-31T13:19:29.000Z</time></trkpt><trkpt lat="52.53927" lon="13.577128"><time>2024-03-31T13:19:31.000Z</time></trkpt><trkpt lat="52.539235" lon="13.577091"><time>2024-03-31T13:19:35.000Z</time></trkpt><trkpt lat="52.539207" lon="13.57703"><time>2024-03-31T13:19:39.000Z</time></trkpt><trkpt lat="52.539197" lon="13.576959"><time>2024-03-31T13:19:41.000Z</time></trkpt><trkpt lat="52.539195" lon="13.576896"><time>2024-03-31T13:19:43.000Z</time></trkpt><trkpt lat="52.539212" lon="13.576862"><time>2024-03-31T13:19:45.000Z</time></trkpt><trkpt lat="52.539245" lon="13.576854"><time>2024-03-31T13:19:47.000Z</time></trkpt><trkpt lat="52.53929" lon="13.57686"><time>2024-03-31T13:19:49.000Z</time></trkpt><trkpt lat="52.539337" lon="13.576851"><time>2024-03-31T13:19:51.000Z</time></trkpt><trkpt lat="52.539407" lon="13.576851"><time>2024-03-31T13:19:53.000Z</time></trkpt><trkpt lat="52.53928" lon="13.57785"><time>2024-03-31T13:26:45.000Z</time></trkpt><trkpt lat="52.539252" lon="13.577932"><time>2024-03-31T13:26:47.000Z</time></trkpt><trkpt lat="52.539234" lon="13.578002"><time>2024-03-31T13:26:53.000Z</time></trkpt><trkpt lat="52.539223" lon="13.578056"><time>2024-03-31T13:26:57.000Z</time></trkpt><trkpt lat="52.539218" lon="13.578115"><time>2024-03-31T13:27:03.000Z</time></trkpt><trkpt lat="52.539207" lon="13.578176"><time>2024-03-31T13:27:09.000Z</time></trkpt><trkpt lat="52.539188" lon="13.578243"><time>2024-03-31T13:27:13.000Z</time></trkpt><trkpt lat="52.539155" lon="13.578292"><time>2024-03-31T13:27:17.000Z</time></trkpt><trkpt lat="52.53912" lon="13.57833"><time>2024-03-31T13:27:19.000Z</time></trkpt><trkpt lat="52.53909" lon="13.578363"><time>2024-03-31T13:27:23.000Z</time></trkpt><trkpt lat="52.539071" lon="13.578411"><time>2024-03-31T13:27:29.000Z</time></trkpt><trkpt lat="52.53907" lon="13.578463"><time>2024-03-31T13:27:33.000Z</time></trkpt><trkpt lat="52.53908" lon="13.578521"><time>2024-03-31T13:27:37.000Z</time></trkpt><trkpt lat="52.539089" lon="13.578581"><time>2024-03-31T13:27:41.000Z</time></trkpt><trkpt lat="52.539093" lon="13.578642"><time>2024-03-31T13:27:45.000Z</time></trkpt><trkpt lat="52.539094" lon="13.578703"><time>2024-03-31T13:27:49.000Z</time></trkpt><trkpt lat="52.539098" lon="13.578767"><time>2024-03-31T13:27:53.000Z</time></trkpt><trkpt lat="52.539109" lon="13.578837"><time>2024-03-31T13:27:57.000Z</time></trkpt><trkpt lat="52.539122" lon="13.578901"><time>2024-03-31T13:28:01.000Z</time></trkpt><trkpt lat="52.53914" lon="13.578958"><time>2024-03-31T13:28:03.000Z</time></trkpt><trkpt lat="52.539146" lon="13.579011"><time>2024-03-31T13:28:07.000Z</time></trkpt><trkpt lat="52.539147" lon="13.579073"><time>2024-03-31T13:28:11.000Z</time></trkpt><trkpt lat="52.539142" lon="13.579139"><time>2024-03-31T13:28:15.000Z</time></trkpt><trkpt lat="52.539146" lon="13.579204"><time>2024-03-31T13:28:21.000Z</time></trkpt><trkpt lat="52.539167" lon="13.57925"><time>2024-03-31T13:28:25.000Z</time></trkpt><trkpt lat="52.539205" lon="13.579275"><time>2024-03-31T13:28:29.000Z</time></trkpt><trkpt lat="52.539231" lon="13.579299"><time>2024-03-31T13:28:35.000Z</time></trkpt><trkpt lat="52.539243" lon="13.579337"><time>2024-03-31T13:28:41.000Z</time></trkpt><trkpt lat="52.539254" lon="13.579363"><time>2024-03-31T13:28:53.000Z</time></trkpt><trkpt lat="52.539278" lon="13.579382"><time>2024-03-31T13:29:07.000Z</time></trkpt><trkpt lat="52.539307" lon="13.57937"><time>2024-03-31T13:29:11.000Z</time></trkpt><trkpt lat="52.539315" lon="13.579358"><time>2024-03-31T13:29:19.000Z</time></trkpt><trkpt lat="52.539292" lon="13.579362"><time>2024-03-31T13:29:23.000Z</time></trkpt><trkpt lat="52.539256" lon="13.579392"><time>2024-03-31T13:29:39.000Z</time></trkpt><trkpt lat="52.53923" lon="13.579448"><time>2024-03-31T13:29:41.000Z</time></trkpt><trkpt lat="52.53923" lon="13.579507"><time>2024-03-31T13:29:43.000Z</time></trkpt><trkpt lat="52.539235" lon="13.579568"><time>2024-03-31T13:29:47.000Z</time></trkpt><trkpt lat="52.539249" lon="13.579617"><time>2024-03-31T13:29:49.000Z</time></trkpt><trkpt lat="52.539273" lon="13.579631"><time>2024-03-31T13:29:59.000Z</time></trkpt><trkpt lat="52.539306" lon="13.579618"><time>2024-03-31T13:30:03.000Z</time></trkpt><trkpt lat="52.539336" lon="13.579584"><time>2024-03-31T13:30:07.000Z</time></trkpt><trkpt lat="52.539363" lon="13.579547"><time>2024-03-31T13:30:11.000Z</time></trkpt><trkpt lat="52.539387" lon="13.579544"><time>2024-03-31T13:30:17.000Z</time></trkpt><trkpt lat="52.539396" lon="13.579572"><time>2024-03-31T13:30:37.000Z</time></trkpt><trkpt lat="52.539394" lon="13.579629"><time>2024-03-31T13:30:41.000Z</time></trkpt><trkpt lat="52.539381" lon="13.579677"><time>2024-03-31T13:30:43.000Z</time></trkpt><trkpt lat="52.539373" lon="13.579733"><time>2024-03-31T13:30:45.000Z</time></trkpt><trkpt lat="52.539366" lon="13.579789"><time>2024-03-31T13:30:49.000Z</time></trkpt><trkpt lat="52.539417" lon="13.579885"><time>2024-03-31T13:31:27.000Z</time></trkpt><trkpt lat="52.539412" lon="13.579932"><time>2024-03-31T13:31:31.000Z</time></trkpt><trkpt lat="52.539414" lon="13.579988"><time>2024-03-31T13:31:35.000Z</time></trkpt><trkpt lat="52.539422" lon="13.580049"><time>2024-03-31T13:31:39.000Z</time></trkpt><trkpt lat="52.539439" lon="13.580104"><time>2024-03-31T13:31:43.000Z</time></trkpt><trkpt lat="52.539459" lon="13.580143"><time>2024-03-31T13:31:47.000Z</time></trkpt><trkpt lat="52.539468" lon="13.580168"><time>2024-03-31T13:31:51.000Z</time></trkpt><trkpt lat="52.539466" lon="13.5802"><time>2024-03-31T13:32:01.000Z</time></trkpt><trkpt lat="52.539455" lon="13.580244"><time>2024-03-31T13:32:07.000Z</time></trkpt><trkpt lat="52.539445" lon="13.580283"><time>2024-03-31T13:32:13.000Z</time></trkpt><trkpt lat="52.539424" lon="13.580289"><time>2024-03-31T13:32:19.000Z</time></trkpt><trkpt lat="52.539398" lon="13.580288"><time>2024-03-31T13:32:23.000Z</time></trkpt><trkpt lat="52.539367" lon="13.580281"><time>2024-03-31T13:32:33.000Z</time></trkpt><trkpt lat="52.539335" lon="13.580287"><time>2024-03-31T13:32:39.000Z</time></trkpt><trkpt lat="52.539299" lon="13.580284"><time>2024-03-31T13:32:51.000Z</time></trkpt><trkpt lat="52.539268" lon="13.580296"><time>2024-03-31T13:33:11.000Z</time></trkpt><trkpt lat="52.539235" lon="13.580315"><time>2024-03-31T13:33:17.000Z</time></trkpt><trkpt lat="52.539201" lon="13.580335"><time>2024-03-31T13:33:23.000Z</time></trkpt><trkpt lat="52.539162" lon="13.580339"><time>2024-03-31T13:33:27.000Z</time></trkpt><trkpt lat="52.53912" lon="13.580332"><time>2024-03-31T13:33:31.000Z</time></trkpt><trkpt lat="52.539081" lon="13.580297"><time>2024-03-31T13:33:35.000Z</time></trkpt><trkpt lat="52.539048" lon="13.58024"><time>2024-03-31T13:33:39.000Z</time></trkpt><trkpt lat="52.539023" lon="13.580177"><time>2024-03-31T13:33:41.000Z</time></trkpt><trkpt lat="52.538996" lon="13.580131"><time>2024-03-31T13:33:43.000Z</time></trkpt><trkpt lat="52.538962" lon="13.580112"><time>2024-03-31T13:33:45.000Z</time></trkpt><trkpt lat="52.538929" lon="13.580093"><time>2024-03-31T13:33:49.000Z</time></trkpt><trkpt lat="52.538923" lon="13.580071"><time>2024-03-31T13:34:05.000Z</time></trkpt><trkpt lat="52.538941" lon="13.580044"><time>2024-03-31T13:34:15.000Z</time></trkpt><trkpt lat="52.538979" lon="13.580011"><time>2024-03-31T13:34:17.000Z</time></trkpt><trkpt lat="52.538997" lon="13.58001"><time>2024-03-31T13:34:37.000Z</time></trkpt><trkpt lat="52.538992" lon="13.580024"><time>2024-03-31T13:34:41.000Z</time></trkpt><trkpt lat="52.538986" lon="13.580066"><time>2024-03-31T13:34:47.000Z</time></trkpt><trkpt lat="52.538998" lon="13.580094"><time>2024-03-31T13:34:57.000Z</time></trkpt><trkpt lat="52.539028" lon="13.580103"><time>2024-03-31T13:35:01.000Z</time></trkpt><trkpt lat="52.539057" lon="13.58009"><time>2024-03-31T13:35:05.000Z</time></trkpt><trkpt lat="52.539086" lon="13.58005"><time>2024-03-31T13:35:09.000Z</time></trkpt><trkpt lat="52.539113" lon="13.580007"><time>2024-03-31T13:35:17.000Z</time></trkpt><trkpt lat="52.53914" lon="13.579959"><time>2024-03-31T13:35:19.000Z</time></trkpt><trkpt lat="52.539161" lon="13.579918"><time>2024-03-31T13:35:25.000Z</time></trkpt><trkpt lat="52.539185" lon="13.579883"><time>2024-03-31T13:35:27.000Z</time></trkpt><trkpt lat="52.539208" lon="13.579854"><time>2024-03-31T13:35:39.000Z</time></trkpt><trkpt lat="52.539236" lon="13.579829"><time>2024-03-31T13:35:43.000Z</time></trkpt><trkpt lat="52.53927" lon="13.579799"><time>2024-03-31T13:35:47.000Z</time></trkpt><trkpt lat="52.539335" lon="13.579645"><time>2024-03-31T13:36:15.000Z</time></trkpt><trkpt lat="52.539326" lon="13.579584"><time>2024-03-31T13:36:23.000Z</time></trkpt><trkpt lat="52.539302" lon="13.579538"><time>2024-03-31T13:36:27.000Z</time></trkpt><trkpt lat="52.539268" lon="13.579522"><time>2024-03-31T13:36:31.000Z</time></trkpt><trkpt lat="52.539233" lon="13.579542"><time>2024-03-31T13:36:35.000Z</time></trkpt><trkpt lat="52.539207" lon="13.579583"><time>2024-03-31T13:36:39.000Z</time></trkpt><trkpt lat="52.539183" lon="13.57963"><time>2024-03-31T13:36:41.000Z</time></trkpt><trkpt lat="52.53918" lon="13.579615"><time>2024-03-31T13:37:25.000Z</time></trkpt><trkpt lat="52.539162" lon="13.579713"><time>2024-03-31T13:39:21.000Z</time></trkpt><trkpt lat="52.539245" lon="13.57954"><time>2024-03-31T13:40:25.000Z</time></trkpt><trkpt lat="52.539274" lon="13.579497"><time>2024-03-31T13:40:29.000Z</time></trkpt><trkpt lat="52.539306" lon="13.579458"><time>2024-03-31T13:40:33.000Z</time></trkpt><trkpt lat="52.53933" lon="13.579448"><time>2024-03-31T13:40:39.000Z</time></trkpt><trkpt lat="52.539341" lon="13.579474"><time>2024-03-31T13:40:53.000Z</time></trkpt><trkpt lat="52.53934" lon="13.579492"><time>2024-03-31T13:41:01.000Z</time></trkpt><trkpt lat="52.539262" lon="13.57953"><time>2024-03-31T13:42:49.000Z</time></trkpt><trkpt lat="52.53922" lon="13.579465"><time>2024-03-31T13:44:23.000Z</time></trkpt><trkpt lat="52.539197" lon="13.579419"><time>2024-03-31T13:44:27.000Z</time></trkpt><trkpt lat="52.539171" lon="13.579406"><time>2024-03-31T13:44:31.000Z</time></trkpt><trkpt lat="52.539149" lon="13.579434"><time>2024-03-31T13:44:41.000Z</time></trkpt><trkpt lat="52.539132" lon="13.579509"><time>2024-03-31T13:44:45.000Z</time></trkpt><trkpt lat="52.539108" lon="13.579596"><time>2024-03-31T13:45:05.000Z</time></trkpt><trkpt lat="52.539076" lon="13.579675"><time>2024-03-31T13:45:09.000Z</time></trkpt><trkpt lat="52.539037" lon="13.579732"><time>2024-03-31T13:45:11.000Z</time></trkpt><trkpt lat="52.539008" lon="13.579764"><time>2024-03-31T13:45:13.000Z</time></trkpt><trkpt lat="52.538981" lon="13.579789"><time>2024-03-31T13:45:15.000Z</time></trkpt><trkpt lat="52.538952" lon="13.579821"><time>2024-03-31T13:45:17.000Z</time></trkpt><trkpt lat="52.538916" lon="13.579854"><time>2024-03-31T13:45:21.000Z</time></trkpt><trkpt lat="52.538877" lon="13.579874"><time>2024-03-31T13:45:25.000Z</time></trkpt><trkpt lat="52.538836" lon="13.579876"><time>2024-03-31T13:45:29.000Z</time></trkpt><trkpt lat="52.538797" lon="13.579866"><time>2024-03-31T13:45:33.000Z</time></trkpt><trkpt lat="52.538758" lon="13.579861"><time>2024-03-31T13:45:37.000Z</time></trkpt><trkpt lat="52.538724" lon="13.579861"><time>2024-03-31T13:45:41.000Z</time></trkpt><trkpt lat="52.538694" lon="13.579876"><time>2024-03-31T13:45:47.000Z</time></trkpt><trkpt lat="52.538664" lon="13.579906"><time>2024-03-31T13:45:51.000Z</time></trkpt><trkpt lat="52.538638" lon="13.579936"><time>2024-03-31T13:45:55.000Z</time></trkpt><trkpt lat="52.538617" lon="13.579935"><time>2024-03-31T13:45:59.000Z</time></trkpt><trkpt lat="52.538603" lon="13.5799"><time>2024-03-31T13:46:07.000Z</time></trkpt><trkpt lat="52.538584" lon="13.579851"><time>2024-03-31T13:46:13.000Z</time></trkpt><trkpt lat="52.538559" lon="13.579821"><time>2024-03-31T13:46:17.000Z</time></trkpt><trkpt lat="52.53852" lon="13.5798"><time>2024-03-31T13:46:19.000Z</time></trkpt><trkpt lat="52.538477" lon="13.579778"><time>2024-03-31T13:46:23.000Z</time></trkpt><trkpt lat="52.538434" lon="13.579756"><time>2024-03-31T13:46:27.000Z</time></trkpt><trkpt lat="52.538399" lon="13.579738"><time>2024-03-31T13:46:29.000Z</time></trkpt><trkpt lat="52.538369" lon="13.579721"><time>2024-03-31T13:46:31.000Z</time></trkpt><trkpt lat="52.538335" lon="13.579698"><time>2024-03-31T13:46:35.000Z</time></trkpt><trkpt lat="52.5383" lon="13.579682"><time>2024-03-31T13:46:39.000Z</time></trkpt><trkpt lat="52.538268" lon="13.579679"><time>2024-03-31T13:46:41.000Z</time></trkpt><trkpt lat="52.53825" lon="13.579706"><time>2024-03-31T13:46:43.000Z</time></trkpt><trkpt lat="52.538236" lon="13.579749"><time>2024-03-31T13:46:47.000Z</time></trkpt><trkpt lat="52.538227" lon="13.579802"><time>2024-03-31T13:46:51.000Z</time></trkpt><trkpt lat="52.538217" lon="13.579853"><time>2024-03-31T13:46:59.000Z</time></trkpt><trkpt lat="52.53821" lon="13.57991"><time>2024-03-31T13:47:03.000Z</time></trkpt><trkpt lat="52.53821" lon="13.579971"><time>2024-03-31T13:47:07.000Z</time></trkpt><trkpt lat="52.538211" lon="13.580028"><time>2024-03-31T13:47:11.000Z</time></trkpt><trkpt lat="52.5382" lon="13.580055"><time>2024-03-31T13:47:15.000Z</time></trkpt><trkpt lat="52.53819" lon="13.580083"><time>2024-03-31T13:47:27.000Z</time></trkpt><trkpt lat="52.538173" lon="13.580086"><time>2024-03-31T13:47:41.000Z</time></trkpt><trkpt lat="52.53816" lon="13.580126"><time>2024-03-31T13:47:57.000Z</time></trkpt><trkpt lat="52.538142" lon="13.580162"><time>2024-03-31T13:48:01.000Z</time></trkpt><trkpt lat="52.538144" lon="13.580208"><time>2024-03-31T13:48:03.000Z</time></trkpt><trkpt lat="52.538161" lon="13.580202"><time>2024-03-31T13:48:11.000Z</time></trkpt><trkpt lat="52.538179" lon="13.58016"><time>2024-03-31T13:48:15.000Z</time></trkpt><trkpt lat="52.538191" lon="13.580107"><time>2024-03-31T13:48:19.000Z</time></trkpt><trkpt lat="52.538201" lon="13.580061"><time>2024-03-31T13:48:21.000Z</time></trkpt><trkpt lat="52.538215" lon="13.580022"><time>2024-03-31T13:48:23.000Z</time></trkpt><trkpt lat="52.538227" lon="13.579974"><time>2024-03-31T13:48:25.000Z</time></trkpt><trkpt lat="52.538235" lon="13.579924"><time>2024-03-31T13:48:27.000Z</time></trkpt><trkpt lat="52.538241" lon="13.57986"><time>2024-03-31T13:48:29.000Z</time></trkpt><trkpt lat="52.538247" lon="13.579798"><time>2024-03-31T13:48:33.000Z</time></trkpt><trkpt lat="52.538259" lon="13.579733"><time>2024-03-31T13:48:37.000Z</time></trkpt><trkpt lat="52.538247" lon="13.579685"><time>2024-03-31T13:48:41.000Z</time></trkpt><trkpt lat="52.538205" lon="13.579638"><time>2024-03-31T13:48:49.000Z</time></trkpt><trkpt lat="52.538149" lon="13.579606"><time>2024-03-31T13:48:53.000Z</time></trkpt><trkpt lat="52.538095" lon="13.579572"><time>2024-03-31T13:48:59.000Z</time></trkpt><trkpt lat="52.53805" lon="13.57956"><time>2024-03-31T13:49:03.000Z</time></trkpt><trkpt lat="52.538004" lon="13.579546"><time>2024-03-31T13:49:07.000Z</time></trkpt><trkpt lat="52.537961" lon="13.579542"><time>2024-03-31T13:49:11.000Z</time></trkpt><trkpt lat="52.537925" lon="13.579517"><time>2024-03-31T13:49:15.000Z</time></trkpt><trkpt lat="52.537902" lon="13.579477"><time>2024-03-31T13:49:21.000Z</time></trkpt><trkpt lat="52.5379" lon="13.579414"><time>2024-03-31T13:49:23.000Z</time></trkpt><trkpt lat="52.537913" lon="13.579349"><time>2024-03-31T13:49:25.000Z</time></trkpt><trkpt lat="52.537928" lon="13.579283"><time>2024-03-31T13:49:29.000Z</time></trkpt><trkpt lat="52.537938" lon="13.579222"><time>2024-03-31T13:49:33.000Z</time></trkpt><trkpt lat="52.537944" lon="13.579157"><time>2024-03-31T13:49:37.000Z</time></trkpt><trkpt lat="52.537935" lon="13.579098"><time>2024-03-31T13:49:41.000Z</time></trkpt><trkpt lat="52.537917" lon="13.579047"><time>2024-03-31T13:49:45.000Z</time></trkpt><trkpt lat="52.537905" lon="13.579029"><time>2024-03-31T13:49:49.000Z</time></trkpt><trkpt lat="52.537915" lon="13.579017"><time>2024-03-31T13:49:57.000Z</time></trkpt><trkpt lat="52.537937" lon="13.579001"><time>2024-03-31T13:50:01.000Z</time></trkpt><trkpt lat="52.537955" lon="13.57896"><time>2024-03-31T13:50:05.000Z</time></trkpt><trkpt lat="52.537973" lon="13.57892"><time>2024-03-31T13:50:09.000Z</time></trkpt><trkpt lat="52.537993" lon="13.578881"><time>2024-03-31T13:50:11.000Z</time></trkpt><trkpt lat="52.538008" lon="13.578843"><time>2024-03-31T13:50:15.000Z</time></trkpt><trkpt lat="52.538018" lon="13.578794"><time>2024-03-31T13:50:25.000Z</time></trkpt><trkpt lat="52.538027" lon="13.578743"><time>2024-03-31T13:50:31.000Z</time></trkpt><trkpt lat="52.538031" lon="13.578684"><time>2024-03-31T13:50:35.000Z</time></trkpt><trkpt lat="52.538019" lon="13.578636"><time>2024-03-31T13:50:39.000Z</time></trkpt><trkpt lat="52.537997" lon="13.578599"><time>2024-03-31T13:50:41.000Z</time></trkpt><trkpt lat="52.537974" lon="13.578564"><time>2024-03-31T13:50:43.000Z</time></trkpt><trkpt lat="52.537964" lon="13.578517"><time>2024-03-31T13:50:47.000Z</time></trkpt><trkpt lat="52.537968" lon="13.578494"><time>2024-03-31T13:50:51.000Z</time></trkpt><trkpt lat="52.537988" lon="13.578496"><time>2024-03-31T13:51:05.000Z</time></trkpt><trkpt lat="52.538013" lon="13.578516"><time>2024-03-31T13:51:13.000Z</time></trkpt><trkpt lat="52.538036" lon="13.578506"><time>2024-03-31T13:51:15.000Z</time></trkpt><trkpt lat="52.538082" lon="13.578607"><time>2024-03-31T13:52:17.000Z</time></trkpt><trkpt lat="52.538005" lon="13.578467"><time>2024-03-31T13:53:59.000Z</time></trkpt><trkpt lat="52.538" lon="13.57847"><time>2024-03-31T14:01:33.000Z</time></trkpt><trkpt lat="52.538042" lon="13.57843"><time>2024-03-31T14:04:39.000Z</time></trkpt><trkpt lat="52.53807" lon="13.57845"><time>2024-03-31T14:08:19.000Z</time></trkpt><trkpt lat="52.538003" lon="13.578438"><time>2024-03-31T14:12:50.000Z</time></trkpt><trkpt lat="52.537969" lon="13.578438"><time>2024-03-31T14:12:52.000Z</time></trkpt><trkpt lat="52.537932" lon="13.578446"><time>2024-03-31T14:12:56.000Z</time></trkpt><trkpt lat="52.537892" lon="13.578454"><time>2024-03-31T14:13:00.000Z</time></trkpt><trkpt lat="52.537854" lon="13.578457"><time>2024-03-31T14:13:04.000Z</time></trkpt><trkpt lat="52.537817" lon="13.578453"><time>2024-03-31T14:13:08.000Z</time></trkpt><trkpt lat="52.53778" lon="13.57845"><time>2024-03-31T14:13:12.000Z</time></trkpt><trkpt lat="52.537759" lon="13.578467"><time>2024-03-31T14:13:16.000Z</time></trkpt><trkpt lat="52.537739" lon="13.57849"><time>2024-03-31T14:13:20.000Z</time></trkpt><trkpt lat="52.537722" lon="13.578515"><time>2024-03-31T14:13:28.000Z</time></trkpt><trkpt lat="52.537687" lon="13.578517"><time>2024-03-31T14:13:30.000Z</time></trkpt><trkpt lat="52.537656" lon="13.578506"><time>2024-03-31T14:13:34.000Z</time></trkpt><trkpt lat="52.537619" lon="13.578476"><time>2024-03-31T14:13:38.000Z</time></trkpt><trkpt lat="52.537586" lon="13.578437"><time>2024-03-31T14:13:42.000Z</time></trkpt><trkpt lat="52.537557" lon="13.578392"><time>2024-03-31T14:13:44.000Z</time></trkpt><trkpt lat="52.53753" lon="13.578341"><time>2024-03-31T14:13:46.000Z</time></trkpt><trkpt lat="52.537501" lon="13.578297"><time>2024-03-31T14:13:50.000Z</time></trkpt><trkpt lat="52.537483" lon="13.578249"><time>2024-03-31T14:13:54.000Z</time></trkpt><trkpt lat="52.537476" lon="13.578207"><time>2024-03-31T14:14:00.000Z</time></trkpt><trkpt lat="52.537468" lon="13.578192"><time>2024-03-31T14:14:06.000Z</time></trkpt><trkpt lat="52.537446" lon="13.578208"><time>2024-03-31T14:14:16.000Z</time></trkpt><trkpt lat="52.537419" lon="13.578231"><time>2024-03-31T14:14:20.000Z</time></trkpt><trkpt lat="52.537397" lon="13.578215"><time>2024-03-31T14:14:24.000Z</time></trkpt><trkpt lat="52.537378" lon="13.578162"><time>2024-03-31T14:14:28.000Z</time></trkpt><trkpt lat="52.537359" lon="13.5781"><time>2024-03-31T14:14:32.000Z</time></trkpt><trkpt lat="52.53734" lon="13.57803"><time>2024-03-31T14:14:36.000Z</time></trkpt><trkpt lat="52.537322" lon="13.577969"><time>2024-03-31T14:14:40.000Z</time></trkpt><trkpt lat="52.537306" lon="13.577918"><time>2024-03-31T14:14:42.000Z</time></trkpt><trkpt lat="52.537289" lon="13.577869"><time>2024-03-31T14:14:44.000Z</time></trkpt><trkpt lat="52.537276" lon="13.577818"><time>2024-03-31T14:14:48.000Z</time></trkpt><trkpt lat="52.537262" lon="13.577766"><time>2024-03-31T14:14:50.000Z</time></trkpt><trkpt lat="52.537238" lon="13.577753"><time>2024-03-31T14:14:56.000Z</time></trkpt><trkpt lat="52.537204" lon="13.577772"><time>2024-03-31T14:15:00.000Z</time></trkpt><trkpt lat="52.537167" lon="13.577815"><time>2024-03-31T14:15:02.000Z</time></trkpt><trkpt lat="52.537139" lon="13.577859"><time>2024-03-31T14:15:04.000Z</time></trkpt><trkpt lat="52.537116" lon="13.5779"><time>2024-03-31T14:15:06.000Z</time></trkpt><trkpt lat="52.537097" lon="13.577938"><time>2024-03-31T14:15:08.000Z</time></trkpt><trkpt lat="52.537079" lon="13.577977"><time>2024-03-31T14:15:10.000Z</time></trkpt><trkpt lat="52.537064" lon="13.577982"><time>2024-03-31T14:15:16.000Z</time></trkpt><trkpt lat="52.537053" lon="13.577963"><time>2024-03-31T14:15:30.000Z</time></trkpt><trkpt lat="52.537041" lon="13.57791"><time>2024-03-31T14:15:32.000Z</time></trkpt><trkpt lat="52.537025" lon="13.577864"><time>2024-03-31T14:15:34.000Z</time></trkpt><trkpt lat="52.53701" lon="13.57782"><time>2024-03-31T14:15:36.000Z</time></trkpt><trkpt lat="52.536996" lon="13.577765"><time>2024-03-31T14:15:38.000Z</time></trkpt><trkpt lat="52.536988" lon="13.5777"><time>2024-03-31T14:15:42.000Z</time></trkpt><trkpt lat="52.536984" lon="13.577627"><time>2024-03-31T14:15:44.000Z</time></trkpt><trkpt lat="52.536984" lon="13.577569"><time>2024-03-31T14:15:46.000Z</time></trkpt><trkpt lat="52.536975" lon="13.577521"><time>2024-03-31T14:15:48.000Z</time></trkpt><trkpt lat="52.536952" lon="13.577486"><time>2024-03-31T14:15:52.000Z</time></trkpt><trkpt lat="52.536918" lon="13.577463"><time>2024-03-31T14:15:56.000Z</time></trkpt><trkpt lat="52.53688" lon="13.577449"><time>2024-03-31T14:15:58.000Z</time></trkpt><trkpt lat="52.536868" lon="13.577465"><time>2024-03-31T14:16:02.000Z</time></trkpt><trkpt lat="52.536798" lon="13.577607"><time>2024-03-31T14:17:06.000Z</time></trkpt><trkpt lat="52.536913" lon="13.577467"><time>2024-03-31T14:19:03.000Z</time></trkpt><trkpt lat="52.5369" lon="13.577519"><time>2024-03-31T14:19:19.000Z</time></trkpt><trkpt lat="52.536892" lon="13.577511"><time>2024-03-31T14:19:29.000Z</time></trkpt><trkpt lat="52.53689" lon="13.577441"><time>2024-03-31T14:19:31.000Z</time></trkpt><trkpt lat="52.53688" lon="13.577381"><time>2024-03-31T14:19:33.000Z</time></trkpt><trkpt lat="52.53687" lon="13.577309"><time>2024-03-31T14:19:37.000Z</time></trkpt><trkpt lat="52.536856" lon="13.57723"><time>2024-03-31T14:19:41.000Z</time></trkpt><trkpt lat="52.536835" lon="13.577168"><time>2024-03-31T14:19:45.000Z</time></trkpt><trkpt lat="52.536814" lon="13.577113"><time>2024-03-31T14:19:49.000Z</time></trkpt><trkpt lat="52.536799" lon="13.577058"><time>2024-03-31T14:19:53.000Z</time></trkpt><trkpt lat="52.536804" lon="13.577031"><time>2024-03-31T14:19:57.000Z</time></trkpt><trkpt lat="52.536811" lon="13.577005"><time>2024-03-31T14:20:11.000Z</time></trkpt><trkpt lat="52.536811" lon="13.576989"><time>2024-03-31T14:20:19.000Z</time></trkpt><trkpt lat="52.53681" lon="13.57694"><time>2024-03-31T14:20:21.000Z</time></trkpt><trkpt lat="52.536787" lon="13.576862"><time>2024-03-31T14:21:07.000Z</time></trkpt><trkpt lat="52.536774" lon="13.576855"><time>2024-03-31T14:21:09.000Z</time></trkpt><trkpt lat="52.536759" lon="13.576877"><time>2024-03-31T14:21:11.000Z</time></trkpt><trkpt lat="52.536752" lon="13.576928"><time>2024-03-31T14:21:13.000Z</time></trkpt><trkpt lat="52.536745" lon="13.576976"><time>2024-03-31T14:21:15.000Z</time></trkpt><trkpt lat="52.536735" lon="13.577036"><time>2024-03-31T14:21:19.000Z</time></trkpt><trkpt lat="52.536714" lon="13.577076"><time>2024-03-31T14:21:23.000Z</time></trkpt><trkpt lat="52.5367" lon="13.577092"><time>2024-03-31T14:21:25.000Z</time></trkpt><trkpt lat="52.536706" lon="13.577086"><time>2024-03-31T14:21:33.000Z</time></trkpt><trkpt lat="52.536716" lon="13.577101"><time>2024-03-31T14:21:37.000Z</time></trkpt><trkpt lat="52.536709" lon="13.577122"><time>2024-03-31T14:21:45.000Z</time></trkpt><trkpt lat="52.536677" lon="13.577127"><time>2024-03-31T14:21:47.000Z</time></trkpt><trkpt lat="52.536636" lon="13.577102"><time>2024-03-31T14:21:51.000Z</time></trkpt><trkpt lat="52.536604" lon="13.577063"><time>2024-03-31T14:21:55.000Z</time></trkpt><trkpt lat="52.536592" lon="13.577013"><time>2024-03-31T14:21:59.000Z</time></trkpt><trkpt lat="52.536612" lon="13.576943"><time>2024-03-31T14:22:03.000Z</time></trkpt><trkpt lat="52.536641" lon="13.576871"><time>2024-03-31T14:22:07.000Z</time></trkpt><trkpt lat="52.53667" lon="13.576806"><time>2024-03-31T14:22:09.000Z</time></trkpt><trkpt lat="52.53669" lon="13.576758"><time>2024-03-31T14:22:15.000Z</time></trkpt><trkpt lat="52.536712" lon="13.576706"><time>2024-03-31T14:22:17.000Z</time></trkpt><trkpt lat="52.536731" lon="13.576648"><time>2024-03-31T14:22:21.000Z</time></trkpt><trkpt lat="52.536749" lon="13.576593"><time>2024-03-31T14:22:23.000Z</time></trkpt><trkpt lat="52.536746" lon="13.57655"><time>2024-03-31T14:22:25.000Z</time></trkpt><trkpt lat="52.536737" lon="13.57651"><time>2024-03-31T14:22:37.000Z</time></trkpt><trkpt lat="52.536714" lon="13.576485"><time>2024-03-31T14:22:49.000Z</time></trkpt><trkpt lat="52.536695" lon="13.576485"><time>2024-03-31T14:22:55.000Z</time></trkpt><trkpt lat="52.536685" lon="13.576482"><time>2024-03-31T14:22:59.000Z</time></trkpt><trkpt lat="52.536674" lon="13.576471"><time>2024-03-31T14:23:05.000Z</time></trkpt><trkpt lat="52.53666" lon="13.576397"><time>2024-03-31T14:24:05.000Z</time></trkpt><trkpt lat="52.536608" lon="13.576123"><time>2024-03-31T14:25:39.000Z</time></trkpt><trkpt lat="52.53657" lon="13.576205"><time>2024-03-31T14:26:19.000Z</time></trkpt><trkpt lat="52.53654" lon="13.576182"><time>2024-03-31T14:26:49.000Z</time></trkpt><trkpt lat="52.536541" lon="13.576222"><time>2024-03-31T14:26:51.000Z</time></trkpt><trkpt lat="52.536552" lon="13.576218"><time>2024-03-31T14:26:53.000Z</time></trkpt><trkpt lat="52.536572" lon="13.57618"><time>2024-03-31T14:26:55.000Z</time></trkpt><trkpt lat="52.5366" lon="13.576137"><time>2024-03-31T14:26:57.000Z</time></trkpt><trkpt lat="52.536616" lon="13.576093"><time>2024-03-31T14:26:59.000Z</time></trkpt><trkpt lat="52.5369" lon="13.57652"><time>2024-03-31T14:29:31.806Z</time></trkpt><trkpt lat="52.536853" lon="13.576585"><time>2024-03-31T14:29:34.000Z</time></trkpt><trkpt lat="52.536808" lon="13.576654"><time>2024-03-31T14:29:36.000Z</time></trkpt><trkpt lat="52.536764" lon="13.57672"><time>2024-03-31T14:29:38.000Z</time></trkpt><trkpt lat="52.536743" lon="13.576713"><time>2024-03-31T14:29:40.000Z</time></trkpt><trkpt lat="52.536722" lon="13.576675"><time>2024-03-31T14:29:44.000Z</time></trkpt><trkpt lat="52.536707" lon="13.576612"><time>2024-03-31T14:29:46.000Z</time></trkpt><trkpt lat="52.536703" lon="13.576572"><time>2024-03-31T14:29:48.000Z</time></trkpt><trkpt lat="52.536697" lon="13.576542"><time>2024-03-31T14:29:52.000Z</time></trkpt><trkpt lat="52.536677" lon="13.57653"><time>2024-03-31T14:30:02.000Z</time></trkpt><trkpt lat="52.536642" lon="13.576515"><time>2024-03-31T14:30:06.000Z</time></trkpt><trkpt lat="52.536625" lon="13.576488"><time>2024-03-31T14:30:20.000Z</time></trkpt><trkpt lat="52.536633" lon="13.576446"><time>2024-03-31T14:30:26.000Z</time></trkpt><trkpt lat="52.536638" lon="13.576417"><time>2024-03-31T14:30:28.000Z</time></trkpt><trkpt lat="52.53663" lon="13.576423"><time>2024-03-31T14:30:38.000Z</time></trkpt><trkpt lat="52.536609" lon="13.576458"><time>2024-03-31T14:30:42.000Z</time></trkpt><trkpt lat="52.536593" lon="13.576502"><time>2024-03-31T14:30:50.000Z</time></trkpt><trkpt lat="52.536587" lon="13.576513"><time>2024-03-31T14:30:54.000Z</time></trkpt><trkpt lat="52.536581" lon="13.576493"><time>2024-03-31T14:31:08.000Z</time></trkpt><trkpt lat="52.536565" lon="13.576458"><time>2024-03-31T14:31:16.000Z</time></trkpt><trkpt lat="52.536533" lon="13.576439"><time>2024-03-31T14:31:30.000Z</time></trkpt><trkpt lat="52.536497" lon="13.576434"><time>2024-03-31T14:31:32.000Z</time></trkpt><trkpt lat="52.536467" lon="13.576441"><time>2024-03-31T14:31:36.000Z</time></trkpt><trkpt lat="52.536438" lon="13.576451"><time>2024-03-31T14:31:46.000Z</time></trkpt><trkpt lat="52.536404" lon="13.576468"><time>2024-03-31T14:31:52.000Z</time></trkpt><trkpt lat="52.536362" lon="13.576472"><time>2024-03-31T14:31:56.000Z</time></trkpt><trkpt lat="52.536312" lon="13.576462"><time>2024-03-31T14:32:04.000Z</time></trkpt><trkpt lat="52.536264" lon="13.576432"><time>2024-03-31T14:32:22.000Z</time></trkpt><trkpt lat="52.536223" lon="13.576399"><time>2024-03-31T14:32:26.000Z</time></trkpt><trkpt lat="52.536217" lon="13.576312"><time>2024-03-31T14:32:50.000Z</time></trkpt><trkpt lat="52.536208" lon="13.576225"><time>2024-03-31T14:33:22.000Z</time></trkpt><trkpt lat="52.536205" lon="13.576403"><time>2024-03-31T14:34:18.000Z</time></trkpt><trkpt lat="52.536194" lon="13.576478"><time>2024-03-31T14:34:22.000Z</time></trkpt><trkpt lat="52.536185" lon="13.576542"><time>2024-03-31T14:34:26.000Z</time></trkpt><trkpt lat="52.536178" lon="13.576604"><time>2024-03-31T14:34:28.000Z</time></trkpt><trkpt lat="52.536178" lon="13.576657"><time>2024-03-31T14:34:32.000Z</time></trkpt><trkpt lat="52.53619" lon="13.576716"><time>2024-03-31T14:34:36.000Z</time></trkpt><trkpt lat="52.536219" lon="13.576767"><time>2024-03-31T14:34:40.000Z</time></trkpt><trkpt lat="52.53623" lon="13.576805"><time>2024-03-31T14:34:44.000Z</time></trkpt><trkpt lat="52.536239" lon="13.576832"><time>2024-03-31T14:34:48.000Z</time></trkpt><trkpt lat="52.536237" lon="13.576829"><time>2024-03-31T14:34:52.000Z</time></trkpt><trkpt lat="52.536244" lon="13.576807"><time>2024-03-31T14:34:58.000Z</time></trkpt><trkpt lat="52.536238" lon="13.57676"><time>2024-03-31T14:35:00.000Z</time></trkpt><trkpt lat="52.536217" lon="13.576733"><time>2024-03-31T14:35:02.000Z</time></trkpt><trkpt lat="52.536203" lon="13.576741"><time>2024-03-31T14:35:06.000Z</time></trkpt><trkpt lat="52.536228" lon="13.57677"><time>2024-03-31T14:35:50.000Z</time></trkpt><trkpt lat="52.536276" lon="13.57675"><time>2024-03-31T14:36:02.000Z</time></trkpt><trkpt lat="52.536322" lon="13.576731"><time>2024-03-31T14:36:04.000Z</time></trkpt><trkpt lat="52.536332" lon="13.576703"><time>2024-03-31T14:36:06.000Z</time></trkpt><trkpt lat="52.536297" lon="13.57669"><time>2024-03-31T14:36:10.000Z</time></trkpt><trkpt lat="52.536356" lon="13.576762"><time>2024-03-31T14:36:14.000Z</time></trkpt><trkpt lat="52.536394" lon="13.576835"><time>2024-03-31T14:36:29.000Z</time></trkpt><trkpt lat="52.536398" lon="13.576816"><time>2024-03-31T14:36:31.000Z</time></trkpt><trkpt lat="52.53629" lon="13.576712"><time>2024-03-31T14:36:41.000Z</time></trkpt><trkpt lat="52.536216" lon="13.576608"><time>2024-03-31T14:36:43.000Z</time></trkpt><trkpt lat="52.536201" lon="13.576567"><time>2024-03-31T14:36:49.000Z</time></trkpt><trkpt lat="52.5362" lon="13.576515"><time>2024-03-31T14:36:57.000Z</time></trkpt><trkpt lat="52.536253" lon="13.576542"><time>2024-03-31T14:37:28.000Z</time></trkpt><trkpt lat="52.536251" lon="13.576501"><time>2024-03-31T14:37:32.000Z</time></trkpt><trkpt lat="52.536239" lon="13.576462"><time>2024-03-31T14:37:38.000Z</time></trkpt><trkpt lat="52.536208" lon="13.576363"><time>2024-03-31T14:40:10.000Z</time></trkpt><trkpt lat="52.536212" lon="13.576123"><time>2024-03-31T14:40:44.000Z</time></trkpt><trkpt lat="52.536258" lon="13.576108"><time>2024-03-31T14:41:22.000Z</time></trkpt><trkpt lat="52.536241" lon="13.57616"><time>2024-03-31T14:41:36.000Z</time></trkpt><trkpt lat="52.536228" lon="13.576211"><time>2024-03-31T14:41:38.000Z</time></trkpt><trkpt lat="52.536221" lon="13.576273"><time>2024-03-31T14:41:42.000Z</time></trkpt><trkpt lat="52.536216" lon="13.576334"><time>2024-03-31T14:41:46.000Z</time></trkpt><trkpt lat="52.536217" lon="13.576395"><time>2024-03-31T14:41:48.000Z</time></trkpt><trkpt lat="52.536229" lon="13.576425"><time>2024-03-31T14:41:52.000Z</time></trkpt><trkpt lat="52.536253" lon="13.576431"><time>2024-03-31T14:41:56.000Z</time></trkpt><trkpt lat="52.536283" lon="13.576412"><time>2024-03-31T14:41:58.000Z</time></trkpt><trkpt lat="52.536312" lon="13.576386"><time>2024-03-31T14:42:00.000Z</time></trkpt><trkpt lat="52.536337" lon="13.576381"><time>2024-03-31T14:42:04.000Z</time></trkpt><trkpt lat="52.536358" lon="13.576396"><time>2024-03-31T14:42:08.000Z</time></trkpt><trkpt lat="52.536384" lon="13.576402"><time>2024-03-31T14:42:10.000Z</time></trkpt><trkpt lat="52.536413" lon="13.576382"><time>2024-03-31T14:42:14.000Z</time></trkpt><trkpt lat="52.536428" lon="13.57634"><time>2024-03-31T14:42:18.000Z</time></trkpt><trkpt lat="52.536445" lon="13.576172"><time>2024-03-31T14:42:58.000Z</time></trkpt><trkpt lat="52.536472" lon="13.576187"><time>2024-03-31T14:43:14.000Z</time></trkpt><trkpt lat="52.536497" lon="13.576192"><time>2024-03-31T14:43:24.000Z</time></trkpt><trkpt lat="52.536517" lon="13.576174"><time>2024-03-31T14:43:30.000Z</time></trkpt><trkpt lat="52.536531" lon="13.576121"><time>2024-03-31T14:43:34.000Z</time></trkpt><trkpt lat="52.536542" lon="13.576061"><time>2024-03-31T14:43:36.000Z</time></trkpt><trkpt lat="52.536552" lon="13.576008"><time>2024-03-31T14:43:56.000Z</time></trkpt><trkpt lat="52.536562" lon="13.575954"><time>2024-03-31T14:44:00.000Z</time></trkpt><trkpt lat="52.536556" lon="13.575903"><time>2024-03-31T14:44:08.000Z</time></trkpt><trkpt lat="52.536542" lon="13.575849"><time>2024-03-31T14:44:12.000Z</time></trkpt><trkpt lat="52.536524" lon="13.575795"><time>2024-03-31T14:44:16.000Z</time></trkpt><trkpt lat="52.536513" lon="13.575745"><time>2024-03-31T14:44:18.000Z</time></trkpt><trkpt lat="52.536511" lon="13.575702"><time>2024-03-31T14:44:20.000Z</time></trkpt><trkpt lat="52.536523" lon="13.575667"><time>2024-03-31T14:44:24.000Z</time></trkpt><trkpt lat="52.536542" lon="13.575618"><time>2024-03-31T14:44:34.000Z</time></trkpt><trkpt lat="52.53655" lon="13.575557"><time>2024-03-31T14:44:38.000Z</time></trkpt><trkpt lat="52.536551" lon="13.575484"><time>2024-03-31T14:44:42.000Z</time></trkpt><trkpt lat="52.536551" lon="13.575421"><time>2024-03-31T14:44:50.000Z</time></trkpt><trkpt lat="52.536552" lon="13.575359"><time>2024-03-31T14:44:56.000Z</time></trkpt><trkpt lat="52.536551" lon="13.575298"><time>2024-03-31T14:45:00.000Z</time></trkpt><trkpt lat="52.536557" lon="13.575265"><time>2024-03-31T14:45:04.000Z</time></trkpt><trkpt lat="52.536566" lon="13.575235"><time>2024-03-31T14:45:06.000Z</time></trkpt><trkpt lat="52.536578" lon="13.575209"><time>2024-03-31T14:45:16.000Z</time></trkpt><trkpt lat="52.53658" lon="13.575143"><time>2024-03-31T14:45:18.000Z</time></trkpt><trkpt lat="52.536576" lon="13.575078"><time>2024-03-31T14:45:22.000Z</time></trkpt><trkpt lat="52.536566" lon="13.575015"><time>2024-03-31T14:45:26.000Z</time></trkpt><trkpt lat="52.536546" lon="13.574973"><time>2024-03-31T14:45:30.000Z</time></trkpt><trkpt lat="52.536521" lon="13.57494"><time>2024-03-31T14:45:34.000Z</time></trkpt><trkpt lat="52.536491" lon="13.574911"><time>2024-03-31T14:45:36.000Z</time></trkpt><trkpt lat="52.536457" lon="13.574883"><time>2024-03-31T14:45:38.000Z</time></trkpt><trkpt lat="52.536423" lon="13.574865"><time>2024-03-31T14:45:42.000Z</time></trkpt><trkpt lat="52.536389" lon="13.574855"><time>2024-03-31T14:45:44.000Z</time></trkpt><trkpt lat="52.536355" lon="13.574854"><time>2024-03-31T14:45:46.000Z</time></trkpt><trkpt lat="52.536321" lon="13.57485"><time>2024-03-31T14:45:48.000Z</time></trkpt><trkpt lat="52.536283" lon="13.574844"><time>2024-03-31T14:45:50.000Z</time></trkpt><trkpt lat="52.536248" lon="13.574838"><time>2024-03-31T14:45:54.000Z</time></trkpt><trkpt lat="52.536206" lon="13.574839"><time>2024-03-31T14:45:58.000Z</time></trkpt><trkpt lat="52.536166" lon="13.574848"><time>2024-03-31T14:46:02.000Z</time></trkpt><trkpt lat="52.536127" lon="13.574876"><time>2024-03-31T14:46:06.000Z</time></trkpt><trkpt lat="52.536099" lon="13.574915"><time>2024-03-31T14:46:10.000Z</time></trkpt><trkpt lat="52.536078" lon="13.574963"><time>2024-03-31T14:46:12.000Z</time></trkpt><trkpt lat="52.536055" lon="13.575011"><time>2024-03-31T14:46:14.000Z</time></trkpt><trkpt lat="52.536027" lon="13.575054"><time>2024-03-31T14:46:16.000Z</time></trkpt><trkpt lat="52.535995" lon="13.575084"><time>2024-03-31T14:46:18.000Z</time></trkpt><trkpt lat="52.535988" lon="13.575063"><time>2024-03-31T14:46:48.000Z</time></trkpt><trkpt lat="52.535943" lon="13.575049"><time>2024-03-31T14:47:06.000Z</time></trkpt><trkpt lat="52.535916" lon="13.575037"><time>2024-03-31T14:47:12.000Z</time></trkpt><trkpt lat="52.535907" lon="13.575046"><time>2024-03-31T14:47:22.000Z</time></trkpt><trkpt lat="52.535877" lon="13.575082"><time>2024-03-31T14:47:26.000Z</time></trkpt><trkpt lat="52.535867" lon="13.575116"><time>2024-03-31T14:47:34.000Z</time></trkpt><trkpt lat="52.535858" lon="13.575102"><time>2024-03-31T14:47:38.000Z</time></trkpt><trkpt lat="52.535849" lon="13.575062"><time>2024-03-31T14:47:47.000Z</time></trkpt><trkpt lat="52.535826" lon="13.575003"><time>2024-03-31T14:47:51.000Z</time></trkpt><trkpt lat="52.535803" lon="13.57495"><time>2024-03-31T14:47:55.000Z</time></trkpt><trkpt lat="52.535783" lon="13.574889"><time>2024-03-31T14:47:59.000Z</time></trkpt><trkpt lat="52.535761" lon="13.574823"><time>2024-03-31T14:48:03.000Z</time></trkpt><trkpt lat="52.535742" lon="13.57476"><time>2024-03-31T14:48:07.000Z</time></trkpt><trkpt lat="52.53573" lon="13.574698"><time>2024-03-31T14:48:11.000Z</time></trkpt><trkpt lat="52.535725" lon="13.574641"><time>2024-03-31T14:48:21.000Z</time></trkpt><trkpt lat="52.535731" lon="13.574579"><time>2024-03-31T14:48:25.000Z</time></trkpt><trkpt lat="52.535741" lon="13.574521"><time>2024-03-31T14:48:29.000Z</time></trkpt><trkpt lat="52.535761" lon="13.574479"><time>2024-03-31T14:48:33.000Z</time></trkpt><trkpt lat="52.535784" lon="13.574449"><time>2024-03-31T14:48:35.000Z</time></trkpt><trkpt lat="52.535808" lon="13.574421"><time>2024-03-31T14:48:37.000Z</time></trkpt><trkpt lat="52.535834" lon="13.574377"><time>2024-03-31T14:48:43.000Z</time></trkpt><trkpt lat="52.535864" lon="13.574318"><time>2024-03-31T14:48:47.000Z</time></trkpt><trkpt lat="52.535894" lon="13.574264"><time>2024-03-31T14:48:51.000Z</time></trkpt><trkpt lat="52.535905" lon="13.574217"><time>2024-03-31T14:48:57.000Z</time></trkpt><trkpt lat="52.535912" lon="13.574175"><time>2024-03-31T14:49:03.000Z</time></trkpt><trkpt lat="52.535922" lon="13.574135"><time>2024-03-31T14:49:09.000Z</time></trkpt><trkpt lat="52.535941" lon="13.574089"><time>2024-03-31T14:49:23.000Z</time></trkpt><trkpt lat="52.535947" lon="13.574033"><time>2024-03-31T14:49:27.000Z</time></trkpt><trkpt lat="52.535942" lon="13.57397"><time>2024-03-31T14:49:31.000Z</time></trkpt><trkpt lat="52.535935" lon="13.573893"><time>2024-03-31T14:49:35.000Z</time></trkpt><trkpt lat="52.535929" lon="13.573823"><time>2024-03-31T14:49:39.000Z</time></trkpt><trkpt lat="52.535925" lon="13.573754"><time>2024-03-31T14:49:41.000Z</time></trkpt><trkpt lat="52.535925" lon="13.573688"><time>2024-03-31T14:49:43.000Z</time></trkpt><trkpt lat="52.535926" lon="13.573624"><time>2024-03-31T14:49:47.000Z</time></trkpt><trkpt lat="52.535927" lon="13.573557"><time>2024-03-31T14:49:49.000Z</time></trkpt><trkpt lat="52.535923" lon="13.5735"><time>2024-03-31T14:49:51.000Z</time></trkpt><trkpt lat="52.535921" lon="13.573428"><time>2024-03-31T14:49:53.000Z</time></trkpt><trkpt lat="52.535916" lon="13.573343"><time>2024-03-31T14:49:57.000Z</time></trkpt><trkpt lat="52.535909" lon="13.573266"><time>2024-03-31T14:50:01.000Z</time></trkpt><trkpt lat="52.535915" lon="13.57323"><time>2024-03-31T14:50:09.000Z</time></trkpt><trkpt lat="52.535935" lon="13.573228"><time>2024-03-31T14:50:25.000Z</time></trkpt><trkpt lat="52.535968" lon="13.573252"><time>2024-03-31T14:50:29.000Z</time></trkpt><trkpt lat="52.535993" lon="13.57328"><time>2024-03-31T14:50:31.000Z</time></trkpt><trkpt lat="52.536013" lon="13.573316"><time>2024-03-31T14:50:33.000Z</time></trkpt><trkpt lat="52.536035" lon="13.573352"><time>2024-03-31T14:50:35.000Z</time></trkpt><trkpt lat="52.536061" lon="13.573379"><time>2024-03-31T14:50:37.000Z</time></trkpt><trkpt lat="52.536088" lon="13.5734"><time>2024-03-31T14:50:39.000Z</time></trkpt><trkpt lat="52.536123" lon="13.573408"><time>2024-03-31T14:50:41.000Z</time></trkpt><trkpt lat="52.53616" lon="13.573411"><time>2024-03-31T14:50:45.000Z</time></trkpt><trkpt lat="52.536199" lon="13.573423"><time>2024-03-31T14:50:47.000Z</time></trkpt><trkpt lat="52.536231" lon="13.573448"><time>2024-03-31T14:50:49.000Z</time></trkpt><trkpt lat="52.536261" lon="13.573486"><time>2024-03-31T14:50:51.000Z</time></trkpt><trkpt lat="52.536286" lon="13.573523"><time>2024-03-31T14:50:53.000Z</time></trkpt><trkpt lat="52.536318" lon="13.573544"><time>2024-03-31T14:50:55.000Z</time></trkpt><trkpt lat="52.536354" lon="13.573547"><time>2024-03-31T14:51:01.000Z</time></trkpt><trkpt lat="52.536394" lon="13.573538"><time>2024-03-31T14:51:03.000Z</time></trkpt><trkpt lat="52.536426" lon="13.573533"><time>2024-03-31T14:51:05.000Z</time></trkpt><trkpt lat="52.536452" lon="13.573518"><time>2024-03-31T14:51:09.000Z</time></trkpt><trkpt lat="52.536482" lon="13.573487"><time>2024-03-31T14:51:13.000Z</time></trkpt><trkpt lat="52.536517" lon="13.573445"><time>2024-03-31T14:51:17.000Z</time></trkpt><trkpt lat="52.536554" lon="13.573407"><time>2024-03-31T14:51:21.000Z</time></trkpt><trkpt lat="52.536592" lon="13.57338"><time>2024-03-31T14:51:23.000Z</time></trkpt><trkpt lat="52.536597" lon="13.573366"><time>2024-03-31T14:51:29.000Z</time></trkpt><trkpt lat="52.536582" lon="13.573367"><time>2024-03-31T14:51:33.000Z</time></trkpt><trkpt lat="52.536578" lon="13.573375"><time>2024-03-31T14:51:39.000Z</time></trkpt><trkpt lat="52.536604" lon="13.573362"><time>2024-03-31T14:51:41.000Z</time></trkpt><trkpt lat="52.536648" lon="13.573324"><time>2024-03-31T14:51:45.000Z</time></trkpt><trkpt lat="52.53667" lon="13.573271"><time>2024-03-31T14:51:49.000Z</time></trkpt><trkpt lat="52.536686" lon="13.573218"><time>2024-03-31T14:51:53.000Z</time></trkpt><trkpt lat="52.536702" lon="13.573166"><time>2024-03-31T14:51:57.000Z</time></trkpt><trkpt lat="52.536707" lon="13.573137"><time>2024-03-31T14:52:01.000Z</time></trkpt><trkpt lat="52.536718" lon="13.573144"><time>2024-03-31T14:52:07.000Z</time></trkpt><trkpt lat="52.536737" lon="13.573177"><time>2024-03-31T14:52:17.000Z</time></trkpt><trkpt lat="52.536784" lon="13.573207"><time>2024-03-31T14:52:21.000Z</time></trkpt><trkpt lat="52.536829" lon="13.573219"><time>2024-03-31T14:52:23.000Z</time></trkpt><trkpt lat="52.536871" lon="13.573231"><time>2024-03-31T14:52:25.000Z</time></trkpt><trkpt lat="52.536906" lon="13.573234"><time>2024-03-31T14:52:29.000Z</time></trkpt><trkpt lat="52.53695" lon="13.573237"><time>2024-03-31T14:52:33.000Z</time></trkpt><trkpt lat="52.536985" lon="13.573249"><time>2024-03-31T14:52:37.000Z</time></trkpt><trkpt lat="52.536998" lon="13.573269"><time>2024-03-31T14:52:41.000Z</time></trkpt><trkpt lat="52.536997" lon="13.573302"><time>2024-03-31T14:52:47.000Z</time></trkpt><trkpt lat="52.536997" lon="13.573343"><time>2024-03-31T14:52:51.000Z</time></trkpt><trkpt lat="52.537008" lon="13.573396"><time>2024-03-31T14:52:55.000Z</time></trkpt><trkpt lat="52.537016" lon="13.573467"><time>2024-03-31T14:52:59.000Z</time></trkpt><trkpt lat="52.537024" lon="13.573537"><time>2024-03-31T14:53:03.000Z</time></trkpt><trkpt lat="52.537038" lon="13.573615"><time>2024-03-31T14:53:07.000Z</time></trkpt><trkpt lat="52.537055" lon="13.573683"><time>2024-03-31T14:53:11.000Z</time></trkpt><trkpt lat="52.537081" lon="13.573744"><time>2024-03-31T14:53:15.000Z</time></trkpt><trkpt lat="52.53711" lon="13.573785"><time>2024-03-31T14:53:19.000Z</time></trkpt><trkpt lat="52.537142" lon="13.573813"><time>2024-03-31T14:53:21.000Z</time></trkpt><trkpt lat="52.537171" lon="13.573831"><time>2024-03-31T14:53:23.000Z</time></trkpt><trkpt lat="52.5372" lon="13.57385"><time>2024-03-31T14:53:25.000Z</time></trkpt><trkpt lat="52.537235" lon="13.573857"><time>2024-03-31T14:53:29.000Z</time></trkpt><trkpt lat="52.537266" lon="13.573848"><time>2024-03-31T14:53:33.000Z</time></trkpt><trkpt lat="52.537293" lon="13.57382"><time>2024-03-31T14:53:35.000Z</time></trkpt><trkpt lat="52.537314" lon="13.573783"><time>2024-03-31T14:53:37.000Z</time></trkpt><trkpt lat="52.537342" lon="13.573749"><time>2024-03-31T14:53:41.000Z</time></trkpt><trkpt lat="52.537377" lon="13.573727"><time>2024-03-31T14:53:43.000Z</time></trkpt><trkpt lat="52.537416" lon="13.573714"><time>2024-03-31T14:53:53.000Z</time></trkpt><trkpt lat="52.53745" lon="13.573704"><time>2024-03-31T14:53:57.000Z</time></trkpt><trkpt lat="52.537461" lon="13.573688"><time>2024-03-31T14:53:59.000Z</time></trkpt><trkpt lat="52.537449" lon="13.573687"><time>2024-03-31T14:54:09.000Z</time></trkpt><trkpt lat="52.537439" lon="13.573678"><time>2024-03-31T14:54:13.000Z</time></trkpt><trkpt lat="52.537448" lon="13.573672"><time>2024-03-31T14:54:19.000Z</time></trkpt><trkpt lat="52.537483" lon="13.573653"><time>2024-03-31T14:54:21.000Z</time></trkpt><trkpt lat="52.537513" lon="13.573634"><time>2024-03-31T14:54:25.000Z</time></trkpt><trkpt lat="52.537547" lon="13.573611"><time>2024-03-31T14:54:33.000Z</time></trkpt><trkpt lat="52.537578" lon="13.573577"><time>2024-03-31T14:54:37.000Z</time></trkpt><trkpt lat="52.537613" lon="13.573547"><time>2024-03-31T14:54:41.000Z</time></trkpt><trkpt lat="52.537636" lon="13.573509"><time>2024-03-31T14:54:47.000Z</time></trkpt><trkpt lat="52.537662" lon="13.573478"><time>2024-03-31T14:54:57.000Z</time></trkpt><trkpt lat="52.537685" lon="13.573452"><time>2024-03-31T14:55:01.000Z</time></trkpt><trkpt lat="52.537717" lon="13.573436"><time>2024-03-31T14:55:03.000Z</time></trkpt><trkpt lat="52.537747" lon="13.573425"><time>2024-03-31T14:55:05.000Z</time></trkpt><trkpt lat="52.537778" lon="13.573416"><time>2024-03-31T14:55:07.000Z</time></trkpt><trkpt lat="52.537808" lon="13.573407"><time>2024-03-31T14:55:09.000Z</time></trkpt><trkpt lat="52.537836" lon="13.573423"><time>2024-03-31T14:55:13.000Z</time></trkpt><trkpt lat="52.537861" lon="13.573467"><time>2024-03-31T14:55:19.000Z</time></trkpt><trkpt lat="52.537878" lon="13.573533"><time>2024-03-31T14:55:23.000Z</time></trkpt><trkpt lat="52.537887" lon="13.573592"><time>2024-03-31T14:55:25.000Z</time></trkpt><trkpt lat="52.537888" lon="13.573652"><time>2024-03-31T14:55:27.000Z</time></trkpt><trkpt lat="52.537878" lon="13.573694"><time>2024-03-31T14:55:31.000Z</time></trkpt><trkpt lat="52.537863" lon="13.573737"><time>2024-03-31T14:55:41.000Z</time></trkpt><trkpt lat="52.537842" lon="13.573762"><time>2024-03-31T14:55:53.000Z</time></trkpt><trkpt lat="52.53784" lon="13.573813"><time>2024-03-31T14:55:59.000Z</time></trkpt><trkpt lat="52.537847" lon="13.573869"><time>2024-03-31T14:56:11.000Z</time></trkpt><trkpt lat="52.537866" lon="13.573933"><time>2024-03-31T14:56:17.000Z</time></trkpt><trkpt lat="52.537875" lon="13.573999"><time>2024-03-31T14:56:19.000Z</time></trkpt><trkpt lat="52.537888" lon="13.574058"><time>2024-03-31T14:56:21.000Z</time></trkpt><trkpt lat="52.537908" lon="13.574109"><time>2024-03-31T14:56:23.000Z</time></trkpt><trkpt lat="52.537933" lon="13.57415"><time>2024-03-31T14:56:25.000Z</time></trkpt><trkpt lat="52.537964" lon="13.574178"><time>2024-03-31T14:56:27.000Z</time></trkpt><trkpt lat="52.537994" lon="13.574201"><time>2024-03-31T14:56:29.000Z</time></trkpt><trkpt lat="52.53804" lon="13.574205"><time>2024-03-31T14:56:33.000Z</time></trkpt><trkpt lat="52.538088" lon="13.57421"><time>2024-03-31T14:56:39.000Z</time></trkpt><trkpt lat="52.538129" lon="13.574232"><time>2024-03-31T14:56:43.000Z</time></trkpt><trkpt lat="52.538163" lon="13.574264"><time>2024-03-31T14:56:47.000Z</time></trkpt><trkpt lat="52.53819" lon="13.574296"><time>2024-03-31T14:56:49.000Z</time></trkpt><trkpt lat="52.538228" lon="13.574321"><time>2024-03-31T14:56:51.000Z</time></trkpt><trkpt lat="52.538243" lon="13.574349"><time>2024-03-31T14:56:55.000Z</time></trkpt><trkpt lat="52.538239" lon="13.574376"><time>2024-03-31T14:57:01.000Z</time></trkpt><trkpt lat="52.538204" lon="13.574367"><time>2024-03-31T14:57:07.000Z</time></trkpt><trkpt lat="52.53817" lon="13.574332"><time>2024-03-31T14:57:11.000Z</time></trkpt><trkpt lat="52.538137" lon="13.574285"><time>2024-03-31T14:57:13.000Z</time></trkpt><trkpt lat="52.538132" lon="13.574253"><time>2024-03-31T14:57:15.000Z</time></trkpt><trkpt lat="52.538145" lon="13.57423"><time>2024-03-31T14:57:25.000Z</time></trkpt><trkpt lat="52.538178" lon="13.574204"><time>2024-03-31T14:57:27.000Z</time></trkpt><trkpt lat="52.538206" lon="13.574178"><time>2024-03-31T14:57:29.000Z</time></trkpt><trkpt lat="52.538235" lon="13.574155"><time>2024-03-31T14:57:31.000Z</time></trkpt><trkpt lat="52.538266" lon="13.574144"><time>2024-03-31T14:57:35.000Z</time></trkpt><trkpt lat="52.538303" lon="13.57415"><time>2024-03-31T14:57:37.000Z</time></trkpt><trkpt lat="52.53834" lon="13.57417"><time>2024-03-31T14:57:39.000Z</time></trkpt><trkpt lat="52.538372" lon="13.574195"><time>2024-03-31T14:57:41.000Z</time></trkpt><trkpt lat="52.538401" lon="13.574223"><time>2024-03-31T14:57:43.000Z</time></trkpt><trkpt lat="52.538413" lon="13.574254"><time>2024-03-31T14:57:47.000Z</time></trkpt><trkpt lat="52.538415" lon="13.574297"><time>2024-03-31T14:57:53.000Z</time></trkpt><trkpt lat="52.538295" lon="13.574357"><time>2024-03-31T14:59:19.000Z</time></trkpt><trkpt lat="52.538252" lon="13.574372"><time>2024-03-31T14:59:23.000Z</time></trkpt><trkpt lat="52.538213" lon="13.574399"><time>2024-03-31T14:59:40.000Z</time></trkpt><trkpt lat="52.538207" lon="13.574378"><time>2024-03-31T14:59:42.000Z</time></trkpt><trkpt lat="52.538229" lon="13.574337"><time>2024-03-31T15:00:00.000Z</time></trkpt><trkpt lat="52.538263" lon="13.574385"><time>2024-03-31T15:02:04.000Z</time></trkpt><trkpt lat="52.538237" lon="13.574408"><time>2024-03-31T15:02:06.000Z</time></trkpt><trkpt lat="52.53823" lon="13.574395"><time>2024-03-31T15:02:15.000Z</time></trkpt><trkpt lat="52.538242" lon="13.574359"><time>2024-03-31T15:02:33.000Z</time></trkpt><trkpt lat="52.538228" lon="13.574423"><time>2024-03-31T15:03:19.000Z</time></trkpt><trkpt lat="52.538198" lon="13.57431"><time>2024-03-31T15:09:28.000Z</time></trkpt><trkpt lat="52.538277" lon="13.574378"><time>2024-03-31T15:12:00.000Z</time></trkpt><trkpt lat="52.538272" lon="13.574335"><time>2024-03-31T15:13:08.000Z</time></trkpt><trkpt lat="52.538278" lon="13.57431"><time>2024-03-31T15:16:16.000Z</time></trkpt><trkpt lat="52.538208" lon="13.574312"><time>2024-03-31T15:17:54.000Z</time></trkpt><trkpt lat="52.538202" lon="13.574375"><time>2024-03-31T15:18:22.000Z</time></trkpt></trkseg></trk></gpx>