<?xml version="1.0" encoding="UTF-8"?><gpx creator="Health" xsi:schemaLocation="http://www.topografix.com/GPX/1/0 http://www.topografix.com/GPX/1/0/gpx.xsd" version="1.0" xmlns="http://www.topografix.com/GPX/1/0" xmlns:xsi="http://www.w3.org/2001/XMLSchema-instance"><metadata><time>2024-01-19T10:59:49.457Z</time></metadata><trk><type>Ходьба на улице</type><extensions><totalTime>4200.0</totalTime><cumulativeDecrease>0.0</cumulativeDecrease><cumulativeClimb>0.0</cumulativeClimb><totalDistance>5046.0</totalDistance></extensions><trkseg><trkpt lat="52.548544" lon="13.383242"><time>2024-01-19T10:59:49.457Z</time></trkpt><trkpt lat="52.548534" lon="13.383226"><time>2024-01-19T10:59:50.462Z</time></trkpt><trkpt lat="52.548518" lon="13.383204"><time>2024-01-19T10:59:51.465Z</time></trkpt><trkpt lat="52.548494" lon="13.383199"><time>2024-01-19T10:59:58.000Z</time></trkpt><trkpt lat="52.548458" lon="13.383204"><time>2024-01-19T11:00:00.000Z</time></trkpt><trkpt lat="52.548424" lon="13.38321"><time>2024-01-19T11:00:02.000Z</time></trkpt><trkpt lat="52.548396" lon="13.38318"><time>2024-01-19T11:00:04.000Z</time></trkpt><trkpt lat="52.548368" lon="13.383123"><time>2024-01-19T11:00:08.000Z</time></trkpt><trkpt lat="52.548342" lon="13.383065"><time>2024-01-19T11:00:12.000Z</time></trkpt><trkpt lat="52.548313" lon="13.383017"><time>2024-01-19T11:00:14.000Z</time></trkpt><trkpt lat="52.548281" lon="13.382982"><time>2024-01-19T11:00:18.000Z</time></trkpt><trkpt lat="52.548244" lon="13.382943"><time>2024-01-19T11:00:22.000Z</time></trkpt><trkpt lat="52.548209" lon="13.382908"><time>2024-01-19T11:00:26.000Z</time></trkpt><trkpt lat="52.548178" lon="13.382872"><time>2024-01-19T11:00:30.000Z</time></trkpt><trkpt lat="52.548146" lon="13.382848"><time>2024-01-19T11:00:34.000Z</time></trkpt><trkpt lat="52.548107" lon="13.382848"><time>2024-01-19T11:00:38.000Z</time></trkpt><trkpt lat="52.548071" lon="13.382872"><time>2024-01-19T11:00:42.000Z</time></trkpt><trkpt lat="52.548049" lon="13.382924"><time>2024-01-19T11:00:44.000Z</time></trkpt><trkpt lat="52.548043" lon="13.382985"><time>2024-01-19T11:00:48.000Z</time></trkpt><trkpt lat="52.548035" lon="13.383046"><time>2024-01-19T11:00:52.000Z</time></trkpt><trkpt lat="52.548018" lon="13.383092"><time>2024-01-19T11:00:54.000Z</time></trkpt><trkpt lat="52.547987" lon="13.38313"><time>2024-01-19T11:00:56.000Z</time></trkpt><trkpt lat="52.547957" lon="13.383163"><time>2024-01-19T11:01:00.000Z</time></trkpt><trkpt lat="52.547927" lon="13.383194"><time>2024-01-19T11:01:02.000Z</time></trkpt><trkpt lat="52.547848" lon="13.383252"><time>2024-01-19T11:03:42.000Z</time></trkpt><trkpt lat="52.547802" lon="13.383291"><time>2024-01-19T11:03:46.000Z</time></trkpt><trkpt lat="52.547759" lon="13.383335"><time>2024-01-19T11:03:50.000Z</time></trkpt><trkpt lat="52.547721" lon="13.383373"><time>2024-01-19T11:03:54.000Z</time></trkpt><trkpt lat="52.547689" lon="13.383404"><time>2024-01-19T11:03:56.000Z</time></trkpt><trkpt lat="52.547663" lon="13.383432"><time>2024-01-19T11:03:58.000Z</time></trkpt><trkpt lat="52.547634" lon="13.383466"><time>2024-01-19T11:04:02.000Z</time></trkpt><trkpt lat="52.547604" lon="13.383501"><time>2024-01-19T11:04:06.000Z</time></trkpt><trkpt lat="52.547571" lon="13.383534"><time>2024-01-19T11:04:10.000Z</time></trkpt><trkpt lat="52.547538" lon="13.383565"><time>2024-01-19T11:04:14.000Z</time></trkpt><trkpt lat="52.547505" lon="13.383582"><time>2024-01-19T11:04:18.000Z</time></trkpt><trkpt lat="52.547473" lon="13.383588"><time>2024-01-19T11:04:20.000Z</time></trkpt><trkpt lat="52.547463" lon="13.383603"><time>2024-01-19T11:04:24.000Z</time></trkpt><trkpt lat="52.547467" lon="13.383636"><time>2024-01-19T11:04:38.000Z</time></trkpt><trkpt lat="52.547483" lon="13.383694"><time>2024-01-19T11:04:40.000Z</time></trkpt><trkpt lat="52.547495" lon="13.383751"><time>2024-01-19T11:04:44.000Z</time></trkpt><trkpt lat="52.547501" lon="13.383808"><time>2024-01-19T11:04:48.000Z</time></trkpt><trkpt lat="52.547498" lon="13.38388"><time>2024-01-19T11:04:50.000Z</time></trkpt><trkpt lat="52.547483" lon="13.383959"><time>2024-01-19T11:04:54.000Z</time></trkpt><trkpt lat="52.54748" lon="13.384046"><time>2024-01-19T11:04:58.000Z</time></trkpt><trkpt lat="52.547493" lon="13.38412"><time>2024-01-19T11:05:02.000Z</time></trkpt><trkpt lat="52.547517" lon="13.384185"><time>2024-01-19T11:05:06.000Z</time></trkpt><trkpt lat="52.547533" lon="13.384246"><time>2024-01-19T11:05:08.000Z</time></trkpt><trkpt lat="52.547545" lon="13.384299"><time>2024-01-19T11:05:10.000Z</time></trkpt><trkpt lat="52.547555" lon="13.384353"><time>2024-01-19T11:05:12.000Z</time></trkpt><trkpt lat="52.547565" lon="13.384402"><time>2024-01-19T11:05:14.000Z</time></trkpt><trkpt lat="52.547578" lon="13.384447"><time>2024-01-19T11:05:16.000Z</time></trkpt><trkpt lat="52.547596" lon="13.384486"><time>2024-01-19T11:05:18.000Z</time></trkpt><trkpt lat="52.547617" lon="13.384518"><time>2024-01-19T11:05:20.000Z</time></trkpt><trkpt lat="52.547646" lon="13.384549"><time>2024-01-19T11:05:22.000Z</time></trkpt><trkpt lat="52.547674" lon="13.384581"><time>2024-01-19T11:05:24.000Z</time></trkpt><trkpt lat="52.547697" lon="13.384622"><time>2024-01-19T11:05:26.000Z</time></trkpt><trkpt lat="52.547713" lon="13.38468"><time>2024-01-19T11:05:30.000Z</time></trkpt><trkpt lat="52.547725" lon="13.384744"><time>2024-01-19T11:05:34.000Z</time></trkpt><trkpt lat="52.547738" lon="13.384811"><time>2024-01-19T11:05:36.000Z</time></trkpt><trkpt lat="52.547756" lon="13.384861"><time>2024-01-19T11:05:38.000Z</time></trkpt><trkpt lat="52.54778" lon="13.384908"><time>2024-01-19T11:05:40.000Z</time></trkpt><trkpt lat="52.547799" lon="13.384953"><time>2024-01-19T11:05:44.000Z</time></trkpt><trkpt lat="52.547815" lon="13.385005"><time>2024-01-19T11:05:46.000Z</time></trkpt><trkpt lat="52.547824" lon="13.385066"><time>2024-01-19T11:05:48.000Z</time></trkpt><trkpt lat="52.547832" lon="13.385137"><time>2024-01-19T11:05:52.000Z</time></trkpt><trkpt lat="52.54784" lon="13.385217"><time>2024-01-19T11:05:54.000Z</time></trkpt><trkpt lat="52.547851" lon="13.38529"><time>2024-01-19T11:05:58.000Z</time></trkpt><trkpt lat="52.547861" lon="13.385352"><time>2024-01-19T11:06:02.000Z</time></trkpt><trkpt lat="52.547873" lon="13.385407"><time>2024-01-19T11:06:04.000Z</time></trkpt><trkpt lat="52.547885" lon="13.385464"><time>2024-01-19T11:06:08.000Z</time></trkpt><trkpt lat="52.547902" lon="13.385531"><time>2024-01-19T11:06:12.000Z</time></trkpt><trkpt lat="52.547917" lon="13.385604"><time>2024-01-19T11:06:16.000Z</time></trkpt><trkpt lat="52.547928" lon="13.385674"><time>2024-01-19T11:06:20.000Z</time></trkpt><trkpt lat="52.547935" lon="13.385742"><time>2024-01-19T11:06:22.000Z</time></trkpt><trkpt lat="52.547935" lon="13.385811"><time>2024-01-19T11:06:24.000Z</time></trkpt><trkpt lat="52.54794" lon="13.385885"><time>2024-01-19T11:06:28.000Z</time></trkpt><trkpt lat="52.547944" lon="13.385967"><time>2024-01-19T11:06:32.000Z</time></trkpt><trkpt lat="52.547954" lon="13.386044"><time>2024-01-19T11:06:36.000Z</time></trkpt><trkpt lat="52.547963" lon="13.386108"><time>2024-01-19T11:06:40.000Z</time></trkpt><trkpt lat="52.547974" lon="13.386158"><time>2024-01-19T11:06:42.000Z</time></trkpt><trkpt lat="52.547988" lon="13.386207"><time>2024-01-19T11:06:44.000Z</time></trkpt><trkpt lat="52.548003" lon="13.386263"><time>2024-01-19T11:06:58.000Z</time></trkpt><trkpt lat="52.548021" lon="13.38633"><time>2024-01-19T11:07:02.000Z</time></trkpt><trkpt lat="52.548033" lon="13.386409"><time>2024-01-19T11:07:06.000Z</time></trkpt><trkpt lat="52.548037" lon="13.386497"><time>2024-01-19T11:07:10.000Z</time></trkpt><trkpt lat="52.548035" lon="13.386583"><time>2024-01-19T11:07:14.000Z</time></trkpt><trkpt lat="52.548033" lon="13.386652"><time>2024-01-19T11:07:18.000Z</time></trkpt><trkpt lat="52.548038" lon="13.386717"><time>2024-01-19T11:07:20.000Z</time></trkpt><trkpt lat="52.548049" lon="13.386777"><time>2024-01-19T11:07:24.000Z</time></trkpt><trkpt lat="52.548064" lon="13.386841"><time>2024-01-19T11:07:26.000Z</time></trkpt><trkpt lat="52.548075" lon="13.386911"><time>2024-01-19T11:07:30.000Z</time></trkpt><trkpt lat="52.548083" lon="13.386976"><time>2024-01-19T11:07:34.000Z</time></trkpt><trkpt lat="52.548085" lon="13.387045"><time>2024-01-19T11:07:36.000Z</time></trkpt><trkpt lat="52.548078" lon="13.387105"><time>2024-01-19T11:07:40.000Z</time></trkpt><trkpt lat="52.548066" lon="13.387171"><time>2024-01-19T11:07:42.000Z</time></trkpt><trkpt lat="52.548055" lon="13.387227"><time>2024-01-19T11:07:46.000Z</time></trkpt><trkpt lat="52.548048" lon="13.387282"><time>2024-01-19T11:07:48.000Z</time></trkpt><trkpt lat="52.548055" lon="13.387335"><time>2024-01-19T11:07:50.000Z</time></trkpt><trkpt lat="52.548054" lon="13.387401"><time>2024-01-19T11:07:54.000Z</time></trkpt><trkpt lat="52.548051" lon="13.387464"><time>2024-01-19T11:07:58.000Z</time></trkpt><trkpt lat="52.54803" lon="13.38756"><time>2024-01-19T11:08:00.000Z</time></trkpt><trkpt lat="52.548023" lon="13.387659"><time>2024-01-19T11:08:06.000Z</time></trkpt><trkpt lat="52.548021" lon="13.387763"><time>2024-01-19T11:08:10.000Z</time></trkpt><trkpt lat="52.548036" lon="13.387821"><time>2024-01-19T11:08:12.000Z</time></trkpt><trkpt lat="52.548048" lon="13.387871"><time>2024-01-19T11:08:14.000Z</time></trkpt><trkpt lat="52.548055" lon="13.38792"><time>2024-01-19T11:08:18.000Z</time></trkpt><trkpt lat="52.548054" lon="13.387985"><time>2024-01-19T11:08:20.000Z</time></trkpt><trkpt lat="52.548041" lon="13.388026"><time>2024-01-19T11:08:24.000Z</time></trkpt><trkpt lat="52.548021" lon="13.388065"><time>2024-01-19T11:08:28.000Z</time></trkpt><trkpt lat="52.547992" lon="13.388085"><time>2024-01-19T11:08:32.000Z</time></trkpt><trkpt lat="52.547941" lon="13.388141"><time>2024-01-19T11:08:34.000Z</time></trkpt><trkpt lat="52.547888" lon="13.388186"><time>2024-01-19T11:08:40.000Z</time></trkpt><trkpt lat="52.54783" lon="13.388236"><time>2024-01-19T11:08:42.000Z</time></trkpt><trkpt lat="52.547793" lon="13.388257"><time>2024-01-19T11:08:46.000Z</time></trkpt><trkpt lat="52.547755" lon="13.388283"><time>2024-01-19T11:08:50.000Z</time></trkpt><trkpt lat="52.547715" lon="13.388303"><time>2024-01-19T11:08:54.000Z</time></trkpt><trkpt lat="52.547678" lon="13.388321"><time>2024-01-19T11:08:58.000Z</time></trkpt><trkpt lat="52.547645" lon="13.38834"><time>2024-01-19T11:09:00.000Z</time></trkpt><trkpt lat="52.547618" lon="13.388362"><time>2024-01-19T11:09:02.000Z</time></trkpt><trkpt lat="52.54759" lon="13.388385"><time>2024-01-19T11:09:04.000Z</time></trkpt><trkpt lat="52.54756" lon="13.388405"><time>2024-01-19T11:09:06.000Z</time></trkpt><trkpt lat="52.547529" lon="13.388425"><time>2024-01-19T11:09:08.000Z</time></trkpt><trkpt lat="52.547499" lon="13.388445"><time>2024-01-19T11:09:10.000Z</time></trkpt><trkpt lat="52.547465" lon="13.388473"><time>2024-01-19T11:09:12.000Z</time></trkpt><trkpt lat="52.547428" lon="13.388497"><time>2024-01-19T11:09:14.000Z</time></trkpt><trkpt lat="52.547389" lon="13.388522"><time>2024-01-19T11:09:16.000Z</time></trkpt><trkpt lat="52.547347" lon="13.388541"><time>2024-01-19T11:09:20.000Z</time></trkpt><trkpt lat="52.547307" lon="13.388552"><time>2024-01-19T11:09:24.000Z</time></trkpt><trkpt lat="52.547269" lon="13.388555"><time>2024-01-19T11:09:26.000Z</time></trkpt><trkpt lat="52.547231" lon="13.388542"><time>2024-01-19T11:09:28.000Z</time></trkpt><trkpt lat="52.547192" lon="13.388511"><time>2024-01-19T11:09:32.000Z</time></trkpt><trkpt lat="52.547151" lon="13.388471"><time>2024-01-19T11:09:34.000Z</time></trkpt><trkpt lat="52.547116" lon="13.388426"><time>2024-01-19T11:09:38.000Z</time></trkpt><trkpt lat="52.547075" lon="13.388395"><time>2024-01-19T11:09:42.000Z</time></trkpt><trkpt lat="52.547041" lon="13.388361"><time>2024-01-19T11:09:46.000Z</time></trkpt><trkpt lat="52.547002" lon="13.388341"><time>2024-01-19T11:09:48.000Z</time></trkpt><trkpt lat="52.54697" lon="13.388306"><time>2024-01-19T11:09:52.000Z</time></trkpt><trkpt lat="52.546935" lon="13.388268"><time>2024-01-19T11:09:56.000Z</time></trkpt><trkpt lat="52.546895" lon="13.388203"><time>2024-01-19T11:10:00.000Z</time></trkpt><trkpt lat="52.546858" lon="13.388142"><time>2024-01-19T11:10:04.000Z</time></trkpt><trkpt lat="52.546818" lon="13.38808"><time>2024-01-19T11:10:06.000Z</time></trkpt><trkpt lat="52.546793" lon="13.388031"><time>2024-01-19T11:10:10.000Z</time></trkpt><trkpt lat="52.546773" lon="13.387984"><time>2024-01-19T11:10:12.000Z</time></trkpt><trkpt lat="52.546773" lon="13.387934"><time>2024-01-19T11:10:16.000Z</time></trkpt><trkpt lat="52.546779" lon="13.387875"><time>2024-01-19T11:10:20.000Z</time></trkpt><trkpt lat="52.546781" lon="13.387805"><time>2024-01-19T11:10:24.000Z</time></trkpt><trkpt lat="52.546774" lon="13.387739"><time>2024-01-19T11:10:28.000Z</time></trkpt><trkpt lat="52.546761" lon="13.387677"><time>2024-01-19T11:10:30.000Z</time></trkpt><trkpt lat="52.546747" lon="13.387625"><time>2024-01-19T11:10:34.000Z</time></trkpt><trkpt lat="52.54673" lon="13.387572"><time>2024-01-19T11:10:38.000Z</time></trkpt><trkpt lat="52.546716" lon="13.387514"><time>2024-01-19T11:10:40.000Z</time></trkpt><trkpt lat="52.546701" lon="13.387461"><time>2024-01-19T11:10:44.000Z</time></trkpt><trkpt lat="52.546691" lon="13.387407"><time>2024-01-19T11:10:46.000Z</time></trkpt><trkpt lat="52.546678" lon="13.387355"><time>2024-01-19T11:10:48.000Z</time></trkpt><trkpt lat="52.546672" lon="13.387296"><time>2024-01-19T11:10:52.000Z</time></trkpt><trkpt lat="52.546663" lon="13.387238"><time>2024-01-19T11:10:54.000Z</time></trkpt><trkpt lat="52.546651" lon="13.387182"><time>2024-01-19T11:10:56.000Z</time></trkpt><trkpt lat="52.546634" lon="13.387129"><time>2024-01-19T11:11:00.000Z</time></trkpt><trkpt lat="52.546614" lon="13.387075"><time>2024-01-19T11:11:02.000Z</time></trkpt><trkpt lat="52.546599" lon="13.387024"><time>2024-01-19T11:11:06.000Z</time></trkpt><trkpt lat="52.546577" lon="13.386958"><time>2024-01-19T11:11:08.000Z</time></trkpt><trkpt lat="52.546554" lon="13.38688"><time>2024-01-19T11:11:12.000Z</time></trkpt><trkpt lat="52.546529" lon="13.38681"><time>2024-01-19T11:11:16.000Z</time></trkpt><trkpt lat="52.546503" lon="13.386762"><time>2024-01-19T11:11:18.000Z</time></trkpt><trkpt lat="52.54648" lon="13.386735"><time>2024-01-19T11:11:20.000Z</time></trkpt><trkpt lat="52.546452" lon="13.3867"><time>2024-01-19T11:11:22.000Z</time></trkpt><trkpt lat="52.54642" lon="13.38666"><time>2024-01-19T11:11:26.000Z</time></trkpt><trkpt lat="52.546381" lon="13.386591"><time>2024-01-19T11:11:30.000Z</time></trkpt><trkpt lat="52.546345" lon="13.386518"><time>2024-01-19T11:11:34.000Z</time></trkpt><trkpt lat="52.546317" lon="13.386446"><time>2024-01-19T11:11:38.000Z</time></trkpt><trkpt lat="52.546292" lon="13.386399"><time>2024-01-19T11:11:40.000Z</time></trkpt><trkpt lat="52.546268" lon="13.386364"><time>2024-01-19T11:11:44.000Z</time></trkpt><trkpt lat="52.546234" lon="13.38633"><time>2024-01-19T11:11:46.000Z</time></trkpt><trkpt lat="52.546203" lon="13.386303"><time>2024-01-19T11:11:48.000Z</time></trkpt><trkpt lat="52.546169" lon="13.386286"><time>2024-01-19T11:11:50.000Z</time></trkpt><trkpt lat="52.546136" lon="13.386291"><time>2024-01-19T11:11:54.000Z</time></trkpt><trkpt lat="52.546103" lon="13.386309"><time>2024-01-19T11:11:58.000Z</time></trkpt><trkpt lat="52.546072" lon="13.386332"><time>2024-01-19T11:12:00.000Z</time></trkpt><trkpt lat="52.546046" lon="13.386351"><time>2024-01-19T11:12:02.000Z</time></trkpt><trkpt lat="52.546013" lon="13.386377"><time>2024-01-19T11:12:04.000Z</time></trkpt><trkpt lat="52.545982" lon="13.386412"><time>2024-01-19T11:12:08.000Z</time></trkpt><trkpt lat="52.545948" lon="13.386445"><time>2024-01-19T11:12:10.000Z</time></trkpt><trkpt lat="52.545924" lon="13.386439"><time>2024-01-19T11:12:12.000Z</time></trkpt><trkpt lat="52.545898" lon="13.386409"><time>2024-01-19T11:12:16.000Z</time></trkpt><trkpt lat="52.545864" lon="13.386365"><time>2024-01-19T11:12:20.000Z</time></trkpt><trkpt lat="52.545826" lon="13.386333"><time>2024-01-19T11:12:24.000Z</time></trkpt><trkpt lat="52.54579" lon="13.386298"><time>2024-01-19T11:12:26.000Z</time></trkpt><trkpt lat="52.545764" lon="13.386265"><time>2024-01-19T11:12:28.000Z</time></trkpt><trkpt lat="52.545736" lon="13.38623"><time>2024-01-19T11:12:34.000Z</time></trkpt><trkpt lat="52.545705" lon="13.386187"><time>2024-01-19T11:12:38.000Z</time></trkpt><trkpt lat="52.54567" lon="13.386132"><time>2024-01-19T11:12:42.000Z</time></trkpt><trkpt lat="52.545637" lon="13.386072"><time>2024-01-19T11:12:46.000Z</time></trkpt><trkpt lat="52.545594" lon="13.385987"><time>2024-01-19T11:12:50.000Z</time></trkpt><trkpt lat="52.545562" lon="13.385902"><time>2024-01-19T11:12:54.000Z</time></trkpt><trkpt lat="52.545533" lon="13.385822"><time>2024-01-19T11:12:56.000Z</time></trkpt><trkpt lat="52.545519" lon="13.385774"><time>2024-01-19T11:12:58.000Z</time></trkpt><trkpt lat="52.545497" lon="13.385723"><time>2024-01-19T11:13:00.000Z</time></trkpt><trkpt lat="52.545472" lon="13.385672"><time>2024-01-19T11:13:04.000Z</time></trkpt><trkpt lat="52.545444" lon="13.3856"><time>2024-01-19T11:13:06.000Z</time></trkpt><trkpt lat="52.545414" lon="13.38554"><time>2024-01-19T11:13:10.000Z</time></trkpt><trkpt lat="52.545377" lon="13.38548"><time>2024-01-19T11:13:14.000Z</time></trkpt><trkpt lat="52.54534" lon="13.385441"><time>2024-01-19T11:13:20.000Z</time></trkpt><trkpt lat="52.545307" lon="13.385401"><time>2024-01-19T11:13:24.000Z</time></trkpt><trkpt lat="52.545281" lon="13.385356"><time>2024-01-19T11:13:28.000Z</time></trkpt><trkpt lat="52.54525" lon="13.385306"><time>2024-01-19T11:13:32.000Z</time></trkpt><trkpt lat="52.545213" lon="13.385247"><time>2024-01-19T11:13:36.000Z</time></trkpt><trkpt lat="52.545175" lon="13.38519"><time>2024-01-19T11:13:40.000Z</time></trkpt><trkpt lat="52.545145" lon="13.385135"><time>2024-01-19T11:13:44.000Z</time></trkpt><trkpt lat="52.545123" lon="13.385091"><time>2024-01-19T11:13:46.000Z</time></trkpt><trkpt lat="52.5451" lon="13.385045"><time>2024-01-19T11:13:48.000Z</time></trkpt><trkpt lat="52.545075" lon="13.384996"><time>2024-01-19T11:13:50.000Z</time></trkpt><trkpt lat="52.545043" lon="13.384928"><time>2024-01-19T11:13:52.000Z</time></trkpt><trkpt lat="52.545011" lon="13.384851"><time>2024-01-19T11:13:56.000Z</time></trkpt><trkpt lat="52.544978" lon="13.38476"><time>2024-01-19T11:14:00.000Z</time></trkpt><trkpt lat="52.544949" lon="13.384685"><time>2024-01-19T11:14:04.000Z</time></trkpt><trkpt lat="52.544923" lon="13.384625"><time>2024-01-19T11:14:08.000Z</time></trkpt><trkpt lat="52.544897" lon="13.384596"><time>2024-01-19T11:14:12.000Z</time></trkpt><trkpt lat="52.544871" lon="13.384573"><time>2024-01-19T11:14:14.000Z</time></trkpt><trkpt lat="52.544849" lon="13.384551"><time>2024-01-19T11:14:18.000Z</time></trkpt><trkpt lat="52.544833" lon="13.384509"><time>2024-01-19T11:14:20.000Z</time></trkpt><trkpt lat="52.544813" lon="13.384456"><time>2024-01-19T11:14:24.000Z</time></trkpt><trkpt lat="52.544786" lon="13.384402"><time>2024-01-19T11:14:28.000Z</time></trkpt><trkpt lat="52.544751" lon="13.384347"><time>2024-01-19T11:14:32.000Z</time></trkpt><trkpt lat="52.544722" lon="13.384298"><time>2024-01-19T11:14:36.000Z</time></trkpt><trkpt lat="52.544701" lon="13.384245"><time>2024-01-19T11:14:38.000Z</time></trkpt><trkpt lat="52.544695" lon="13.384197"><time>2024-01-19T11:14:42.000Z</time></trkpt><trkpt lat="52.544681" lon="13.384147"><time>2024-01-19T11:14:46.000Z</time></trkpt><trkpt lat="52.544663" lon="13.384088"><time>2024-01-19T11:14:50.000Z</time></trkpt><trkpt lat="52.544628" lon="13.38403"><time>2024-01-19T11:14:54.000Z</time></trkpt><trkpt lat="52.544597" lon="13.383963"><time>2024-01-19T11:14:58.000Z</time></trkpt><trkpt lat="52.544572" lon="13.383895"><time>2024-01-19T11:15:02.000Z</time></trkpt><trkpt lat="52.544559" lon="13.383826"><time>2024-01-19T11:15:06.000Z</time></trkpt><trkpt lat="52.544548" lon="13.383768"><time>2024-01-19T11:15:08.000Z</time></trkpt><trkpt lat="52.544534" lon="13.38372"><time>2024-01-19T11:15:10.000Z</time></trkpt><trkpt lat="52.544507" lon="13.383665"><time>2024-01-19T11:15:12.000Z</time></trkpt><trkpt lat="52.544469" lon="13.383616"><time>2024-01-19T11:15:16.000Z</time></trkpt><trkpt lat="52.544421" lon="13.383587"><time>2024-01-19T11:15:18.000Z</time></trkpt><trkpt lat="52.544382" lon="13.383574"><time>2024-01-19T11:15:22.000Z</time></trkpt><trkpt lat="52.544342" lon="13.383564"><time>2024-01-19T11:15:24.000Z</time></trkpt><trkpt lat="52.544314" lon="13.383533"><time>2024-01-19T11:15:28.000Z</time></trkpt><trkpt lat="52.544299" lon="13.383491"><time>2024-01-19T11:15:34.000Z</time></trkpt><trkpt lat="52.544299" lon="13.383434"><time>2024-01-19T11:15:36.000Z</time></trkpt><trkpt lat="52.544304" lon="13.383359"><time>2024-01-19T11:15:40.000Z</time></trkpt><trkpt lat="52.544303" lon="13.383278"><time>2024-01-19T11:15:44.000Z</time></trkpt><trkpt lat="52.544304" lon="13.383184"><time>2024-01-19T11:15:48.000Z</time></trkpt><trkpt lat="52.544306" lon="13.3831"><time>2024-01-19T11:15:52.000Z</time></trkpt><trkpt lat="52.544313" lon="13.383013"><time>2024-01-19T11:15:56.000Z</time></trkpt><trkpt lat="52.544326" lon="13.382937"><time>2024-01-19T11:16:00.000Z</time></trkpt><trkpt lat="52.544336" lon="13.382858"><time>2024-01-19T11:16:04.000Z</time></trkpt><trkpt lat="52.544342" lon="13.38278"><time>2024-01-19T11:16:08.000Z</time></trkpt><trkpt lat="52.544338" lon="13.382693"><time>2024-01-19T11:16:12.000Z</time></trkpt><trkpt lat="52.544333" lon="13.38262"><time>2024-01-19T11:16:16.000Z</time></trkpt><trkpt lat="52.544328" lon="13.382547"><time>2024-01-19T11:16:18.000Z</time></trkpt><trkpt lat="52.544319" lon="13.382483"><time>2024-01-19T11:16:22.000Z</time></trkpt><trkpt lat="52.544303" lon="13.38241"><time>2024-01-19T11:16:26.000Z</time></trkpt><trkpt lat="52.544285" lon="13.38235"><time>2024-01-19T11:16:30.000Z</time></trkpt><trkpt lat="52.544266" lon="13.382296"><time>2024-01-19T11:16:32.000Z</time></trkpt><trkpt lat="52.544254" lon="13.382241"><time>2024-01-19T11:16:34.000Z</time></trkpt><trkpt lat="52.54424" lon="13.382183"><time>2024-01-19T11:16:38.000Z</time></trkpt><trkpt lat="52.544235" lon="13.38211"><time>2024-01-19T11:16:42.000Z</time></trkpt><trkpt lat="52.544231" lon="13.382047"><time>2024-01-19T11:16:46.000Z</time></trkpt><trkpt lat="52.544229" lon="13.381967"><time>2024-01-19T11:16:48.000Z</time></trkpt><trkpt lat="52.544229" lon="13.38189"><time>2024-01-19T11:16:52.000Z</time></trkpt><trkpt lat="52.544229" lon="13.381803"><time>2024-01-19T11:16:56.000Z</time></trkpt><trkpt lat="52.544228" lon="13.381734"><time>2024-01-19T11:17:00.000Z</time></trkpt><trkpt lat="52.544218" lon="13.381676"><time>2024-01-19T11:17:02.000Z</time></trkpt><trkpt lat="52.544205" lon="13.381626"><time>2024-01-19T11:17:04.000Z</time></trkpt><trkpt lat="52.544192" lon="13.381575"><time>2024-01-19T11:17:06.000Z</time></trkpt><trkpt lat="52.544172" lon="13.381523"><time>2024-01-19T11:17:08.000Z</time></trkpt><trkpt lat="52.544145" lon="13.381475"><time>2024-01-19T11:17:12.000Z</time></trkpt><trkpt lat="52.544118" lon="13.381428"><time>2024-01-19T11:17:14.000Z</time></trkpt><trkpt lat="52.544097" lon="13.381378"><time>2024-01-19T11:17:16.000Z</time></trkpt><trkpt lat="52.544084" lon="13.381316"><time>2024-01-19T11:17:18.000Z</time></trkpt><trkpt lat="52.544067" lon="13.381263"><time>2024-01-19T11:17:20.000Z</time></trkpt><trkpt lat="52.544046" lon="13.381229"><time>2024-01-19T11:17:22.000Z</time></trkpt><trkpt lat="52.544016" lon="13.38121"><time>2024-01-19T11:17:26.000Z</time></trkpt><trkpt lat="52.54398" lon="13.381183"><time>2024-01-19T11:17:28.000Z</time></trkpt><trkpt lat="52.54394" lon="13.381146"><time>2024-01-19T11:17:32.000Z</time></trkpt><trkpt lat="52.543896" lon="13.381097"><time>2024-01-19T11:17:36.000Z</time></trkpt><trkpt lat="52.543857" lon="13.381042"><time>2024-01-19T11:17:40.000Z</time></trkpt><trkpt lat="52.543824" lon="13.38099"><time>2024-01-19T11:17:44.000Z</time></trkpt><trkpt lat="52.543797" lon="13.380947"><time>2024-01-19T11:17:46.000Z</time></trkpt><trkpt lat="52.543768" lon="13.380911"><time>2024-01-19T11:17:48.000Z</time></trkpt><trkpt lat="52.543734" lon="13.380875"><time>2024-01-19T11:17:52.000Z</time></trkpt><trkpt lat="52.543698" lon="13.380835"><time>2024-01-19T11:17:56.000Z</time></trkpt><trkpt lat="52.543666" lon="13.380799"><time>2024-01-19T11:17:58.000Z</time></trkpt><trkpt lat="52.543634" lon="13.380765"><time>2024-01-19T11:18:00.000Z</time></trkpt><trkpt lat="52.543601" lon="13.380755"><time>2024-01-19T11:18:04.000Z</time></trkpt><trkpt lat="52.543563" lon="13.380749"><time>2024-01-19T11:18:08.000Z</time></trkpt><trkpt lat="52.543529" lon="13.380763"><time>2024-01-19T11:18:10.000Z</time></trkpt><trkpt lat="52.543496" lon="13.380787"><time>2024-01-19T11:18:12.000Z</time></trkpt><trkpt lat="52.543466" lon="13.380832"><time>2024-01-19T11:18:14.000Z</time></trkpt><trkpt lat="52.543434" lon="13.38088"><time>2024-01-19T11:18:16.000Z</time></trkpt><trkpt lat="52.543402" lon="13.380918"><time>2024-01-19T11:18:18.000Z</time></trkpt><trkpt lat="52.543372" lon="13.380957"><time>2024-01-19T11:18:20.000Z</time></trkpt><trkpt lat="52.543346" lon="13.380994"><time>2024-01-19T11:18:22.000Z</time></trkpt><trkpt lat="52.543322" lon="13.381044"><time>2024-01-19T11:18:26.000Z</time></trkpt><trkpt lat="52.543303" lon="13.381104"><time>2024-01-19T11:18:30.000Z</time></trkpt><trkpt lat="52.54328" lon="13.38116"><time>2024-01-19T11:18:32.000Z</time></trkpt><trkpt lat="52.543257" lon="13.381203"><time>2024-01-19T11:18:36.000Z</time></trkpt><trkpt lat="52.543229" lon="13.381231"><time>2024-01-19T11:18:38.000Z</time></trkpt><trkpt lat="52.543202" lon="13.381254"><time>2024-01-19T11:18:42.000Z</time></trkpt><trkpt lat="52.543172" lon="13.381273"><time>2024-01-19T11:18:44.000Z</time></trkpt><trkpt lat="52.543141" lon="13.381303"><time>2024-01-19T11:18:48.000Z</time></trkpt><trkpt lat="52.543112" lon="13.38134"><time>2024-01-19T11:18:52.000Z</time></trkpt><trkpt lat="52.543087" lon="13.381387"><time>2024-01-19T11:18:54.000Z</time></trkpt><trkpt lat="52.543063" lon="13.381432"><time>2024-01-19T11:18:56.000Z</time></trkpt><trkpt lat="52.543042" lon="13.381481"><time>2024-01-19T11:18:58.000Z</time></trkpt><trkpt lat="52.54302" lon="13.381542"><time>2024-01-19T11:19:02.000Z</time></trkpt><trkpt lat="52.543003" lon="13.3816"><time>2024-01-19T11:19:06.000Z</time></trkpt><trkpt lat="52.542988" lon="13.381657"><time>2024-01-19T11:19:08.000Z</time></trkpt><trkpt lat="52.542973" lon="13.381702"><time>2024-01-19T11:19:10.000Z</time></trkpt><trkpt lat="52.542957" lon="13.381743"><time>2024-01-19T11:19:12.000Z</time></trkpt><trkpt lat="52.542936" lon="13.381779"><time>2024-01-19T11:19:14.000Z</time></trkpt><trkpt lat="52.542912" lon="13.381813"><time>2024-01-19T11:19:16.000Z</time></trkpt><trkpt lat="52.542889" lon="13.381852"><time>2024-01-19T11:19:18.000Z</time></trkpt><trkpt lat="52.542867" lon="13.381891"><time>2024-01-19T11:19:20.000Z</time></trkpt><trkpt lat="52.542845" lon="13.381945"><time>2024-01-19T11:19:24.000Z</time></trkpt><trkpt lat="52.542815" lon="13.382"><time>2024-01-19T11:19:28.000Z</time></trkpt><trkpt lat="52.542787" lon="13.382056"><time>2024-01-19T11:19:32.000Z</time></trkpt><trkpt lat="52.542756" lon="13.382118"><time>2024-01-19T11:19:34.000Z</time></trkpt><trkpt lat="52.542726" lon="13.382177"><time>2024-01-19T11:19:38.000Z</time></trkpt><trkpt lat="52.542689" lon="13.382246"><time>2024-01-19T11:19:42.000Z</time></trkpt><trkpt lat="52.542658" lon="13.382307"><time>2024-01-19T11:19:46.000Z</time></trkpt><trkpt lat="52.542626" lon="13.382373"><time>2024-01-19T11:19:50.000Z</time></trkpt><trkpt lat="52.542594" lon="13.382431"><time>2024-01-19T11:19:54.000Z</time></trkpt><trkpt lat="52.542558" lon="13.382489"><time>2024-01-19T11:19:58.000Z</time></trkpt><trkpt lat="52.542515" lon="13.382543"><time>2024-01-19T11:20:02.000Z</time></trkpt><trkpt lat="52.542471" lon="13.382605"><time>2024-01-19T11:20:06.000Z</time></trkpt><trkpt lat="52.542429" lon="13.382662"><time>2024-01-19T11:20:10.000Z</time></trkpt><trkpt lat="52.542367" lon="13.382743"><time>2024-01-19T11:20:12.000Z</time></trkpt><trkpt lat="52.542296" lon="13.382862"><time>2024-01-19T11:20:18.000Z</time></trkpt><trkpt lat="52.542257" lon="13.382851"><time>2024-01-19T11:20:28.000Z</time></trkpt><trkpt lat="52.542244" lon="13.382791"><time>2024-01-19T11:20:38.000Z</time></trkpt><trkpt lat="52.542236" lon="13.382678"><time>2024-01-19T11:20:42.000Z</time></trkpt><trkpt lat="52.542202" lon="13.382723"><time>2024-01-19T11:20:48.000Z</time></trkpt><trkpt lat="52.542183" lon="13.382792"><time>2024-01-19T11:20:54.000Z</time></trkpt><trkpt lat="52.542124" lon="13.382856"><time>2024-01-19T11:20:56.000Z</time></trkpt><trkpt lat="52.542059" lon="13.382867"><time>2024-01-19T11:21:10.000Z</time></trkpt><trkpt lat="52.541981" lon="13.382874"><time>2024-01-19T11:21:16.000Z</time></trkpt><trkpt lat="52.541953" lon="13.3829"><time>2024-01-19T11:21:20.000Z</time></trkpt><trkpt lat="52.541928" lon="13.382946"><time>2024-01-19T11:21:24.000Z</time></trkpt><trkpt lat="52.541896" lon="13.382986"><time>2024-01-19T11:21:26.000Z</time></trkpt><trkpt lat="52.541879" lon="13.383017"><time>2024-01-19T11:21:30.000Z</time></trkpt><trkpt lat="52.541853" lon="13.38305"><time>2024-01-19T11:21:32.000Z</time></trkpt><trkpt lat="52.541837" lon="13.383084"><time>2024-01-19T11:21:34.000Z</time></trkpt><trkpt lat="52.541798" lon="13.383115"><time>2024-01-19T11:21:36.000Z</time></trkpt><trkpt lat="52.541764" lon="13.383139"><time>2024-01-19T11:21:40.000Z</time></trkpt><trkpt lat="52.541729" lon="13.383154"><time>2024-01-19T11:21:42.000Z</time></trkpt><trkpt lat="52.541695" lon="13.383188"><time>2024-01-19T11:21:44.000Z</time></trkpt><trkpt lat="52.541654" lon="13.383238"><time>2024-01-19T11:21:48.000Z</time></trkpt><trkpt lat="52.541624" lon="13.383319"><time>2024-01-19T11:21:50.000Z</time></trkpt><trkpt lat="52.5416" lon="13.383384"><time>2024-01-19T11:21:52.000Z</time></trkpt><trkpt lat="52.541584" lon="13.383441"><time>2024-01-19T11:21:54.000Z</time></trkpt><trkpt lat="52.541565" lon="13.383492"><time>2024-01-19T11:21:56.000Z</time></trkpt><trkpt lat="52.541546" lon="13.383551"><time>2024-01-19T11:21:58.000Z</time></trkpt><trkpt lat="52.541528" lon="13.383606"><time>2024-01-19T11:22:00.000Z</time></trkpt><trkpt lat="52.54151" lon="13.383657"><time>2024-01-19T11:22:02.000Z</time></trkpt><trkpt lat="52.54149" lon="13.383689"><time>2024-01-19T11:22:04.000Z</time></trkpt><trkpt lat="52.541447" lon="13.383742"><time>2024-01-19T11:22:06.000Z</time></trkpt><trkpt lat="52.541391" lon="13.383782"><time>2024-01-19T11:22:10.000Z</time></trkpt><trkpt lat="52.541331" lon="13.383826"><time>2024-01-19T11:22:12.000Z</time></trkpt><trkpt lat="52.541292" lon="13.383848"><time>2024-01-19T11:22:14.000Z</time></trkpt><trkpt lat="52.541237" lon="13.383885"><time>2024-01-19T11:22:16.000Z</time></trkpt><trkpt lat="52.541181" lon="13.383942"><time>2024-01-19T11:22:20.000Z</time></trkpt><trkpt lat="52.541127" lon="13.383993"><time>2024-01-19T11:22:24.000Z</time></trkpt><trkpt lat="52.541086" lon="13.384008"><time>2024-01-19T11:22:26.000Z</time></trkpt><trkpt lat="52.54105" lon="13.383985"><time>2024-01-19T11:22:30.000Z</time></trkpt><trkpt lat="52.541015" lon="13.383956"><time>2024-01-19T11:22:32.000Z</time></trkpt><trkpt lat="52.540978" lon="13.383952"><time>2024-01-19T11:22:34.000Z</time></trkpt><trkpt lat="52.540938" lon="13.383963"><time>2024-01-19T11:22:38.000Z</time></trkpt><trkpt lat="52.540897" lon="13.383982"><time>2024-01-19T11:22:40.000Z</time></trkpt><trkpt lat="52.540865" lon="13.383997"><time>2024-01-19T11:22:42.000Z</time></trkpt><trkpt lat="52.540831" lon="13.384012"><time>2024-01-19T11:22:44.000Z</time></trkpt><trkpt lat="52.540788" lon="13.384025"><time>2024-01-19T11:22:46.000Z</time></trkpt><trkpt lat="52.540745" lon="13.38405"><time>2024-01-19T11:22:50.000Z</time></trkpt><trkpt lat="52.540706" lon="13.384079"><time>2024-01-19T11:22:54.000Z</time></trkpt><trkpt lat="52.540674" lon="13.384115"><time>2024-01-19T11:23:00.000Z</time></trkpt><trkpt lat="52.540661" lon="13.384139"><time>2024-01-19T11:23:04.000Z</time></trkpt><trkpt lat="52.540658" lon="13.384179"><time>2024-01-19T11:23:06.000Z</time></trkpt><trkpt lat="52.540638" lon="13.384268"><time>2024-01-19T11:23:10.000Z</time></trkpt><trkpt lat="52.540603" lon="13.384363"><time>2024-01-19T11:23:18.000Z</time></trkpt><trkpt lat="52.540543" lon="13.384433"><time>2024-01-19T11:23:22.000Z</time></trkpt><trkpt lat="52.540498" lon="13.384467"><time>2024-01-19T11:23:28.000Z</time></trkpt><trkpt lat="52.540449" lon="13.384489"><time>2024-01-19T11:23:32.000Z</time></trkpt><trkpt lat="52.540414" lon="13.384542"><time>2024-01-19T11:23:34.000Z</time></trkpt><trkpt lat="52.540375" lon="13.384598"><time>2024-01-19T11:23:42.000Z</time></trkpt><trkpt lat="52.540333" lon="13.384666"><time>2024-01-19T11:23:46.000Z</time></trkpt><trkpt lat="52.540227" lon="13.384728"><time>2024-01-19T11:23:48.000Z</time></trkpt><trkpt lat="52.540094" lon="13.384781"><time>2024-01-19T11:23:56.000Z</time></trkpt><trkpt lat="52.539967" lon="13.384808"><time>2024-01-19T11:24:02.000Z</time></trkpt><trkpt lat="52.539907" lon="13.384797"><time>2024-01-19T11:24:06.000Z</time></trkpt><trkpt lat="52.539882" lon="13.384772"><time>2024-01-19T11:24:16.000Z</time></trkpt><trkpt lat="52.539851" lon="13.384754"><time>2024-01-19T11:24:20.000Z</time></trkpt><trkpt lat="52.539807" lon="13.38473"><time>2024-01-19T11:24:24.000Z</time></trkpt><trkpt lat="52.539763" lon="13.384703"><time>2024-01-19T11:24:28.000Z</time></trkpt><trkpt lat="52.539719" lon="13.384679"><time>2024-01-19T11:24:30.000Z</time></trkpt><trkpt lat="52.539675" lon="13.384674"><time>2024-01-19T11:24:32.000Z</time></trkpt><trkpt lat="52.539632" lon="13.384671"><time>2024-01-19T11:24:36.000Z</time></trkpt><trkpt lat="52.539591" lon="13.38466"><time>2024-01-19T11:24:38.000Z</time></trkpt><trkpt lat="52.539557" lon="13.384624"><time>2024-01-19T11:24:42.000Z</time></trkpt><trkpt lat="52.539524" lon="13.384563"><time>2024-01-19T11:24:46.000Z</time></trkpt><trkpt lat="52.5395" lon="13.384498"><time>2024-01-19T11:24:50.000Z</time></trkpt><trkpt lat="52.539482" lon="13.384437"><time>2024-01-19T11:24:52.000Z</time></trkpt><trkpt lat="52.539462" lon="13.384391"><time>2024-01-19T11:24:56.000Z</time></trkpt><trkpt lat="52.539428" lon="13.38435"><time>2024-01-19T11:25:00.000Z</time></trkpt><trkpt lat="52.539388" lon="13.384313"><time>2024-01-19T11:25:04.000Z</time></trkpt><trkpt lat="52.539348" lon="13.384274"><time>2024-01-19T11:25:08.000Z</time></trkpt><trkpt lat="52.539313" lon="13.38424"><time>2024-01-19T11:25:12.000Z</time></trkpt><trkpt lat="52.53928" lon="13.384207"><time>2024-01-19T11:25:14.000Z</time></trkpt><trkpt lat="52.539246" lon="13.384176"><time>2024-01-19T11:25:16.000Z</time></trkpt><trkpt lat="52.539209" lon="13.384146"><time>2024-01-19T11:25:20.000Z</time></trkpt><trkpt lat="52.539166" lon="13.384119"><time>2024-01-19T11:25:24.000Z</time></trkpt><trkpt lat="52.53913" lon="13.384095"><time>2024-01-19T11:25:28.000Z</time></trkpt><trkpt lat="52.539093" lon="13.384062"><time>2024-01-19T11:25:30.000Z</time></trkpt><trkpt lat="52.539066" lon="13.384028"><time>2024-01-19T11:25:34.000Z</time></trkpt><trkpt lat="52.53904" lon="13.38399"><time>2024-01-19T11:25:36.000Z</time></trkpt><trkpt lat="52.539016" lon="13.383963"><time>2024-01-19T11:25:38.000Z</time></trkpt><trkpt lat="52.538989" lon="13.383942"><time>2024-01-19T11:25:40.000Z</time></trkpt><trkpt lat="52.538963" lon="13.383921"><time>2024-01-19T11:25:42.000Z</time></trkpt><trkpt lat="52.538945" lon="13.383884"><time>2024-01-19T11:25:44.000Z</time></trkpt><trkpt lat="52.538934" lon="13.383833"><time>2024-01-19T11:25:46.000Z</time></trkpt><trkpt lat="52.538928" lon="13.383772"><time>2024-01-19T11:25:48.000Z</time></trkpt><trkpt lat="52.538915" lon="13.383712"><time>2024-01-19T11:25:52.000Z</time></trkpt><trkpt lat="52.538895" lon="13.383649"><time>2024-01-19T11:25:56.000Z</time></trkpt><trkpt lat="52.538864" lon="13.38359"><time>2024-01-19T11:26:00.000Z</time></trkpt><trkpt lat="52.538827" lon="13.383547"><time>2024-01-19T11:26:04.000Z</time></trkpt><trkpt lat="52.538783" lon="13.383531"><time>2024-01-19T11:26:06.000Z</time></trkpt><trkpt lat="52.538737" lon="13.383548"><time>2024-01-19T11:26:10.000Z</time></trkpt><trkpt lat="52.538697" lon="13.383592"><time>2024-01-19T11:26:14.000Z</time></trkpt><trkpt lat="52.538643" lon="13.383681"><time>2024-01-19T11:26:18.000Z</time></trkpt><trkpt lat="52.538602" lon="13.383773"><time>2024-01-19T11:26:26.000Z</time></trkpt><trkpt lat="52.538557" lon="13.383846"><time>2024-01-19T11:26:30.000Z</time></trkpt><trkpt lat="52.538538" lon="13.383853"><time>2024-01-19T11:26:32.000Z</time></trkpt><trkpt lat="52.538518" lon="13.383818"><time>2024-01-19T11:26:34.000Z</time></trkpt><trkpt lat="52.538497" lon="13.383767"><time>2024-01-19T11:26:36.000Z</time></trkpt><trkpt lat="52.538469" lon="13.383727"><time>2024-01-19T11:26:40.000Z</time></trkpt><trkpt lat="52.538436" lon="13.383692"><time>2024-01-19T11:26:42.000Z</time></trkpt><trkpt lat="52.53841" lon="13.383617"><time>2024-01-19T11:26:46.000Z</time></trkpt><trkpt lat="52.538388" lon="13.383538"><time>2024-01-19T11:26:50.000Z</time></trkpt><trkpt lat="52.538372" lon="13.383454"><time>2024-01-19T11:26:52.000Z</time></trkpt><trkpt lat="52.538352" lon="13.383411"><time>2024-01-19T11:26:56.000Z</time></trkpt><trkpt lat="52.538331" lon="13.383368"><time>2024-01-19T11:26:58.000Z</time></trkpt><trkpt lat="52.538301" lon="13.383338"><time>2024-01-19T11:27:00.000Z</time></trkpt><trkpt lat="52.538265" lon="13.383311"><time>2024-01-19T11:27:04.000Z</time></trkpt><trkpt lat="52.538227" lon="13.383292"><time>2024-01-19T11:27:08.000Z</time></trkpt><trkpt lat="52.538203" lon="13.383306"><time>2024-01-19T11:27:12.000Z</time></trkpt><trkpt lat="52.538182" lon="13.383326"><time>2024-01-19T11:27:18.000Z</time></trkpt><trkpt lat="52.538154" lon="13.383347"><time>2024-01-19T11:27:24.000Z</time></trkpt><trkpt lat="52.538113" lon="13.383334"><time>2024-01-19T11:27:38.000Z</time></trkpt><trkpt lat="52.538075" lon="13.383321"><time>2024-01-19T11:27:42.000Z</time></trkpt><trkpt lat="52.538045" lon="13.383302"><time>2024-01-19T11:27:46.000Z</time></trkpt><trkpt lat="52.538047" lon="13.383262"><time>2024-01-19T11:27:50.000Z</time></trkpt><trkpt lat="52.53805" lon="13.383233"><time>2024-01-19T11:28:08.000Z</time></trkpt><trkpt lat="52.538025" lon="13.38304"><time>2024-01-19T11:28:58.000Z</time></trkpt><trkpt lat="52.538038" lon="13.383103"><time>2024-01-19T11:29:34.000Z</time></trkpt><trkpt lat="52.538003" lon="13.383232"><time>2024-01-19T11:30:36.000Z</time></trkpt><trkpt lat="52.538002" lon="13.383305"><time>2024-01-19T11:30:50.000Z</time></trkpt><trkpt lat="52.538028" lon="13.383321"><time>2024-01-19T11:30:58.000Z</time></trkpt><trkpt lat="52.538055" lon="13.383254"><time>2024-01-19T11:31:00.000Z</time></trkpt><trkpt lat="52.538029" lon="13.383237"><time>2024-01-19T11:31:14.000Z</time></trkpt><trkpt lat="52.537981" lon="13.383218"><time>2024-01-19T11:31:18.000Z</time></trkpt><trkpt lat="52.537939" lon="13.383213"><time>2024-01-19T11:31:22.000Z</time></trkpt><trkpt lat="52.537901" lon="13.383179"><time>2024-01-19T11:31:24.000Z</time></trkpt><trkpt lat="52.53787" lon="13.383164"><time>2024-01-19T11:31:28.000Z</time></trkpt><trkpt lat="52.537838" lon="13.383105"><time>2024-01-19T11:32:28.000Z</time></trkpt><trkpt lat="52.537799" lon="13.383078"><time>2024-01-19T11:32:32.000Z</time></trkpt><trkpt lat="52.537756" lon="13.383077"><time>2024-01-19T11:32:36.000Z</time></trkpt><trkpt lat="52.537712" lon="13.383101"><time>2024-01-19T11:32:40.000Z</time></trkpt><trkpt lat="52.537667" lon="13.383122"><time>2024-01-19T11:32:44.000Z</time></trkpt><trkpt lat="52.53763" lon="13.383139"><time>2024-01-19T11:32:48.000Z</time></trkpt><trkpt lat="52.537593" lon="13.383151"><time>2024-01-19T11:32:50.000Z</time></trkpt><trkpt lat="52.537555" lon="13.383169"><time>2024-01-19T11:32:54.000Z</time></trkpt><trkpt lat="52.537514" lon="13.383182"><time>2024-01-19T11:32:58.000Z</time></trkpt><trkpt lat="52.537485" lon="13.383205"><time>2024-01-19T11:33:02.000Z</time></trkpt><trkpt lat="52.537484" lon="13.383243"><time>2024-01-19T11:33:04.000Z</time></trkpt><trkpt lat="52.537507" lon="13.383266"><time>2024-01-19T11:33:08.000Z</time></trkpt><trkpt lat="52.537445" lon="13.383275"><time>2024-01-19T11:34:42.000Z</time></trkpt><trkpt lat="52.537533" lon="13.383435"><time>2024-01-19T11:35:08.000Z</time></trkpt><trkpt lat="52.537452" lon="13.383303"><time>2024-01-19T11:35:36.000Z</time></trkpt><trkpt lat="52.537393" lon="13.38336"><time>2024-01-19T11:36:24.000Z</time></trkpt><trkpt lat="52.537358" lon="13.383337"><time>2024-01-19T11:36:28.000Z</time></trkpt><trkpt lat="52.537319" lon="13.383307"><time>2024-01-19T11:36:30.000Z</time></trkpt><trkpt lat="52.53728" lon="13.383288"><time>2024-01-19T11:36:32.000Z</time></trkpt><trkpt lat="52.537245" lon="13.38329"><time>2024-01-19T11:36:34.000Z</time></trkpt><trkpt lat="52.537212" lon="13.383331"><time>2024-01-19T11:36:36.000Z</time></trkpt><trkpt lat="52.537177" lon="13.383387"><time>2024-01-19T11:36:40.000Z</time></trkpt><trkpt lat="52.53713" lon="13.383459"><time>2024-01-19T11:36:44.000Z</time></trkpt><trkpt lat="52.53709" lon="13.383519"><time>2024-01-19T11:36:48.000Z</time></trkpt><trkpt lat="52.537055" lon="13.383579"><time>2024-01-19T11:36:50.000Z</time></trkpt><trkpt lat="52.537029" lon="13.383612"><time>2024-01-19T11:36:54.000Z</time></trkpt><trkpt lat="52.536994" lon="13.38364"><time>2024-01-19T11:36:56.000Z</time></trkpt><trkpt lat="52.536953" lon="13.383657"><time>2024-01-19T11:37:00.000Z</time></trkpt><trkpt lat="52.536913" lon="13.383671"><time>2024-01-19T11:37:04.000Z</time></trkpt><trkpt lat="52.536878" lon="13.383679"><time>2024-01-19T11:37:06.000Z</time></trkpt><trkpt lat="52.536849" lon="13.383685"><time>2024-01-19T11:37:08.000Z</time></trkpt><trkpt lat="52.536818" lon="13.383699"><time>2024-01-19T11:37:10.000Z</time></trkpt><trkpt lat="52.536785" lon="13.383712"><time>2024-01-19T11:37:14.000Z</time></trkpt><trkpt lat="52.536753" lon="13.383688"><time>2024-01-19T11:37:18.000Z</time></trkpt><trkpt lat="52.536728" lon="13.383637"><time>2024-01-19T11:37:22.000Z</time></trkpt><trkpt lat="52.536709" lon="13.383574"><time>2024-01-19T11:37:24.000Z</time></trkpt><trkpt lat="52.536702" lon="13.383522"><time>2024-01-19T11:37:26.000Z</time></trkpt><trkpt lat="52.536696" lon="13.383459"><time>2024-01-19T11:37:28.000Z</time></trkpt><trkpt lat="52.536711" lon="13.383402"><time>2024-01-19T11:37:34.000Z</time></trkpt><trkpt lat="52.536732" lon="13.383362"><time>2024-01-19T11:37:40.000Z</time></trkpt><trkpt lat="52.536763" lon="13.383338"><time>2024-01-19T11:37:42.000Z</time></trkpt><trkpt lat="52.536788" lon="13.383313"><time>2024-01-19T11:37:44.000Z</time></trkpt><trkpt lat="52.536817" lon="13.383277"><time>2024-01-19T11:37:46.000Z</time></trkpt><trkpt lat="52.536848" lon="13.383238"><time>2024-01-19T11:37:50.000Z</time></trkpt><trkpt lat="52.536879" lon="13.383201"><time>2024-01-19T11:37:52.000Z</time></trkpt><trkpt lat="52.536908" lon="13.383169"><time>2024-01-19T11:37:54.000Z</time></trkpt><trkpt lat="52.536938" lon="13.383142"><time>2024-01-19T11:37:58.000Z</time></trkpt><trkpt lat="52.536971" lon="13.383115"><time>2024-01-19T11:38:00.000Z</time></trkpt><trkpt lat="52.536998" lon="13.383075"><time>2024-01-19T11:38:02.000Z</time></trkpt><trkpt lat="52.537024" lon="13.383035"><time>2024-01-19T11:38:06.000Z</time></trkpt><trkpt lat="52.53705" lon="13.382986"><time>2024-01-19T11:38:08.000Z</time></trkpt><trkpt lat="52.537077" lon="13.382954"><time>2024-01-19T11:38:12.000Z</time></trkpt><trkpt lat="52.537114" lon="13.382916"><time>2024-01-19T11:38:14.000Z</time></trkpt><trkpt lat="52.537155" lon="13.382882"><time>2024-01-19T11:38:18.000Z</time></trkpt><trkpt lat="52.537189" lon="13.382833"><time>2024-01-19T11:38:22.000Z</time></trkpt><trkpt lat="52.537226" lon="13.382792"><time>2024-01-19T11:38:24.000Z</time></trkpt><trkpt lat="52.53726" lon="13.382756"><time>2024-01-19T11:38:28.000Z</time></trkpt><trkpt lat="52.537303" lon="13.382732"><time>2024-01-19T11:38:30.000Z</time></trkpt><trkpt lat="52.537334" lon="13.3827"><time>2024-01-19T11:38:32.000Z</time></trkpt><trkpt lat="52.53737" lon="13.382663"><time>2024-01-19T11:38:36.000Z</time></trkpt><trkpt lat="52.537404" lon="13.382622"><time>2024-01-19T11:38:38.000Z</time></trkpt><trkpt lat="52.537437" lon="13.382586"><time>2024-01-19T11:38:40.000Z</time></trkpt><trkpt lat="52.537464" lon="13.382566"><time>2024-01-19T11:38:42.000Z</time></trkpt><trkpt lat="52.537485" lon="13.38254"><time>2024-01-19T11:38:44.000Z</time></trkpt><trkpt lat="52.537505" lon="13.382509"><time>2024-01-19T11:38:48.000Z</time></trkpt><trkpt lat="52.537528" lon="13.382459"><time>2024-01-19T11:38:52.000Z</time></trkpt><trkpt lat="52.537547" lon="13.382409"><time>2024-01-19T11:38:56.000Z</time></trkpt><trkpt lat="52.537577" lon="13.382366"><time>2024-01-19T11:38:58.000Z</time></trkpt><trkpt lat="52.537599" lon="13.382321"><time>2024-01-19T11:39:02.000Z</time></trkpt><trkpt lat="52.537636" lon="13.382276"><time>2024-01-19T11:39:04.000Z</time></trkpt><trkpt lat="52.537672" lon="13.382224"><time>2024-01-19T11:39:08.000Z</time></trkpt><trkpt lat="52.537713" lon="13.382181"><time>2024-01-19T11:39:12.000Z</time></trkpt><trkpt lat="52.537741" lon="13.382135"><time>2024-01-19T11:39:14.000Z</time></trkpt><trkpt lat="52.537747" lon="13.382094"><time>2024-01-19T11:39:16.000Z</time></trkpt><trkpt lat="52.537739" lon="13.382046"><time>2024-01-19T11:39:18.000Z</time></trkpt><trkpt lat="52.537719" lon="13.382012"><time>2024-01-19T11:39:20.000Z</time></trkpt><trkpt lat="52.537682" lon="13.381988"><time>2024-01-19T11:39:22.000Z</time></trkpt><trkpt lat="52.537641" lon="13.381984"><time>2024-01-19T11:39:26.000Z</time></trkpt><trkpt lat="52.537599" lon="13.38199"><time>2024-01-19T11:39:28.000Z</time></trkpt><trkpt lat="52.537565" lon="13.382007"><time>2024-01-19T11:39:30.000Z</time></trkpt><trkpt lat="52.537527" lon="13.382029"><time>2024-01-19T11:39:34.000Z</time></trkpt><trkpt lat="52.537485" lon="13.382061"><time>2024-01-19T11:39:38.000Z</time></trkpt><trkpt lat="52.537442" lon="13.382095"><time>2024-01-19T11:39:42.000Z</time></trkpt><trkpt lat="52.537398" lon="13.382125"><time>2024-01-19T11:39:46.000Z</time></trkpt><trkpt lat="52.537357" lon="13.382157"><time>2024-01-19T11:39:48.000Z</time></trkpt><trkpt lat="52.537325" lon="13.382191"><time>2024-01-19T11:39:52.000Z</time></trkpt><trkpt lat="52.5373" lon="13.382227"><time>2024-01-19T11:39:54.000Z</time></trkpt><trkpt lat="52.537277" lon="13.382252"><time>2024-01-19T11:39:56.000Z</time></trkpt><trkpt lat="52.537252" lon="13.382274"><time>2024-01-19T11:39:58.000Z</time></trkpt><trkpt lat="52.53722" lon="13.382296"><time>2024-01-19T11:40:00.000Z</time></trkpt><trkpt lat="52.537184" lon="13.382323"><time>2024-01-19T11:40:04.000Z</time></trkpt><trkpt lat="52.537141" lon="13.382356"><time>2024-01-19T11:40:08.000Z</time></trkpt><trkpt lat="52.537101" lon="13.382384"><time>2024-01-19T11:40:12.000Z</time></trkpt><trkpt lat="52.537065" lon="13.382411"><time>2024-01-19T11:40:14.000Z</time></trkpt><trkpt lat="52.537038" lon="13.382432"><time>2024-01-19T11:40:16.000Z</time></trkpt><trkpt lat="52.537008" lon="13.382458"><time>2024-01-19T11:40:18.000Z</time></trkpt><trkpt lat="52.536971" lon="13.382487"><time>2024-01-19T11:40:22.000Z</time></trkpt><trkpt lat="52.536937" lon="13.382518"><time>2024-01-19T11:40:26.000Z</time></trkpt><trkpt lat="52.536902" lon="13.382549"><time>2024-01-19T11:40:28.000Z</time></trkpt><trkpt lat="52.536868" lon="13.382578"><time>2024-01-19T11:40:30.000Z</time></trkpt><trkpt lat="52.536829" lon="13.382612"><time>2024-01-19T11:40:34.000Z</time></trkpt><trkpt lat="52.536793" lon="13.382645"><time>2024-01-19T11:40:38.000Z</time></trkpt><trkpt lat="52.536762" lon="13.382675"><time>2024-01-19T11:40:40.000Z</time></trkpt><trkpt lat="52.536729" lon="13.3827"><time>2024-01-19T11:40:42.000Z</time></trkpt><trkpt lat="52.536691" lon="13.382731"><time>2024-01-19T11:40:46.000Z</time></trkpt><trkpt lat="52.536649" lon="13.382767"><time>2024-01-19T11:40:50.000Z</time></trkpt><trkpt lat="52.536613" lon="13.382802"><time>2024-01-19T11:40:54.000Z</time></trkpt><trkpt lat="52.536579" lon="13.382833"><time>2024-01-19T11:40:56.000Z</time></trkpt><trkpt lat="52.536543" lon="13.38286"><time>2024-01-19T11:41:00.000Z</time></trkpt><trkpt lat="52.536502" lon="13.382893"><time>2024-01-19T11:41:04.000Z</time></trkpt><trkpt lat="52.536459" lon="13.382926"><time>2024-01-19T11:41:08.000Z</time></trkpt><trkpt lat="52.536421" lon="13.382964"><time>2024-01-19T11:41:12.000Z</time></trkpt><trkpt lat="52.536384" lon="13.383004"><time>2024-01-19T11:41:14.000Z</time></trkpt><trkpt lat="52.536348" lon="13.383038"><time>2024-01-19T11:41:18.000Z</time></trkpt><trkpt lat="52.536312" lon="13.383083"><time>2024-01-19T11:41:20.000Z</time></trkpt><trkpt lat="52.536283" lon="13.383126"><time>2024-01-19T11:41:24.000Z</time></trkpt><trkpt lat="52.536253" lon="13.383184"><time>2024-01-19T11:41:26.000Z</time></trkpt><trkpt lat="52.536223" lon="13.383233"><time>2024-01-19T11:41:30.000Z</time></trkpt><trkpt lat="52.536185" lon="13.383285"><time>2024-01-19T11:41:34.000Z</time></trkpt><trkpt lat="52.536153" lon="13.383328"><time>2024-01-19T11:41:40.000Z</time></trkpt><trkpt lat="52.536117" lon="13.383373"><time>2024-01-19T11:41:42.000Z</time></trkpt><trkpt lat="52.536088" lon="13.383413"><time>2024-01-19T11:41:46.000Z</time></trkpt><trkpt lat="52.536059" lon="13.383459"><time>2024-01-19T11:41:48.000Z</time></trkpt><trkpt lat="52.536034" lon="13.383493"><time>2024-01-19T11:41:52.000Z</time></trkpt><trkpt lat="52.535996" lon="13.383533"><time>2024-01-19T11:41:54.000Z</time></trkpt><trkpt lat="52.535962" lon="13.383571"><time>2024-01-19T11:41:58.000Z</time></trkpt><trkpt lat="52.535924" lon="13.383619"><time>2024-01-19T11:42:00.000Z</time></trkpt><trkpt lat="52.53589" lon="13.383662"><time>2024-01-19T11:42:04.000Z</time></trkpt><trkpt lat="52.535841" lon="13.383711"><time>2024-01-19T11:42:08.000Z</time></trkpt><trkpt lat="52.535799" lon="13.383764"><time>2024-01-19T11:42:12.000Z</time></trkpt><trkpt lat="52.535762" lon="13.383821"><time>2024-01-19T11:42:16.000Z</time></trkpt><trkpt lat="52.53574" lon="13.383875"><time>2024-01-19T11:42:20.000Z</time></trkpt><trkpt lat="52.535705" lon="13.383919"><time>2024-01-19T11:42:24.000Z</time></trkpt><trkpt lat="52.535662" lon="13.383962"><time>2024-01-19T11:42:28.000Z</time></trkpt><trkpt lat="52.535612" lon="13.384008"><time>2024-01-19T11:42:32.000Z</time></trkpt><trkpt lat="52.535564" lon="13.384058"><time>2024-01-19T11:42:36.000Z</time></trkpt><trkpt lat="52.535522" lon="13.384102"><time>2024-01-19T11:42:40.000Z</time></trkpt><trkpt lat="52.535479" lon="13.384142"><time>2024-01-19T11:42:44.000Z</time></trkpt><trkpt lat="52.535444" lon="13.384185"><time>2024-01-19T11:42:48.000Z</time></trkpt><trkpt lat="52.535413" lon="13.384231"><time>2024-01-19T11:42:52.000Z</time></trkpt><trkpt lat="52.535388" lon="13.384283"><time>2024-01-19T11:42:54.000Z</time></trkpt><trkpt lat="52.535357" lon="13.384333"><time>2024-01-19T11:42:58.000Z</time></trkpt><trkpt lat="52.535317" lon="13.384389"><time>2024-01-19T11:43:02.000Z</time></trkpt><trkpt lat="52.535267" lon="13.384439"><time>2024-01-19T11:43:06.000Z</time></trkpt><trkpt lat="52.535225" lon="13.384481"><time>2024-01-19T11:43:10.000Z</time></trkpt><trkpt lat="52.535189" lon="13.38451"><time>2024-01-19T11:43:12.000Z</time></trkpt><trkpt lat="52.535163" lon="13.384537"><time>2024-01-19T11:43:14.000Z</time></trkpt><trkpt lat="52.53514" lon="13.384567"><time>2024-01-19T11:43:16.000Z</time></trkpt><trkpt lat="52.535116" lon="13.384613"><time>2024-01-19T11:43:18.000Z</time></trkpt><trkpt lat="52.535092" lon="13.384657"><time>2024-01-19T11:43:22.000Z</time></trkpt><trkpt lat="52.535068" lon="13.3847"><time>2024-01-19T11:43:24.000Z</time></trkpt><trkpt lat="52.535041" lon="13.384735"><time>2024-01-19T11:43:26.000Z</time></trkpt><trkpt lat="52.535012" lon="13.384777"><time>2024-01-19T11:43:30.000Z</time></trkpt><trkpt lat="52.534979" lon="13.38483"><time>2024-01-19T11:43:34.000Z</time></trkpt><trkpt lat="52.53495" lon="13.384877"><time>2024-01-19T11:43:38.000Z</time></trkpt><trkpt lat="52.534918" lon="13.38492"><time>2024-01-19T11:43:40.000Z</time></trkpt><trkpt lat="52.53489" lon="13.384952"><time>2024-01-19T11:43:44.000Z</time></trkpt><trkpt lat="52.534861" lon="13.384984"><time>2024-01-19T11:43:46.000Z</time></trkpt><trkpt lat="52.534836" lon="13.385013"><time>2024-01-19T11:43:48.000Z</time></trkpt><trkpt lat="52.53481" lon="13.385052"><time>2024-01-19T11:43:50.000Z</time></trkpt><trkpt lat="52.53478" lon="13.385097"><time>2024-01-19T11:43:54.000Z</time></trkpt><trkpt lat="52.534749" lon="13.385154"><time>2024-01-19T11:43:58.000Z</time></trkpt><trkpt lat="52.534718" lon="13.385204"><time>2024-01-19T11:44:02.000Z</time></trkpt><trkpt lat="52.53467" lon="13.385247"><time>2024-01-19T11:44:04.000Z</time></trkpt><trkpt lat="52.534624" lon="13.385284"><time>2024-01-19T11:44:08.000Z</time></trkpt><trkpt lat="52.534574" lon="13.385327"><time>2024-01-19T11:44:10.000Z</time></trkpt><trkpt lat="52.534539" lon="13.385378"><time>2024-01-19T11:44:14.000Z</time></trkpt><trkpt lat="52.534506" lon="13.385425"><time>2024-01-19T11:44:18.000Z</time></trkpt><trkpt lat="52.534473" lon="13.385472"><time>2024-01-19T11:44:20.000Z</time></trkpt><trkpt lat="52.534447" lon="13.38551"><time>2024-01-19T11:44:24.000Z</time></trkpt><trkpt lat="52.534419" lon="13.38556"><time>2024-01-19T11:44:26.000Z</time></trkpt><trkpt lat="52.534398" lon="13.385611"><time>2024-01-19T11:44:30.000Z</time></trkpt><trkpt lat="52.534375" lon="13.385663"><time>2024-01-19T11:44:34.000Z</time></trkpt><trkpt lat="52.534352" lon="13.385703"><time>2024-01-19T11:44:38.000Z</time></trkpt><trkpt lat="52.534327" lon="13.385743"><time>2024-01-19T11:44:42.000Z</time></trkpt><trkpt lat="52.534303" lon="13.385793"><time>2024-01-19T11:44:46.000Z</time></trkpt><trkpt lat="52.534272" lon="13.385847"><time>2024-01-19T11:44:48.000Z</time></trkpt><trkpt lat="52.534238" lon="13.385892"><time>2024-01-19T11:44:50.000Z</time></trkpt><trkpt lat="52.534199" lon="13.38593"><time>2024-01-19T11:44:52.000Z</time></trkpt><trkpt lat="52.53417" lon="13.385973"><time>2024-01-19T11:44:54.000Z</time></trkpt><trkpt lat="52.534141" lon="13.386014"><time>2024-01-19T11:44:58.000Z</time></trkpt><trkpt lat="52.534118" lon="13.386062"><time>2024-01-19T11:45:02.000Z</time></trkpt><trkpt lat="52.53409" lon="13.386098"><time>2024-01-19T11:45:06.000Z</time></trkpt><trkpt lat="52.534062" lon="13.386142"><time>2024-01-19T11:45:10.000Z</time></trkpt><trkpt lat="52.534026" lon="13.386187"><time>2024-01-19T11:45:14.000Z</time></trkpt><trkpt lat="52.533991" lon="13.386238"><time>2024-01-19T11:45:18.000Z</time></trkpt><trkpt lat="52.53396" lon="13.386286"><time>2024-01-19T11:45:20.000Z</time></trkpt><trkpt lat="52.533933" lon="13.386324"><time>2024-01-19T11:45:22.000Z</time></trkpt><trkpt lat="52.533898" lon="13.386366"><time>2024-01-19T11:45:24.000Z</time></trkpt><trkpt lat="52.533864" lon="13.386402"><time>2024-01-19T11:45:28.000Z</time></trkpt><trkpt lat="52.533829" lon="13.386445"><time>2024-01-19T11:45:30.000Z</time></trkpt><trkpt lat="52.5338" lon="13.386473"><time>2024-01-19T11:45:34.000Z</time></trkpt><trkpt lat="52.533766" lon="13.38651"><time>2024-01-19T11:45:36.000Z</time></trkpt><trkpt lat="52.533732" lon="13.386554"><time>2024-01-19T11:45:40.000Z</time></trkpt><trkpt lat="52.533697" lon="13.386602"><time>2024-01-19T11:45:44.000Z</time></trkpt><trkpt lat="52.533667" lon="13.386645"><time>2024-01-19T11:45:46.000Z</time></trkpt><trkpt lat="52.533637" lon="13.386685"><time>2024-01-19T11:45:48.000Z</time></trkpt><trkpt lat="52.533611" lon="13.386727"><time>2024-01-19T11:45:52.000Z</time></trkpt><trkpt lat="52.533587" lon="13.386775"><time>2024-01-19T11:45:54.000Z</time></trkpt><trkpt lat="52.533567" lon="13.386816"><time>2024-01-19T11:45:58.000Z</time></trkpt><trkpt lat="52.533544" lon="13.386856"><time>2024-01-19T11:46:02.000Z</time></trkpt><trkpt lat="52.533515" lon="13.386886"><time>2024-01-19T11:46:04.000Z</time></trkpt><trkpt lat="52.53348" lon="13.386913"><time>2024-01-19T11:46:08.000Z</time></trkpt><trkpt lat="52.533441" lon="13.386943"><time>2024-01-19T11:46:12.000Z</time></trkpt><trkpt lat="52.533403" lon="13.386976"><time>2024-01-19T11:46:16.000Z</time></trkpt><trkpt lat="52.533367" lon="13.386991"><time>2024-01-19T11:46:20.000Z</time></trkpt><trkpt lat="52.533354" lon="13.386976"><time>2024-01-19T11:46:28.000Z</time></trkpt><trkpt lat="52.533347" lon="13.386932"><time>2024-01-19T11:46:34.000Z</time></trkpt><trkpt lat="52.533347" lon="13.386866"><time>2024-01-19T11:46:36.000Z</time></trkpt><trkpt lat="52.533335" lon="13.3868"><time>2024-01-19T11:46:38.000Z</time></trkpt><trkpt lat="52.533324" lon="13.386722"><time>2024-01-19T11:46:40.000Z</time></trkpt><trkpt lat="52.533314" lon="13.38665"><time>2024-01-19T11:46:42.000Z</time></trkpt><trkpt lat="52.533301" lon="13.386577"><time>2024-01-19T11:46:46.000Z</time></trkpt><trkpt lat="52.533287" lon="13.386518"><time>2024-01-19T11:46:50.000Z</time></trkpt><trkpt lat="52.533268" lon="13.386475"><time>2024-01-19T11:46:52.000Z</time></trkpt><trkpt lat="52.533256" lon="13.386436"><time>2024-01-19T11:46:54.000Z</time></trkpt><trkpt lat="52.533247" lon="13.386395"><time>2024-01-19T11:46:56.000Z</time></trkpt><trkpt lat="52.533229" lon="13.386334"><time>2024-01-19T11:46:58.000Z</time></trkpt><trkpt lat="52.533204" lon="13.386271"><time>2024-01-19T11:47:02.000Z</time></trkpt><trkpt lat="52.533169" lon="13.386212"><time>2024-01-19T11:47:04.000Z</time></trkpt><trkpt lat="52.53315" lon="13.386159"><time>2024-01-19T11:47:08.000Z</time></trkpt><trkpt lat="52.533129" lon="13.386106"><time>2024-01-19T11:47:12.000Z</time></trkpt><trkpt lat="52.533104" lon="13.38605"><time>2024-01-19T11:47:14.000Z</time></trkpt><trkpt lat="52.533073" lon="13.386004"><time>2024-01-19T11:47:18.000Z</time></trkpt><trkpt lat="52.533037" lon="13.385952"><time>2024-01-19T11:47:20.000Z</time></trkpt><trkpt lat="52.533012" lon="13.385878"><time>2024-01-19T11:47:24.000Z</time></trkpt><trkpt lat="52.532995" lon="13.385792"><time>2024-01-19T11:47:28.000Z</time></trkpt><trkpt lat="52.532983" lon="13.385723"><time>2024-01-19T11:47:32.000Z</time></trkpt><trkpt lat="52.532966" lon="13.385676"><time>2024-01-19T11:47:34.000Z</time></trkpt><trkpt lat="52.532947" lon="13.385637"><time>2024-01-19T11:47:36.000Z</time></trkpt><trkpt lat="52.532938" lon="13.385579"><time>2024-01-19T11:47:38.000Z</time></trkpt><trkpt lat="52.53294" lon="13.385521"><time>2024-01-19T11:47:40.000Z</time></trkpt><trkpt lat="52.532932" lon="13.385451"><time>2024-01-19T11:47:42.000Z</time></trkpt><trkpt lat="52.532916" lon="13.385397"><time>2024-01-19T11:47:46.000Z</time></trkpt><trkpt lat="52.532888" lon="13.385339"><time>2024-01-19T11:47:50.000Z</time></trkpt><trkpt lat="52.532857" lon="13.385289"><time>2024-01-19T11:47:52.000Z</time></trkpt><trkpt lat="52.532826" lon="13.385238"><time>2024-01-19T11:47:54.000Z</time></trkpt><trkpt lat="52.53279" lon="13.385194"><time>2024-01-19T11:47:58.000Z</time></trkpt><trkpt lat="52.53276" lon="13.385143"><time>2024-01-19T11:48:04.000Z</time></trkpt><trkpt lat="52.532731" lon="13.385097"><time>2024-01-19T11:48:08.000Z</time></trkpt><trkpt lat="52.532709" lon="13.38504"><time>2024-01-19T11:48:12.000Z</time></trkpt><trkpt lat="52.532683" lon="13.385004"><time>2024-01-19T11:48:16.000Z</time></trkpt><trkpt lat="52.532636" lon="13.384949"><time>2024-01-19T11:48:18.000Z</time></trkpt><trkpt lat="52.532579" lon="13.384916"><time>2024-01-19T11:48:24.000Z</time></trkpt><trkpt lat="52.532528" lon="13.384877"><time>2024-01-19T11:48:30.000Z</time></trkpt><trkpt lat="52.532494" lon="13.384849"><time>2024-01-19T11:48:32.000Z</time></trkpt><trkpt lat="52.53246" lon="13.384801"><time>2024-01-19T11:48:34.000Z</time></trkpt><trkpt lat="52.532418" lon="13.384751"><time>2024-01-19T11:48:38.000Z</time></trkpt><trkpt lat="52.532376" lon="13.384686"><time>2024-01-19T11:48:42.000Z</time></trkpt><trkpt lat="52.532345" lon="13.384619"><time>2024-01-19T11:48:46.000Z</time></trkpt><trkpt lat="52.532318" lon="13.384555"><time>2024-01-19T11:48:50.000Z</time></trkpt><trkpt lat="52.532293" lon="13.384512"><time>2024-01-19T11:48:52.000Z</time></trkpt><trkpt lat="52.532259" lon="13.384475"><time>2024-01-19T11:48:54.000Z</time></trkpt><trkpt lat="52.532221" lon="13.384435"><time>2024-01-19T11:48:58.000Z</time></trkpt><trkpt lat="52.532167" lon="13.384319"><time>2024-01-19T11:49:00.000Z</time></trkpt><trkpt lat="52.532131" lon="13.384204"><time>2024-01-19T11:49:08.000Z</time></trkpt><trkpt lat="52.532113" lon="13.384087"><time>2024-01-19T11:49:10.000Z</time></trkpt><trkpt lat="52.532143" lon="13.384014"><time>2024-01-19T11:49:12.000Z</time></trkpt><trkpt lat="52.532165" lon="13.383937"><time>2024-01-19T11:49:18.000Z</time></trkpt><trkpt lat="52.532176" lon="13.383863"><time>2024-01-19T11:49:22.000Z</time></trkpt><trkpt lat="52.532153" lon="13.38382"><time>2024-01-19T11:49:24.000Z</time></trkpt><trkpt lat="52.532126" lon="13.383785"><time>2024-01-19T11:49:28.000Z</time></trkpt><trkpt lat="52.532095" lon="13.383746"><time>2024-01-19T11:49:30.000Z</time></trkpt><trkpt lat="52.532066" lon="13.383702"><time>2024-01-19T11:49:34.000Z</time></trkpt><trkpt lat="52.532032" lon="13.383653"><time>2024-01-19T11:49:40.000Z</time></trkpt><trkpt lat="52.531982" lon="13.383616"><time>2024-01-19T11:49:44.000Z</time></trkpt><trkpt lat="52.531935" lon="13.383572"><time>2024-01-19T11:49:48.000Z</time></trkpt><trkpt lat="52.531888" lon="13.383534"><time>2024-01-19T11:49:50.000Z</time></trkpt><trkpt lat="52.531857" lon="13.383498"><time>2024-01-19T11:49:58.000Z</time></trkpt><trkpt lat="52.531834" lon="13.383467"><time>2024-01-19T11:50:02.000Z</time></trkpt><trkpt lat="52.531819" lon="13.383429"><time>2024-01-19T11:50:08.000Z</time></trkpt><trkpt lat="52.531803" lon="13.383373"><time>2024-01-19T11:50:10.000Z</time></trkpt><trkpt lat="52.531779" lon="13.383335"><time>2024-01-19T11:50:14.000Z</time></trkpt><trkpt lat="52.531749" lon="13.383304"><time>2024-01-19T11:50:16.000Z</time></trkpt><trkpt lat="52.531713" lon="13.383275"><time>2024-01-19T11:50:18.000Z</time></trkpt><trkpt lat="52.531675" lon="13.383233"><time>2024-01-19T11:50:22.000Z</time></trkpt><trkpt lat="52.531629" lon="13.383188"><time>2024-01-19T11:50:24.000Z</time></trkpt><trkpt lat="52.531578" lon="13.383158"><time>2024-01-19T11:50:26.000Z</time></trkpt><trkpt lat="52.531513" lon="13.383122"><time>2024-01-19T11:50:28.000Z</time></trkpt><trkpt lat="52.531442" lon="13.383075"><time>2024-01-19T11:50:30.000Z</time></trkpt><trkpt lat="52.531384" lon="13.383021"><time>2024-01-19T11:50:32.000Z</time></trkpt><trkpt lat="52.531336" lon="13.382975"><time>2024-01-19T11:50:34.000Z</time></trkpt><trkpt lat="52.531292" lon="13.382935"><time>2024-01-19T11:50:36.000Z</time></trkpt><trkpt lat="52.531239" lon="13.382897"><time>2024-01-19T11:50:38.000Z</time></trkpt><trkpt lat="52.531183" lon="13.382859"><time>2024-01-19T11:50:40.000Z</time></trkpt><trkpt lat="52.531147" lon="13.382814"><time>2024-01-19T11:50:42.000Z</time></trkpt><trkpt lat="52.531129" lon="13.382765"><time>2024-01-19T11:50:44.000Z</time></trkpt><trkpt lat="52.531133" lon="13.382712"><time>2024-01-19T11:50:46.000Z</time></trkpt><trkpt lat="52.53115" lon="13.382662"><time>2024-01-19T11:50:48.000Z</time></trkpt><trkpt lat="52.531184" lon="13.382607"><time>2024-01-19T11:50:50.000Z</time></trkpt><trkpt lat="52.531202" lon="13.382562"><time>2024-01-19T11:50:54.000Z</time></trkpt><trkpt lat="52.531202" lon="13.382518"><time>2024-01-19T11:50:58.000Z</time></trkpt><trkpt lat="52.531182" lon="13.38248"><time>2024-01-19T11:51:02.000Z</time></trkpt><trkpt lat="52.53115" lon="13.382432"><time>2024-01-19T11:51:08.000Z</time></trkpt><trkpt lat="52.531114" lon="13.382394"><time>2024-01-19T11:51:12.000Z</time></trkpt><trkpt lat="52.531072" lon="13.382363"><time>2024-01-19T11:51:14.000Z</time></trkpt><trkpt lat="52.531041" lon="13.38235"><time>2024-01-19T11:51:16.000Z</time></trkpt><trkpt lat="52.531005" lon="13.382345"><time>2024-01-19T11:51:20.000Z</time></trkpt><trkpt lat="52.530968" lon="13.382347"><time>2024-01-19T11:51:26.000Z</time></trkpt><trkpt lat="52.530931" lon="13.382351"><time>2024-01-19T11:51:30.000Z</time></trkpt><trkpt lat="52.53091" lon="13.382372"><time>2024-01-19T11:51:34.000Z</time></trkpt><trkpt lat="52.530879" lon="13.382391"><time>2024-01-19T11:51:36.000Z</time></trkpt><trkpt lat="52.530848" lon="13.382393"><time>2024-01-19T11:51:42.000Z</time></trkpt><trkpt lat="52.530808" lon="13.382372"><time>2024-01-19T11:51:44.000Z</time></trkpt><trkpt lat="52.530776" lon="13.382356"><time>2024-01-19T11:51:46.000Z</time></trkpt><trkpt lat="52.530743" lon="13.382353"><time>2024-01-19T11:51:48.000Z</time></trkpt><trkpt lat="52.530711" lon="13.382358"><time>2024-01-19T11:51:50.000Z</time></trkpt><trkpt lat="52.530678" lon="13.382375"><time>2024-01-19T11:51:52.000Z</time></trkpt><trkpt lat="52.530652" lon="13.382406"><time>2024-01-19T11:51:56.000Z</time></trkpt><trkpt lat="52.530649" lon="13.382451"><time>2024-01-19T11:52:06.000Z</time></trkpt><trkpt lat="52.530645" lon="13.382475"><time>2024-01-19T11:52:12.000Z</time></trkpt><trkpt lat="52.530636" lon="13.382467"><time>2024-01-19T11:52:20.000Z</time></trkpt><trkpt lat="52.530597" lon="13.38244"><time>2024-01-19T11:52:24.000Z</time></trkpt><trkpt lat="52.530564" lon="13.382405"><time>2024-01-19T11:52:28.000Z</time></trkpt><trkpt lat="52.530526" lon="13.382372"><time>2024-01-19T11:52:32.000Z</time></trkpt><trkpt lat="52.530499" lon="13.382327"><time>2024-01-19T11:52:42.000Z</time></trkpt><trkpt lat="52.530473" lon="13.382277"><time>2024-01-19T11:52:46.000Z</time></trkpt><trkpt lat="52.530451" lon="13.382217"><time>2024-01-19T11:52:48.000Z</time></trkpt><trkpt lat="52.530439" lon="13.38216"><time>2024-01-19T11:52:50.000Z</time></trkpt><trkpt lat="52.530419" lon="13.382095"><time>2024-01-19T11:52:54.000Z</time></trkpt><trkpt lat="52.530389" lon="13.382039"><time>2024-01-19T11:52:58.000Z</time></trkpt><trkpt lat="52.530315" lon="13.381969"><time>2024-01-19T11:53:00.000Z</time></trkpt><trkpt lat="52.53025" lon="13.381916"><time>2024-01-19T11:53:04.000Z</time></trkpt><trkpt lat="52.530196" lon="13.381869"><time>2024-01-19T11:53:06.000Z</time></trkpt><trkpt lat="52.530172" lon="13.381832"><time>2024-01-19T11:53:08.000Z</time></trkpt><trkpt lat="52.530154" lon="13.38179"><time>2024-01-19T11:53:10.000Z</time></trkpt><trkpt lat="52.530143" lon="13.381742"><time>2024-01-19T11:53:12.000Z</time></trkpt><trkpt lat="52.530128" lon="13.381684"><time>2024-01-19T11:53:14.000Z</time></trkpt><trkpt lat="52.530123" lon="13.381608"><time>2024-01-19T11:53:18.000Z</time></trkpt><trkpt lat="52.530132" lon="13.381531"><time>2024-01-19T11:53:22.000Z</time></trkpt><trkpt lat="52.530158" lon="13.381464"><time>2024-01-19T11:53:24.000Z</time></trkpt><trkpt lat="52.530165" lon="13.38142"><time>2024-01-19T11:53:26.000Z</time></trkpt><trkpt lat="52.53015" lon="13.38137"><time>2024-01-19T11:53:30.000Z</time></trkpt><trkpt lat="52.530117" lon="13.381322"><time>2024-01-19T11:53:34.000Z</time></trkpt><trkpt lat="52.530084" lon="13.381274"><time>2024-01-19T11:53:38.000Z</time></trkpt><trkpt lat="52.530068" lon="13.381227"><time>2024-01-19T11:53:42.000Z</time></trkpt><trkpt lat="52.530057" lon="13.381164"><time>2024-01-19T11:53:46.000Z</time></trkpt><trkpt lat="52.530048" lon="13.381099"><time>2024-01-19T11:53:50.000Z</time></trkpt><trkpt lat="52.530024" lon="13.381049"><time>2024-01-19T11:53:52.000Z</time></trkpt><trkpt lat="52.529999" lon="13.381022"><time>2024-01-19T11:53:54.000Z</time></trkpt><trkpt lat="52.529975" lon="13.380997"><time>2024-01-19T11:53:56.000Z</time></trkpt><trkpt lat="52.529951" lon="13.380958"><time>2024-01-19T11:54:00.000Z</time></trkpt><trkpt lat="52.529929" lon="13.380912"><time>2024-01-19T11:54:04.000Z</time></trkpt><trkpt lat="52.529909" lon="13.380863"><time>2024-01-19T11:54:06.000Z</time></trkpt><trkpt lat="52.529897" lon="13.38082"><time>2024-01-19T11:54:08.000Z</time></trkpt><trkpt lat="52.529891" lon="13.380775"><time>2024-01-19T11:54:10.000Z</time></trkpt><trkpt lat="52.529883" lon="13.380725"><time>2024-01-19T11:54:12.000Z</time></trkpt><trkpt lat="52.529872" lon="13.380671"><time>2024-01-19T11:54:14.000Z</time></trkpt><trkpt lat="52.529863" lon="13.380619"><time>2024-01-19T11:54:16.000Z</time></trkpt><trkpt lat="52.529858" lon="13.38056"><time>2024-01-19T11:54:18.000Z</time></trkpt><trkpt lat="52.529849" lon="13.380508"><time>2024-01-19T11:54:22.000Z</time></trkpt><trkpt lat="52.529832" lon="13.380448"><time>2024-01-19T11:54:24.000Z</time></trkpt><trkpt lat="52.529812" lon="13.380398"><time>2024-01-19T11:54:28.000Z</time></trkpt><trkpt lat="52.529791" lon="13.380352"><time>2024-01-19T11:54:30.000Z</time></trkpt><trkpt lat="52.529774" lon="13.380313"><time>2024-01-19T11:54:32.000Z</time></trkpt><trkpt lat="52.529758" lon="13.380266"><time>2024-01-19T11:54:34.000Z</time></trkpt><trkpt lat="52.529745" lon="13.380207"><time>2024-01-19T11:54:36.000Z</time></trkpt><trkpt lat="52.529734" lon="13.380143"><time>2024-01-19T11:54:38.000Z</time></trkpt><trkpt lat="52.529722" lon="13.380079"><time>2024-01-19T11:54:40.000Z</time></trkpt><trkpt lat="52.529712" lon="13.380023"><time>2024-01-19T11:54:42.000Z</time></trkpt><trkpt lat="52.529707" lon="13.379966"><time>2024-01-19T11:54:44.000Z</time></trkpt><trkpt lat="52.529703" lon="13.379909"><time>2024-01-19T11:54:46.000Z</time></trkpt><trkpt lat="52.529705" lon="13.379836"><time>2024-01-19T11:54:48.000Z</time></trkpt><trkpt lat="52.529702" lon="13.379762"><time>2024-01-19T11:54:52.000Z</time></trkpt><trkpt lat="52.529698" lon="13.379686"><time>2024-01-19T11:54:54.000Z</time></trkpt><trkpt lat="52.529683" lon="13.379642"><time>2024-01-19T11:54:56.000Z</time></trkpt><trkpt lat="52.52966" lon="13.379606"><time>2024-01-19T11:55:00.000Z</time></trkpt><trkpt lat="52.529632" lon="13.379589"><time>2024-01-19T11:55:06.000Z</time></trkpt><trkpt lat="52.529599" lon="13.379576"><time>2024-01-19T11:55:08.000Z</time></trkpt><trkpt lat="52.529566" lon="13.379574"><time>2024-01-19T11:55:10.000Z</time></trkpt><trkpt lat="52.529528" lon="13.379561"><time>2024-01-19T11:55:12.000Z</time></trkpt><trkpt lat="52.529493" lon="13.379534"><time>2024-01-19T11:55:16.000Z</time></trkpt><trkpt lat="52.529454" lon="13.379516"><time>2024-01-19T11:55:20.000Z</time></trkpt><trkpt lat="52.529421" lon="13.379499"><time>2024-01-19T11:55:24.000Z</time></trkpt><trkpt lat="52.529397" lon="13.379464"><time>2024-01-19T11:55:28.000Z</time></trkpt><trkpt lat="52.529384" lon="13.379409"><time>2024-01-19T11:55:32.000Z</time></trkpt><trkpt lat="52.529378" lon="13.379351"><time>2024-01-19T11:55:34.000Z</time></trkpt><trkpt lat="52.529365" lon="13.379292"><time>2024-01-19T11:55:36.000Z</time></trkpt><trkpt lat="52.52935" lon="13.379221"><time>2024-01-19T11:55:40.000Z</time></trkpt><trkpt lat="52.529336" lon="13.379145"><time>2024-01-19T11:55:44.000Z</time></trkpt><trkpt lat="52.529324" lon="13.37908"><time>2024-01-19T11:55:46.000Z</time></trkpt><trkpt lat="52.529313" lon="13.37903"><time>2024-01-19T11:55:48.000Z</time></trkpt><trkpt lat="52.529299" lon="13.378976"><time>2024-01-19T11:55:50.000Z</time></trkpt><trkpt lat="52.529289" lon="13.378924"><time>2024-01-19T11:55:54.000Z</time></trkpt><trkpt lat="52.529276" lon="13.378869"><time>2024-01-19T11:55:56.000Z</time></trkpt><trkpt lat="52.529258" lon="13.378815"><time>2024-01-19T11:56:00.000Z</time></trkpt><trkpt lat="52.529229" lon="13.378754"><time>2024-01-19T11:56:04.000Z</time></trkpt><trkpt lat="52.529204" lon="13.378693"><time>2024-01-19T11:56:08.000Z</time></trkpt><trkpt lat="52.529183" lon="13.378636"><time>2024-01-19T11:56:10.000Z</time></trkpt><trkpt lat="52.52917" lon="13.378575"><time>2024-01-19T11:56:12.000Z</time></trkpt><trkpt lat="52.529157" lon="13.378513"><time>2024-01-19T11:56:14.000Z</time></trkpt><trkpt lat="52.529146" lon="13.378454"><time>2024-01-19T11:56:16.000Z</time></trkpt><trkpt lat="52.529139" lon="13.378392"><time>2024-01-19T11:56:18.000Z</time></trkpt><trkpt lat="52.529135" lon="13.37833"><time>2024-01-19T11:56:20.000Z</time></trkpt><trkpt lat="52.529131" lon="13.378262"><time>2024-01-19T11:56:22.000Z</time></trkpt><trkpt lat="52.529112" lon="13.378197"><time>2024-01-19T11:56:26.000Z</time></trkpt><trkpt lat="52.529092" lon="13.37813"><time>2024-01-19T11:56:30.000Z</time></trkpt><trkpt lat="52.529072" lon="13.378055"><time>2024-01-19T11:56:32.000Z</time></trkpt><trkpt lat="52.529057" lon="13.377989"><time>2024-01-19T11:56:36.000Z</time></trkpt><trkpt lat="52.52904" lon="13.377924"><time>2024-01-19T11:56:40.000Z</time></trkpt><trkpt lat="52.529021" lon="13.377871"><time>2024-01-19T11:56:42.000Z</time></trkpt><trkpt lat="52.529006" lon="13.37782"><time>2024-01-19T11:56:44.000Z</time></trkpt><trkpt lat="52.528993" lon="13.377767"><time>2024-01-19T11:56:46.000Z</time></trkpt><trkpt lat="52.528979" lon="13.377713"><time>2024-01-19T11:56:48.000Z</time></trkpt><trkpt lat="52.528964" lon="13.377656"><time>2024-01-19T11:56:50.000Z</time></trkpt><trkpt lat="52.528956" lon="13.377595"><time>2024-01-19T11:56:52.000Z</time></trkpt><trkpt lat="52.528962" lon="13.377533"><time>2024-01-19T11:56:54.000Z</time></trkpt><trkpt lat="52.528979" lon="13.377476"><time>2024-01-19T11:56:56.000Z</time></trkpt><trkpt lat="52.529011" lon="13.377426"><time>2024-01-19T11:56:58.000Z</time></trkpt><trkpt lat="52.529046" lon="13.377385"><time>2024-01-19T11:57:00.000Z</time></trkpt><trkpt lat="52.529083" lon="13.377352"><time>2024-01-19T11:57:02.000Z</time></trkpt><trkpt lat="52.529117" lon="13.377325"><time>2024-01-19T11:57:04.000Z</time></trkpt><trkpt lat="52.529154" lon="13.3773"><time>2024-01-19T11:57:06.000Z</time></trkpt><trkpt lat="52.52919" lon="13.377273"><time>2024-01-19T11:57:08.000Z</time></trkpt><trkpt lat="52.529228" lon="13.377247"><time>2024-01-19T11:57:10.000Z</time></trkpt><trkpt lat="52.52926" lon="13.377217"><time>2024-01-19T11:57:12.000Z</time></trkpt><trkpt lat="52.529292" lon="13.377179"><time>2024-01-19T11:57:14.000Z</time></trkpt><trkpt lat="52.529316" lon="13.377126"><time>2024-01-19T11:57:18.000Z</time></trkpt><trkpt lat="52.529338" lon="13.377061"><time>2024-01-19T11:57:22.000Z</time></trkpt><trkpt lat="52.529356" lon="13.376994"><time>2024-01-19T11:57:26.000Z</time></trkpt><trkpt lat="52.52937" lon="13.376935"><time>2024-01-19T11:57:30.000Z</time></trkpt><trkpt lat="52.529387" lon="13.376897"><time>2024-01-19T11:57:32.000Z</time></trkpt><trkpt lat="52.529405" lon="13.376862"><time>2024-01-19T11:57:34.000Z</time></trkpt><trkpt lat="52.529426" lon="13.376827"><time>2024-01-19T11:57:38.000Z</time></trkpt><trkpt lat="52.529454" lon="13.376781"><time>2024-01-19T11:57:40.000Z</time></trkpt><trkpt lat="52.529487" lon="13.376759"><time>2024-01-19T11:57:44.000Z</time></trkpt><trkpt lat="52.529523" lon="13.376734"><time>2024-01-19T11:57:48.000Z</time></trkpt><trkpt lat="52.529549" lon="13.376715"><time>2024-01-19T11:57:52.000Z</time></trkpt><trkpt lat="52.529577" lon="13.376681"><time>2024-01-19T11:57:54.000Z</time></trkpt><trkpt lat="52.52961" lon="13.376655"><time>2024-01-19T11:57:58.000Z</time></trkpt><trkpt lat="52.529644" lon="13.376629"><time>2024-01-19T11:58:02.000Z</time></trkpt><trkpt lat="52.529673" lon="13.376578"><time>2024-01-19T11:58:04.000Z</time></trkpt><trkpt lat="52.529689" lon="13.376518"><time>2024-01-19T11:58:08.000Z</time></trkpt><trkpt lat="52.529696" lon="13.376449"><time>2024-01-19T11:58:10.000Z</time></trkpt><trkpt lat="52.529692" lon="13.376394"><time>2024-01-19T11:58:12.000Z</time></trkpt><trkpt lat="52.529678" lon="13.376341"><time>2024-01-19T11:58:14.000Z</time></trkpt><trkpt lat="52.529652" lon="13.376307"><time>2024-01-19T11:58:18.000Z</time></trkpt><trkpt lat="52.529617" lon="13.3763"><time>2024-01-19T11:58:20.000Z</time></trkpt><trkpt lat="52.529585" lon="13.37632"><time>2024-01-19T11:58:22.000Z</time></trkpt><trkpt lat="52.529555" lon="13.376341"><time>2024-01-19T11:58:30.000Z</time></trkpt><trkpt lat="52.529525" lon="13.376353"><time>2024-01-19T11:58:34.000Z</time></trkpt><trkpt lat="52.529488" lon="13.376353"><time>2024-01-19T11:58:38.000Z</time></trkpt><trkpt lat="52.529447" lon="13.376348"><time>2024-01-19T11:58:42.000Z</time></trkpt><trkpt lat="52.529401" lon="13.376347"><time>2024-01-19T11:58:46.000Z</time></trkpt><trkpt lat="52.529354" lon="13.376354"><time>2024-01-19T11:58:50.000Z</time></trkpt><trkpt lat="52.529311" lon="13.376362"><time>2024-01-19T11:58:54.000Z</time></trkpt><trkpt lat="52.529272" lon="13.376366"><time>2024-01-19T11:58:56.000Z</time></trkpt><trkpt lat="52.529239" lon="13.37636"><time>2024-01-19T11:59:00.000Z</time></trkpt><trkpt lat="52.529323" lon="13.376367"><time>2024-01-19T11:59:28.000Z</time></trkpt><trkpt lat="52.529368" lon="13.376344"><time>2024-01-19T11:59:36.000Z</time></trkpt><trkpt lat="52.529438" lon="13.376322"><time>2024-01-19T11:59:42.000Z</time></trkpt><trkpt lat="52.529504" lon="13.37631"><time>2024-01-19T11:59:48.000Z</time></trkpt><trkpt lat="52.529565" lon="13.376304"><time>2024-01-19T11:59:50.000Z</time></trkpt><trkpt lat="52.529602" lon="13.376309"><time>2024-01-19T11:59:52.000Z</time></trkpt><trkpt lat="52.529634" lon="13.376326"><time>2024-01-19T11:59:54.000Z</time></trkpt><trkpt lat="52.529668" lon="13.376348"><time>2024-01-19T11:59:56.000Z</time></trkpt><trkpt lat="52.529697" lon="13.376378"><time>2024-01-19T11:59:58.000Z</time></trkpt><trkpt lat="52.52974" lon="13.376404"><time>2024-01-19T12:00:02.000Z</time></trkpt><trkpt lat="52.529782" lon="13.37643"><time>2024-01-19T12:00:06.000Z</time></trkpt><trkpt lat="52.529823" lon="13.376446"><time>2024-01-19T12:00:08.000Z</time></trkpt><trkpt lat="52.529861" lon="13.376461"><time>2024-01-19T12:00:10.000Z</time></trkpt><trkpt lat="52.529901" lon="13.376484"><time>2024-01-19T12:00:12.000Z</time></trkpt><trkpt lat="52.529996" lon="13.376526"><time>2024-01-19T12:00:16.000Z</time></trkpt><trkpt lat="52.530067" lon="13.376552"><time>2024-01-19T12:00:30.000Z</time></trkpt><trkpt lat="52.530113" lon="13.376556"><time>2024-01-19T12:00:34.000Z</time></trkpt><trkpt lat="52.530082" lon="13.376535"><time>2024-01-19T12:00:38.000Z</time></trkpt><trkpt lat="52.53005" lon="13.376522"><time>2024-01-19T12:00:42.000Z</time></trkpt><trkpt lat="52.530024" lon="13.376539"><time>2024-01-19T12:00:46.000Z</time></trkpt><trkpt lat="52.529928" lon="13.37652"><time>2024-01-19T12:00:56.000Z</time></trkpt><trkpt lat="52.529832" lon="13.376493"><time>2024-01-19T12:01:08.000Z</time></trkpt><trkpt lat="52.529731" lon="13.376443"><time>2024-01-19T12:01:10.000Z</time></trkpt><trkpt lat="52.529703" lon="13.376428"><time>2024-01-19T12:01:12.000Z</time></trkpt><trkpt lat="52.529673" lon="13.376417"><time>2024-01-19T12:01:14.000Z</time></trkpt><trkpt lat="52.529639" lon="13.376403"><time>2024-01-19T12:01:18.000Z</time></trkpt><trkpt lat="52.529599" lon="13.376398"><time>2024-01-19T12:01:24.000Z</time></trkpt><trkpt lat="52.529562" lon="13.376391"><time>2024-01-19T12:01:30.000Z</time></trkpt><trkpt lat="52.529542" lon="13.376373"><time>2024-01-19T12:01:32.000Z</time></trkpt><trkpt lat="52.52954" lon="13.376333"><time>2024-01-19T12:01:34.000Z</time></trkpt><trkpt lat="52.529548" lon="13.376275"><time>2024-01-19T12:01:36.000Z</time></trkpt><trkpt lat="52.529559" lon="13.376219"><time>2024-01-19T12:01:38.000Z</time></trkpt><trkpt lat="52.529558" lon="13.376173"><time>2024-01-19T12:01:40.000Z</time></trkpt><trkpt lat="52.529559" lon="13.37613"><time>2024-01-19T12:01:42.000Z</time></trkpt><trkpt lat="52.529551" lon="13.376074"><time>2024-01-19T12:01:46.000Z</time></trkpt><trkpt lat="52.529526" lon="13.376002"><time>2024-01-19T12:01:50.000Z</time></trkpt><trkpt lat="52.529479" lon="13.375954"><time>2024-01-19T12:01:56.000Z</time></trkpt><trkpt lat="52.529423" lon="13.375952"><time>2024-01-19T12:02:00.000Z</time></trkpt><trkpt lat="52.529384" lon="13.375981"><time>2024-01-19T12:02:02.000Z</time></trkpt><trkpt lat="52.52935" lon="13.376012"><time>2024-01-19T12:02:06.000Z</time></trkpt><trkpt lat="52.529312" lon="13.376028"><time>2024-01-19T12:02:08.000Z</time></trkpt><trkpt lat="52.529271" lon="13.37604"><time>2024-01-19T12:02:12.000Z</time></trkpt><trkpt lat="52.529225" lon="13.376053"><time>2024-01-19T12:02:14.000Z</time></trkpt><trkpt lat="52.529174" lon="13.376066"><time>2024-01-19T12:02:18.000Z</time></trkpt><trkpt lat="52.529117" lon="13.376076"><time>2024-01-19T12:02:20.000Z</time></trkpt><trkpt lat="52.529065" lon="13.376089"><time>2024-01-19T12:02:24.000Z</time></trkpt><trkpt lat="52.52902" lon="13.376104"><time>2024-01-19T12:02:26.000Z</time></trkpt><trkpt lat="52.528984" lon="13.376119"><time>2024-01-19T12:02:28.000Z</time></trkpt><trkpt lat="52.528949" lon="13.376126"><time>2024-01-19T12:02:30.000Z</time></trkpt><trkpt lat="52.528917" lon="13.376131"><time>2024-01-19T12:02:34.000Z</time></trkpt><trkpt lat="52.528886" lon="13.376125"><time>2024-01-19T12:02:36.000Z</time></trkpt><trkpt lat="52.528847" lon="13.376118"><time>2024-01-19T12:02:40.000Z</time></trkpt><trkpt lat="52.528808" lon="13.376119"><time>2024-01-19T12:02:44.000Z</time></trkpt><trkpt lat="52.52877" lon="13.376135"><time>2024-01-19T12:02:46.000Z</time></trkpt><trkpt lat="52.528739" lon="13.376145"><time>2024-01-19T12:02:48.000Z</time></trkpt><trkpt lat="52.528707" lon="13.376138"><time>2024-01-19T12:02:52.000Z</time></trkpt><trkpt lat="52.528673" lon="13.376117"><time>2024-01-19T12:02:56.000Z</time></trkpt><trkpt lat="52.528644" lon="13.376084"><time>2024-01-19T12:03:02.000Z</time></trkpt><trkpt lat="52.528624" lon="13.376037"><time>2024-01-19T12:03:08.000Z</time></trkpt><trkpt lat="52.528599" lon="13.375997"><time>2024-01-19T12:03:14.000Z</time></trkpt><trkpt lat="52.528569" lon="13.37597"><time>2024-01-19T12:03:18.000Z</time></trkpt><trkpt lat="52.52853" lon="13.375966"><time>2024-01-19T12:03:22.000Z</time></trkpt><trkpt lat="52.528495" lon="13.375961"><time>2024-01-19T12:03:24.000Z</time></trkpt><trkpt lat="52.528463" lon="13.375958"><time>2024-01-19T12:03:26.000Z</time></trkpt><trkpt lat="52.528433" lon="13.375935"><time>2024-01-19T12:03:28.000Z</time></trkpt><trkpt lat="52.528405" lon="13.375903"><time>2024-01-19T12:03:32.000Z</time></trkpt><trkpt lat="52.528376" lon="13.375855"><time>2024-01-19T12:03:34.000Z</time></trkpt><trkpt lat="52.528351" lon="13.375801"><time>2024-01-19T12:03:38.000Z</time></trkpt><trkpt lat="52.528327" lon="13.375742"><time>2024-01-19T12:03:42.000Z</time></trkpt><trkpt lat="52.528307" lon="13.375693"><time>2024-01-19T12:03:46.000Z</time></trkpt><trkpt lat="52.528288" lon="13.375656"><time>2024-01-19T12:03:48.000Z</time></trkpt><trkpt lat="52.528269" lon="13.375623"><time>2024-01-19T12:03:50.000Z</time></trkpt><trkpt lat="52.528252" lon="13.375583"><time>2024-01-19T12:03:52.000Z</time></trkpt><trkpt lat="52.528243" lon="13.375534"><time>2024-01-19T12:03:54.000Z</time></trkpt><trkpt lat="52.52823" lon="13.375475"><time>2024-01-19T12:03:56.000Z</time></trkpt><trkpt lat="52.528215" lon="13.375412"><time>2024-01-19T12:03:58.000Z</time></trkpt><trkpt lat="52.528195" lon="13.375357"><time>2024-01-19T12:04:00.000Z</time></trkpt><trkpt lat="52.528179" lon="13.375306"><time>2024-01-19T12:04:02.000Z</time></trkpt><trkpt lat="52.528165" lon="13.375255"><time>2024-01-19T12:04:04.000Z</time></trkpt><trkpt lat="52.52815" lon="13.375203"><time>2024-01-19T12:04:06.000Z</time></trkpt><trkpt lat="52.528135" lon="13.375154"><time>2024-01-19T12:04:08.000Z</time></trkpt><trkpt lat="52.528121" lon="13.375107"><time>2024-01-19T12:04:10.000Z</time></trkpt><trkpt lat="52.528119" lon="13.37505"><time>2024-01-19T12:04:12.000Z</time></trkpt><trkpt lat="52.52812" lon="13.374991"><time>2024-01-19T12:04:14.000Z</time></trkpt><trkpt lat="52.528131" lon="13.374932"><time>2024-01-19T12:04:16.000Z</time></trkpt><trkpt lat="52.528134" lon="13.374874"><time>2024-01-19T12:04:18.000Z</time></trkpt><trkpt lat="52.528139" lon="13.374803"><time>2024-01-19T12:04:22.000Z</time></trkpt><trkpt lat="52.528143" lon="13.374735"><time>2024-01-19T12:04:28.000Z</time></trkpt><trkpt lat="52.528146" lon="13.374675"><time>2024-01-19T12:04:30.000Z</time></trkpt><trkpt lat="52.528146" lon="13.374622"><time>2024-01-19T12:04:32.000Z</time></trkpt><trkpt lat="52.528142" lon="13.374567"><time>2024-01-19T12:04:34.000Z</time></trkpt><trkpt lat="52.528135" lon="13.374515"><time>2024-01-19T12:04:36.000Z</time></trkpt><trkpt lat="52.528126" lon="13.374463"><time>2024-01-19T12:04:38.000Z</time></trkpt><trkpt lat="52.528114" lon="13.374409"><time>2024-01-19T12:04:40.000Z</time></trkpt><trkpt lat="52.528102" lon="13.374351"><time>2024-01-19T12:04:42.000Z</time></trkpt><trkpt lat="52.52809" lon="13.37429"><time>2024-01-19T12:04:44.000Z</time></trkpt><trkpt lat="52.528081" lon="13.374227"><time>2024-01-19T12:04:46.000Z</time></trkpt><trkpt lat="52.528071" lon="13.374169"><time>2024-01-19T12:04:48.000Z</time></trkpt><trkpt lat="52.528061" lon="13.374116"><time>2024-01-19T12:04:50.000Z</time></trkpt><trkpt lat="52.528052" lon="13.374071"><time>2024-01-19T12:04:52.000Z</time></trkpt><trkpt lat="52.52804" lon="13.374017"><time>2024-01-19T12:04:54.000Z</time></trkpt><trkpt lat="52.528024" lon="13.373956"><time>2024-01-19T12:04:58.000Z</time></trkpt><trkpt lat="52.528" lon="13.373889"><time>2024-01-19T12:05:02.000Z</time></trkpt><trkpt lat="52.527979" lon="13.373816"><time>2024-01-19T12:05:06.000Z</time></trkpt><trkpt lat="52.527959" lon="13.373745"><time>2024-01-19T12:05:10.000Z</time></trkpt><trkpt lat="52.527935" lon="13.373681"><time>2024-01-19T12:05:14.000Z</time></trkpt><trkpt lat="52.527907" lon="13.373638"><time>2024-01-19T12:05:18.000Z</time></trkpt><trkpt lat="52.527875" lon="13.373614"><time>2024-01-19T12:05:20.000Z</time></trkpt><trkpt lat="52.527842" lon="13.373593"><time>2024-01-19T12:05:22.000Z</time></trkpt><trkpt lat="52.527803" lon="13.373576"><time>2024-01-19T12:05:26.000Z</time></trkpt><trkpt lat="52.527764" lon="13.373553"><time>2024-01-19T12:05:28.000Z</time></trkpt><trkpt lat="52.527727" lon="13.373548"><time>2024-01-19T12:05:30.000Z</time></trkpt><trkpt lat="52.527702" lon="13.373561"><time>2024-01-19T12:05:34.000Z</time></trkpt><trkpt lat="52.527701" lon="13.373598"><time>2024-01-19T12:05:38.000Z</time></trkpt><trkpt lat="52.527724" lon="13.373701"><time>2024-01-19T12:05:42.000Z</time></trkpt><trkpt lat="52.527757" lon="13.373802"><time>2024-01-19T12:05:48.000Z</time></trkpt><trkpt lat="52.527793" lon="13.373869"><time>2024-01-19T12:05:52.000Z</time></trkpt><trkpt lat="52.527828" lon="13.373848"><time>2024-01-19T12:05:54.000Z</time></trkpt><trkpt lat="52.527868" lon="13.373817"><time>2024-01-19T12:05:56.000Z</time></trkpt><trkpt lat="52.5279" lon="13.373825"><time>2024-01-19T12:05:58.000Z</time></trkpt><trkpt lat="52.527928" lon="13.373866"><time>2024-01-19T12:06:02.000Z</time></trkpt><trkpt lat="52.527953" lon="13.373913"><time>2024-01-19T12:06:06.000Z</time></trkpt><trkpt lat="52.527981" lon="13.373959"><time>2024-01-19T12:06:08.000Z</time></trkpt><trkpt lat="52.528009" lon="13.374008"><time>2024-01-19T12:06:12.000Z</time></trkpt><trkpt lat="52.528036" lon="13.374069"><time>2024-01-19T12:06:16.000Z</time></trkpt><trkpt lat="52.528047" lon="13.374129"><time>2024-01-19T12:06:20.000Z</time></trkpt><trkpt lat="52.528039" lon="13.37418"><time>2024-01-19T12:06:24.000Z</time></trkpt><trkpt lat="52.528021" lon="13.374225"><time>2024-01-19T12:06:26.000Z</time></trkpt><trkpt lat="52.528003" lon="13.374264"><time>2024-01-19T12:06:28.000Z</time></trkpt><trkpt lat="52.527985" lon="13.374305"><time>2024-01-19T12:06:30.000Z</time></trkpt><trkpt lat="52.527963" lon="13.374346"><time>2024-01-19T12:06:32.000Z</time></trkpt><trkpt lat="52.527937" lon="13.37438"><time>2024-01-19T12:06:34.000Z</time></trkpt><trkpt lat="52.527908" lon="13.374405"><time>2024-01-19T12:06:36.000Z</time></trkpt><trkpt lat="52.527884" lon="13.374396"><time>2024-01-19T12:06:42.000Z</time></trkpt><trkpt lat="52.527868" lon="13.374364"><time>2024-01-19T12:06:46.000Z</time></trkpt><trkpt lat="52.527861" lon="13.374309"><time>2024-01-19T12:06:48.000Z</time></trkpt><trkpt lat="52.527859" lon="13.374245"><time>2024-01-19T12:06:50.000Z</time></trkpt><trkpt lat="52.527863" lon="13.374163"><time>2024-01-19T12:06:54.000Z</time></trkpt><trkpt lat="52.527863" lon="13.374079"><time>2024-01-19T12:06:58.000Z</time></trkpt><trkpt lat="52.527859" lon="13.374011"><time>2024-01-19T12:07:00.000Z</time></trkpt><trkpt lat="52.527845" lon="13.373954"><time>2024-01-19T12:07:02.000Z</time></trkpt><trkpt lat="52.527826" lon="13.373902"><time>2024-01-19T12:07:06.000Z</time></trkpt><trkpt lat="52.527801" lon="13.373845"><time>2024-01-19T12:07:10.000Z</time></trkpt><trkpt lat="52.527767" lon="13.373796"><time>2024-01-19T12:07:14.000Z</time></trkpt><trkpt lat="52.527733" lon="13.373756"><time>2024-01-19T12:07:18.000Z</time></trkpt><trkpt lat="52.527697" lon="13.373734"><time>2024-01-19T12:07:20.000Z</time></trkpt><trkpt lat="52.527667" lon="13.373729"><time>2024-01-19T12:07:22.000Z</time></trkpt><trkpt lat="52.527635" lon="13.373735"><time>2024-01-19T12:07:24.000Z</time></trkpt><trkpt lat="52.527605" lon="13.373747"><time>2024-01-19T12:07:26.000Z</time></trkpt><trkpt lat="52.527573" lon="13.373757"><time>2024-01-19T12:07:28.000Z</time></trkpt><trkpt lat="52.527542" lon="13.373764"><time>2024-01-19T12:07:32.000Z</time></trkpt><trkpt lat="52.527509" lon="13.373766"><time>2024-01-19T12:07:34.000Z</time></trkpt><trkpt lat="52.527479" lon="13.373769"><time>2024-01-19T12:07:36.000Z</time></trkpt><trkpt lat="52.527447" lon="13.373772"><time>2024-01-19T12:07:38.000Z</time></trkpt><trkpt lat="52.527414" lon="13.373775"><time>2024-01-19T12:07:40.000Z</time></trkpt><trkpt lat="52.527381" lon="13.373774"><time>2024-01-19T12:07:42.000Z</time></trkpt><trkpt lat="52.52735" lon="13.373769"><time>2024-01-19T12:07:44.000Z</time></trkpt><trkpt lat="52.527318" lon="13.373763"><time>2024-01-19T12:07:46.000Z</time></trkpt><trkpt lat="52.527287" lon="13.373751"><time>2024-01-19T12:07:48.000Z</time></trkpt><trkpt lat="52.527253" lon="13.373729"><time>2024-01-19T12:07:52.000Z</time></trkpt><trkpt lat="52.52722" lon="13.373702"><time>2024-01-19T12:07:56.000Z</time></trkpt><trkpt lat="52.527186" lon="13.37368"><time>2024-01-19T12:08:00.000Z</time></trkpt><trkpt lat="52.527154" lon="13.373665"><time>2024-01-19T12:08:04.000Z</time></trkpt><trkpt lat="52.527124" lon="13.373647"><time>2024-01-19T12:08:08.000Z</time></trkpt><trkpt lat="52.527094" lon="13.373618"><time>2024-01-19T12:08:12.000Z</time></trkpt><trkpt lat="52.527067" lon="13.373581"><time>2024-01-19T12:08:16.000Z</time></trkpt><trkpt lat="52.527037" lon="13.373543"><time>2024-01-19T12:08:20.000Z</time></trkpt><trkpt lat="52.527003" lon="13.373515"><time>2024-01-19T12:08:24.000Z</time></trkpt><trkpt lat="52.526966" lon="13.373506"><time>2024-01-19T12:08:28.000Z</time></trkpt><trkpt lat="52.526925" lon="13.373509"><time>2024-01-19T12:08:32.000Z</time></trkpt><trkpt lat="52.526883" lon="13.373508"><time>2024-01-19T12:08:36.000Z</time></trkpt><trkpt lat="52.526837" lon="13.373496"><time>2024-01-19T12:08:40.000Z</time></trkpt><trkpt lat="52.526799" lon="13.373471"><time>2024-01-19T12:08:44.000Z</time></trkpt><trkpt lat="52.526776" lon="13.373432"><time>2024-01-19T12:08:48.000Z</time></trkpt><trkpt lat="52.526764" lon="13.373382"><time>2024-01-19T12:08:54.000Z</time></trkpt><trkpt lat="52.526753" lon="13.373331"><time>2024-01-19T12:08:58.000Z</time></trkpt><trkpt lat="52.526739" lon="13.37329"><time>2024-01-19T12:09:00.000Z</time></trkpt><trkpt lat="52.526724" lon="13.373251"><time>2024-01-19T12:09:02.000Z</time></trkpt><trkpt lat="52.526712" lon="13.373205"><time>2024-01-19T12:09:04.000Z</time></trkpt><trkpt lat="52.5267" lon="13.373158"><time>2024-01-19T12:09:06.000Z</time></trkpt><trkpt lat="52.526688" lon="13.373109"><time>2024-01-19T12:09:08.000Z</time></trkpt><trkpt lat="52.52668" lon="13.373053"><time>2024-01-19T12:09:10.000Z</time></trkpt><trkpt lat="52.526676" lon="13.372996"><time>2024-01-19T12:09:14.000Z</time></trkpt><trkpt lat="52.526676" lon="13.372929"><time>2024-01-19T12:09:16.000Z</time></trkpt><trkpt lat="52.526672" lon="13.372872"><time>2024-01-19T12:09:20.000Z</time></trkpt><trkpt lat="52.526666" lon="13.372811"><time>2024-01-19T12:09:22.000Z</time></trkpt><trkpt lat="52.52665" lon="13.372753"><time>2024-01-19T12:09:24.000Z</time></trkpt><trkpt lat="52.526631" lon="13.372685"><time>2024-01-19T12:09:28.000Z</time></trkpt><trkpt lat="52.526608" lon="13.372619"><time>2024-01-19T12:09:32.000Z</time></trkpt></trkseg></trk></gpx>