<?xml version="1.0" encoding="UTF-8"?><gpx creator="Health" xsi:schemaLocation="http://www.topografix.com/GPX/1/0 http://www.topografix.com/GPX/1/0/gpx.xsd" version="1.0" xmlns="http://www.topografix.com/GPX/1/0" xmlns:xsi="http://www.w3.org/2001/XMLSchema-instance"><metadata><time>2024-01-19T12:10:33.404Z</time></metadata><trk><type>Ходьба на улице</type><extensions><totalTime>1927.0</totalTime><cumulativeDecrease>0.0</cumulativeDecrease><cumulativeClimb>0.0</cumulativeClimb><totalDistance>3789.0</totalDistance></extensions><trkseg><trkpt lat="52.526583" lon="13.372546"><time>2024-01-19T12:10:33.404Z</time></trkpt><trkpt lat="52.5266" lon="13.372513"><time>2024-01-19T12:10:34.500Z</time></trkpt><trkpt lat="52.526624" lon="13.372478"><time>2024-01-19T12:10:35.500Z</time></trkpt><trkpt lat="52.526655" lon="13.372422"><time>2024-01-19T12:10:38.000Z</time></trkpt><trkpt lat="52.526703" lon="13.37234"><time>2024-01-19T12:10:44.000Z</time></trkpt><trkpt lat="52.526732" lon="13.372212"><time>2024-01-19T12:10:50.000Z</time></trkpt><trkpt lat="52.52675" lon="13.372106"><time>2024-01-19T12:10:56.000Z</time></trkpt><trkpt lat="52.526741" lon="13.372019"><time>2024-01-19T12:10:58.000Z</time></trkpt><trkpt lat="52.526742" lon="13.371976"><time>2024-01-19T12:11:00.000Z</time></trkpt><trkpt lat="52.526745" lon="13.371921"><time>2024-01-19T12:11:02.000Z</time></trkpt><trkpt lat="52.52676" lon="13.371867"><time>2024-01-19T12:11:06.000Z</time></trkpt><trkpt lat="52.526771" lon="13.37181"><time>2024-01-19T12:11:08.000Z</time></trkpt><trkpt lat="52.526784" lon="13.371755"><time>2024-01-19T12:11:12.000Z</time></trkpt><trkpt lat="52.526797" lon="13.371691"><time>2024-01-19T12:11:16.000Z</time></trkpt><trkpt lat="52.526807" lon="13.371622"><time>2024-01-19T12:11:20.000Z</time></trkpt><trkpt lat="52.526801" lon="13.371528"><time>2024-01-19T12:11:22.000Z</time></trkpt><trkpt lat="52.526789" lon="13.371436"><time>2024-01-19T12:11:26.000Z</time></trkpt><trkpt lat="52.526781" lon="13.371351"><time>2024-01-19T12:11:28.000Z</time></trkpt><trkpt lat="52.526786" lon="13.3713"><time>2024-01-19T12:11:30.000Z</time></trkpt><trkpt lat="52.526789" lon="13.371253"><time>2024-01-19T12:11:32.000Z</time></trkpt><trkpt lat="52.526789" lon="13.371202"><time>2024-01-19T12:11:34.000Z</time></trkpt><trkpt lat="52.52679" lon="13.371144"><time>2024-01-19T12:11:38.000Z</time></trkpt><trkpt lat="52.526788" lon="13.371088"><time>2024-01-19T12:11:42.000Z</time></trkpt><trkpt lat="52.526793" lon="13.371015"><time>2024-01-19T12:11:44.000Z</time></trkpt><trkpt lat="52.526795" lon="13.370915"><time>2024-01-19T12:11:48.000Z</time></trkpt><trkpt lat="52.526796" lon="13.370806"><time>2024-01-19T12:11:54.000Z</time></trkpt><trkpt lat="52.526789" lon="13.370707"><time>2024-01-19T12:11:58.000Z</time></trkpt><trkpt lat="52.526773" lon="13.370634"><time>2024-01-19T12:12:02.000Z</time></trkpt><trkpt lat="52.526748" lon="13.370569"><time>2024-01-19T12:12:06.000Z</time></trkpt><trkpt lat="52.52672" lon="13.370514"><time>2024-01-19T12:12:08.000Z</time></trkpt><trkpt lat="52.5267" lon="13.370469"><time>2024-01-19T12:12:10.000Z</time></trkpt><trkpt lat="52.52669" lon="13.370419"><time>2024-01-19T12:12:12.000Z</time></trkpt><trkpt lat="52.526682" lon="13.370368"><time>2024-01-19T12:12:14.000Z</time></trkpt><trkpt lat="52.526666" lon="13.370323"><time>2024-01-19T12:12:16.000Z</time></trkpt><trkpt lat="52.526643" lon="13.370286"><time>2024-01-19T12:12:18.000Z</time></trkpt><trkpt lat="52.526621" lon="13.370247"><time>2024-01-19T12:12:20.000Z</time></trkpt><trkpt lat="52.526599" lon="13.370207"><time>2024-01-19T12:12:22.000Z</time></trkpt><trkpt lat="52.526576" lon="13.370171"><time>2024-01-19T12:12:26.000Z</time></trkpt><trkpt lat="52.526542" lon="13.37014"><time>2024-01-19T12:12:28.000Z</time></trkpt><trkpt lat="52.526508" lon="13.370112"><time>2024-01-19T12:12:32.000Z</time></trkpt><trkpt lat="52.52648" lon="13.370078"><time>2024-01-19T12:12:34.000Z</time></trkpt><trkpt lat="52.526458" lon="13.370033"><time>2024-01-19T12:12:36.000Z</time></trkpt><trkpt lat="52.526439" lon="13.369985"><time>2024-01-19T12:12:40.000Z</time></trkpt><trkpt lat="52.526416" lon="13.369937"><time>2024-01-19T12:12:42.000Z</time></trkpt><trkpt lat="52.526391" lon="13.369889"><time>2024-01-19T12:12:44.000Z</time></trkpt><trkpt lat="52.526368" lon="13.36984"><time>2024-01-19T12:12:48.000Z</time></trkpt><trkpt lat="52.526343" lon="13.369793"><time>2024-01-19T12:12:50.000Z</time></trkpt><trkpt lat="52.52632" lon="13.369759"><time>2024-01-19T12:12:52.000Z</time></trkpt><trkpt lat="52.526293" lon="13.369725"><time>2024-01-19T12:12:54.000Z</time></trkpt><trkpt lat="52.526267" lon="13.369679"><time>2024-01-19T12:12:56.000Z</time></trkpt><trkpt lat="52.526244" lon="13.369629"><time>2024-01-19T12:13:00.000Z</time></trkpt><trkpt lat="52.526221" lon="13.369569"><time>2024-01-19T12:13:02.000Z</time></trkpt><trkpt lat="52.526203" lon="13.36952"><time>2024-01-19T12:13:06.000Z</time></trkpt><trkpt lat="52.526179" lon="13.369466"><time>2024-01-19T12:13:08.000Z</time></trkpt><trkpt lat="52.526158" lon="13.369423"><time>2024-01-19T12:13:12.000Z</time></trkpt><trkpt lat="52.526128" lon="13.369383"><time>2024-01-19T12:13:14.000Z</time></trkpt><trkpt lat="52.5261" lon="13.369353"><time>2024-01-19T12:13:18.000Z</time></trkpt><trkpt lat="52.526067" lon="13.369319"><time>2024-01-19T12:13:20.000Z</time></trkpt><trkpt lat="52.526026" lon="13.36927"><time>2024-01-19T12:13:22.000Z</time></trkpt><trkpt lat="52.525968" lon="13.369201"><time>2024-01-19T12:13:26.000Z</time></trkpt><trkpt lat="52.52592" lon="13.369121"><time>2024-01-19T12:13:30.000Z</time></trkpt><trkpt lat="52.525888" lon="13.369053"><time>2024-01-19T12:13:34.000Z</time></trkpt><trkpt lat="52.525873" lon="13.36901"><time>2024-01-19T12:13:38.000Z</time></trkpt><trkpt lat="52.525864" lon="13.368964"><time>2024-01-19T12:13:42.000Z</time></trkpt><trkpt lat="52.525878" lon="13.368921"><time>2024-01-19T12:13:56.000Z</time></trkpt><trkpt lat="52.525908" lon="13.368866"><time>2024-01-19T12:14:00.000Z</time></trkpt><trkpt lat="52.52594" lon="13.368827"><time>2024-01-19T12:14:06.000Z</time></trkpt><trkpt lat="52.525958" lon="13.368815"><time>2024-01-19T12:14:10.000Z</time></trkpt><trkpt lat="52.525975" lon="13.36884"><time>2024-01-19T12:14:14.000Z</time></trkpt><trkpt lat="52.525987" lon="13.368894"><time>2024-01-19T12:14:16.000Z</time></trkpt><trkpt lat="52.52599" lon="13.36895"><time>2024-01-19T12:14:18.000Z</time></trkpt><trkpt lat="52.525991" lon="13.369001"><time>2024-01-19T12:14:24.000Z</time></trkpt><trkpt lat="52.52599" lon="13.369055"><time>2024-01-19T12:14:28.000Z</time></trkpt><trkpt lat="52.526" lon="13.369112"><time>2024-01-19T12:14:32.000Z</time></trkpt><trkpt lat="52.526007" lon="13.369184"><time>2024-01-19T12:14:34.000Z</time></trkpt><trkpt lat="52.523497" lon="13.370367"><time>2024-01-19T12:16:03.000Z</time></trkpt><trkpt lat="52.523722" lon="13.37"><time>2024-01-19T12:16:07.000Z</time></trkpt><trkpt lat="52.523874" lon="13.369808"><time>2024-01-19T12:16:09.000Z</time></trkpt><trkpt lat="52.523946" lon="13.369804"><time>2024-01-19T12:16:11.000Z</time></trkpt><trkpt lat="52.523997" lon="13.369863"><time>2024-01-19T12:16:13.000Z</time></trkpt><trkpt lat="52.524028" lon="13.369933"><time>2024-01-19T12:16:15.000Z</time></trkpt><trkpt lat="52.524059" lon="13.369982"><time>2024-01-19T12:16:17.000Z</time></trkpt><trkpt lat="52.524086" lon="13.37"><time>2024-01-19T12:16:23.000Z</time></trkpt><trkpt lat="52.524099" lon="13.370011"><time>2024-01-19T12:16:29.000Z</time></trkpt><trkpt lat="52.52409" lon="13.37002"><time>2024-01-19T12:16:33.000Z</time></trkpt><trkpt lat="52.524064" lon="13.370043"><time>2024-01-19T12:16:35.000Z</time></trkpt><trkpt lat="52.52404" lon="13.370066"><time>2024-01-19T12:16:37.000Z</time></trkpt><trkpt lat="52.524012" lon="13.370107"><time>2024-01-19T12:16:39.000Z</time></trkpt><trkpt lat="52.52398" lon="13.370152"><time>2024-01-19T12:16:43.000Z</time></trkpt><trkpt lat="52.523939" lon="13.370189"><time>2024-01-19T12:16:47.000Z</time></trkpt><trkpt lat="52.523903" lon="13.370207"><time>2024-01-19T12:16:51.000Z</time></trkpt><trkpt lat="52.523861" lon="13.370218"><time>2024-01-19T12:17:03.000Z</time></trkpt><trkpt lat="52.523826" lon="13.370229"><time>2024-01-19T12:17:07.000Z</time></trkpt><trkpt lat="52.523783" lon="13.370246"><time>2024-01-19T12:17:09.000Z</time></trkpt><trkpt lat="52.523747" lon="13.370268"><time>2024-01-19T12:17:13.000Z</time></trkpt><trkpt lat="52.523706" lon="13.370289"><time>2024-01-19T12:17:17.000Z</time></trkpt><trkpt lat="52.523667" lon="13.370314"><time>2024-01-19T12:17:21.000Z</time></trkpt><trkpt lat="52.523622" lon="13.370336"><time>2024-01-19T12:17:25.000Z</time></trkpt><trkpt lat="52.523583" lon="13.370361"><time>2024-01-19T12:17:29.000Z</time></trkpt><trkpt lat="52.523552" lon="13.370388"><time>2024-01-19T12:17:31.000Z</time></trkpt><trkpt lat="52.523524" lon="13.370422"><time>2024-01-19T12:17:33.000Z</time></trkpt><trkpt lat="52.523495" lon="13.370454"><time>2024-01-19T12:17:37.000Z</time></trkpt><trkpt lat="52.523402" lon="13.370477"><time>2024-01-19T12:18:05.000Z</time></trkpt><trkpt lat="52.523367" lon="13.370522"><time>2024-01-19T12:18:09.000Z</time></trkpt><trkpt lat="52.523329" lon="13.370557"><time>2024-01-19T12:18:13.000Z</time></trkpt><trkpt lat="52.523297" lon="13.370593"><time>2024-01-19T12:18:15.000Z</time></trkpt><trkpt lat="52.523278" lon="13.370645"><time>2024-01-19T12:18:19.000Z</time></trkpt><trkpt lat="52.523275" lon="13.370707"><time>2024-01-19T12:18:23.000Z</time></trkpt><trkpt lat="52.523266" lon="13.370746"><time>2024-01-19T12:18:27.000Z</time></trkpt><trkpt lat="52.523242" lon="13.37075"><time>2024-01-19T12:18:31.000Z</time></trkpt><trkpt lat="52.523204" lon="13.370738"><time>2024-01-19T12:18:35.000Z</time></trkpt><trkpt lat="52.523163" lon="13.370731"><time>2024-01-19T12:18:39.000Z</time></trkpt><trkpt lat="52.523119" lon="13.370731"><time>2024-01-19T12:18:43.000Z</time></trkpt><trkpt lat="52.523072" lon="13.370733"><time>2024-01-19T12:18:47.000Z</time></trkpt><trkpt lat="52.52302" lon="13.370738"><time>2024-01-19T12:18:51.000Z</time></trkpt><trkpt lat="52.522974" lon="13.370741"><time>2024-01-19T12:18:55.000Z</time></trkpt><trkpt lat="52.52293" lon="13.370746"><time>2024-01-19T12:18:57.000Z</time></trkpt><trkpt lat="52.52289" lon="13.370747"><time>2024-01-19T12:19:01.000Z</time></trkpt><trkpt lat="52.522847" lon="13.370746"><time>2024-01-19T12:19:05.000Z</time></trkpt><trkpt lat="52.522807" lon="13.370746"><time>2024-01-19T12:19:09.000Z</time></trkpt><trkpt lat="52.522767" lon="13.370744"><time>2024-01-19T12:19:13.000Z</time></trkpt><trkpt lat="52.522724" lon="13.370746"><time>2024-01-19T12:19:17.000Z</time></trkpt><trkpt lat="52.522685" lon="13.37075"><time>2024-01-19T12:19:21.000Z</time></trkpt><trkpt lat="52.522646" lon="13.370755"><time>2024-01-19T12:19:23.000Z</time></trkpt><trkpt lat="52.522608" lon="13.370753"><time>2024-01-19T12:19:27.000Z</time></trkpt><trkpt lat="52.522564" lon="13.370745"><time>2024-01-19T12:19:31.000Z</time></trkpt><trkpt lat="52.522516" lon="13.370743"><time>2024-01-19T12:19:35.000Z</time></trkpt><trkpt lat="52.522468" lon="13.370752"><time>2024-01-19T12:19:39.000Z</time></trkpt><trkpt lat="52.522423" lon="13.370767"><time>2024-01-19T12:19:43.000Z</time></trkpt><trkpt lat="52.522379" lon="13.370776"><time>2024-01-19T12:19:47.000Z</time></trkpt><trkpt lat="52.522337" lon="13.370783"><time>2024-01-19T12:19:51.000Z</time></trkpt><trkpt lat="52.522295" lon="13.370796"><time>2024-01-19T12:19:55.000Z</time></trkpt><trkpt lat="52.522257" lon="13.370827"><time>2024-01-19T12:19:59.000Z</time></trkpt><trkpt lat="52.522226" lon="13.370867"><time>2024-01-19T12:20:03.000Z</time></trkpt><trkpt lat="52.522198" lon="13.370913"><time>2024-01-19T12:20:05.000Z</time></trkpt><trkpt lat="52.522172" lon="13.370962"><time>2024-01-19T12:20:09.000Z</time></trkpt><trkpt lat="52.522142" lon="13.371017"><time>2024-01-19T12:20:13.000Z</time></trkpt><trkpt lat="52.522109" lon="13.371071"><time>2024-01-19T12:20:17.000Z</time></trkpt><trkpt lat="52.522079" lon="13.371114"><time>2024-01-19T12:20:21.000Z</time></trkpt><trkpt lat="52.522044" lon="13.371156"><time>2024-01-19T12:20:23.000Z</time></trkpt><trkpt lat="52.522012" lon="13.371196"><time>2024-01-19T12:20:27.000Z</time></trkpt><trkpt lat="52.521973" lon="13.371243"><time>2024-01-19T12:20:31.000Z</time></trkpt><trkpt lat="52.521943" lon="13.371285"><time>2024-01-19T12:20:35.000Z</time></trkpt><trkpt lat="52.521912" lon="13.37133"><time>2024-01-19T12:20:37.000Z</time></trkpt><trkpt lat="52.521883" lon="13.371376"><time>2024-01-19T12:20:41.000Z</time></trkpt><trkpt lat="52.521851" lon="13.371423"><time>2024-01-19T12:20:45.000Z</time></trkpt><trkpt lat="52.521822" lon="13.371465"><time>2024-01-19T12:20:49.000Z</time></trkpt><trkpt lat="52.521793" lon="13.371503"><time>2024-01-19T12:20:53.000Z</time></trkpt><trkpt lat="52.521761" lon="13.371546"><time>2024-01-19T12:20:57.000Z</time></trkpt><trkpt lat="52.521725" lon="13.371591"><time>2024-01-19T12:21:01.000Z</time></trkpt><trkpt lat="52.521687" lon="13.371638"><time>2024-01-19T12:21:05.000Z</time></trkpt><trkpt lat="52.521652" lon="13.371688"><time>2024-01-19T12:21:09.000Z</time></trkpt><trkpt lat="52.521619" lon="13.371736"><time>2024-01-19T12:21:13.000Z</time></trkpt><trkpt lat="52.52159" lon="13.37178"><time>2024-01-19T12:21:17.000Z</time></trkpt><trkpt lat="52.521559" lon="13.371821"><time>2024-01-19T12:21:21.000Z</time></trkpt><trkpt lat="52.521527" lon="13.371866"><time>2024-01-19T12:21:25.000Z</time></trkpt><trkpt lat="52.521496" lon="13.371913"><time>2024-01-19T12:21:29.000Z</time></trkpt><trkpt lat="52.521467" lon="13.371956"><time>2024-01-19T12:21:33.000Z</time></trkpt><trkpt lat="52.521439" lon="13.371995"><time>2024-01-19T12:21:37.000Z</time></trkpt><trkpt lat="52.521409" lon="13.372035"><time>2024-01-19T12:21:41.000Z</time></trkpt><trkpt lat="52.521381" lon="13.372074"><time>2024-01-19T12:21:45.000Z</time></trkpt><trkpt lat="52.521357" lon="13.372111"><time>2024-01-19T12:21:47.000Z</time></trkpt><trkpt lat="52.521336" lon="13.372146"><time>2024-01-19T12:21:49.000Z</time></trkpt><trkpt lat="52.521314" lon="13.372184"><time>2024-01-19T12:21:51.000Z</time></trkpt><trkpt lat="52.521293" lon="13.372222"><time>2024-01-19T12:21:53.000Z</time></trkpt><trkpt lat="52.521266" lon="13.372267"><time>2024-01-19T12:21:55.000Z</time></trkpt><trkpt lat="52.521236" lon="13.372314"><time>2024-01-19T12:21:59.000Z</time></trkpt><trkpt lat="52.521201" lon="13.372368"><time>2024-01-19T12:22:03.000Z</time></trkpt><trkpt lat="52.521174" lon="13.372417"><time>2024-01-19T12:22:07.000Z</time></trkpt><trkpt lat="52.521148" lon="13.372459"><time>2024-01-19T12:22:11.000Z</time></trkpt><trkpt lat="52.521121" lon="13.372497"><time>2024-01-19T12:22:15.000Z</time></trkpt><trkpt lat="52.521084" lon="13.372534"><time>2024-01-19T12:22:19.000Z</time></trkpt><trkpt lat="52.521046" lon="13.372571"><time>2024-01-19T12:22:23.000Z</time></trkpt><trkpt lat="52.521008" lon="13.372607"><time>2024-01-19T12:22:27.000Z</time></trkpt><trkpt lat="52.520966" lon="13.37264"><time>2024-01-19T12:22:31.000Z</time></trkpt><trkpt lat="52.520927" lon="13.372669"><time>2024-01-19T12:22:35.000Z</time></trkpt><trkpt lat="52.520888" lon="13.372696"><time>2024-01-19T12:22:37.000Z</time></trkpt><trkpt lat="52.520855" lon="13.372725"><time>2024-01-19T12:22:41.000Z</time></trkpt><trkpt lat="52.52082" lon="13.372747"><time>2024-01-19T12:22:45.000Z</time></trkpt><trkpt lat="52.520787" lon="13.372755"><time>2024-01-19T12:22:49.000Z</time></trkpt><trkpt lat="52.520757" lon="13.372755"><time>2024-01-19T12:22:57.000Z</time></trkpt><trkpt lat="52.520722" lon="13.372774"><time>2024-01-19T12:22:59.000Z</time></trkpt><trkpt lat="52.52069" lon="13.37281"><time>2024-01-19T12:23:03.000Z</time></trkpt><trkpt lat="52.520655" lon="13.372859"><time>2024-01-19T12:23:05.000Z</time></trkpt><trkpt lat="52.520625" lon="13.372905"><time>2024-01-19T12:23:09.000Z</time></trkpt><trkpt lat="52.520589" lon="13.372949"><time>2024-01-19T12:23:13.000Z</time></trkpt><trkpt lat="52.52055" lon="13.372987"><time>2024-01-19T12:23:17.000Z</time></trkpt><trkpt lat="52.520513" lon="13.373015"><time>2024-01-19T12:23:21.000Z</time></trkpt><trkpt lat="52.520482" lon="13.373031"><time>2024-01-19T12:23:25.000Z</time></trkpt><trkpt lat="52.520455" lon="13.373036"><time>2024-01-19T12:23:33.000Z</time></trkpt><trkpt lat="52.520422" lon="13.373041"><time>2024-01-19T12:23:39.000Z</time></trkpt><trkpt lat="52.52039" lon="13.373054"><time>2024-01-19T12:23:43.000Z</time></trkpt><trkpt lat="52.520357" lon="13.373067"><time>2024-01-19T12:23:45.000Z</time></trkpt><trkpt lat="52.52033" lon="13.373075"><time>2024-01-19T12:23:47.000Z</time></trkpt><trkpt lat="52.520301" lon="13.37308"><time>2024-01-19T12:23:49.000Z</time></trkpt><trkpt lat="52.520268" lon="13.373087"><time>2024-01-19T12:23:51.000Z</time></trkpt><trkpt lat="52.520229" lon="13.373095"><time>2024-01-19T12:23:55.000Z</time></trkpt><trkpt lat="52.520189" lon="13.373097"><time>2024-01-19T12:23:59.000Z</time></trkpt><trkpt lat="52.520147" lon="13.373093"><time>2024-01-19T12:24:03.000Z</time></trkpt><trkpt lat="52.520104" lon="13.373096"><time>2024-01-19T12:24:07.000Z</time></trkpt><trkpt lat="52.520057" lon="13.373115"><time>2024-01-19T12:24:11.000Z</time></trkpt><trkpt lat="52.520018" lon="13.373144"><time>2024-01-19T12:24:15.000Z</time></trkpt><trkpt lat="52.519984" lon="13.373168"><time>2024-01-19T12:24:17.000Z</time></trkpt><trkpt lat="52.519957" lon="13.373182"><time>2024-01-19T12:24:19.000Z</time></trkpt><trkpt lat="52.519928" lon="13.373185"><time>2024-01-19T12:24:21.000Z</time></trkpt><trkpt lat="52.519899" lon="13.373178"><time>2024-01-19T12:24:23.000Z</time></trkpt><trkpt lat="52.51987" lon="13.373167"><time>2024-01-19T12:24:25.000Z</time></trkpt><trkpt lat="52.51984" lon="13.37317"><time>2024-01-19T12:24:27.000Z</time></trkpt><trkpt lat="52.519808" lon="13.373184"><time>2024-01-19T12:24:31.000Z</time></trkpt><trkpt lat="52.519775" lon="13.373205"><time>2024-01-19T12:24:35.000Z</time></trkpt><trkpt lat="52.519787" lon="13.373362"><time>2024-01-19T12:25:03.000Z</time></trkpt><trkpt lat="52.519686" lon="13.373237"><time>2024-01-19T12:25:15.000Z</time></trkpt><trkpt lat="52.519625" lon="13.373201"><time>2024-01-19T12:25:19.000Z</time></trkpt><trkpt lat="52.519603" lon="13.373247"><time>2024-01-19T12:25:23.000Z</time></trkpt><trkpt lat="52.519577" lon="13.373292"><time>2024-01-19T12:25:27.000Z</time></trkpt><trkpt lat="52.519547" lon="13.373313"><time>2024-01-19T12:25:31.000Z</time></trkpt><trkpt lat="52.519513" lon="13.373326"><time>2024-01-19T12:25:35.000Z</time></trkpt><trkpt lat="52.519481" lon="13.373331"><time>2024-01-19T12:25:39.000Z</time></trkpt><trkpt lat="52.519448" lon="13.373338"><time>2024-01-19T12:25:41.000Z</time></trkpt><trkpt lat="52.519418" lon="13.373341"><time>2024-01-19T12:25:43.000Z</time></trkpt><trkpt lat="52.519388" lon="13.373345"><time>2024-01-19T12:25:45.000Z</time></trkpt><trkpt lat="52.519359" lon="13.373346"><time>2024-01-19T12:25:47.000Z</time></trkpt><trkpt lat="52.519325" lon="13.373343"><time>2024-01-19T12:25:49.000Z</time></trkpt><trkpt lat="52.519291" lon="13.373349"><time>2024-01-19T12:25:53.000Z</time></trkpt><trkpt lat="52.519257" lon="13.373354"><time>2024-01-19T12:25:57.000Z</time></trkpt><trkpt lat="52.519223" lon="13.373349"><time>2024-01-19T12:26:05.000Z</time></trkpt><trkpt lat="52.519191" lon="13.373324"><time>2024-01-19T12:26:11.000Z</time></trkpt><trkpt lat="52.519185" lon="13.373306"><time>2024-01-19T12:26:15.000Z</time></trkpt><trkpt lat="52.519201" lon="13.373307"><time>2024-01-19T12:26:19.000Z</time></trkpt><trkpt lat="52.519238" lon="13.37332"><time>2024-01-19T12:26:23.000Z</time></trkpt><trkpt lat="52.51927" lon="13.373331"><time>2024-01-19T12:26:27.000Z</time></trkpt><trkpt lat="52.519301" lon="13.373336"><time>2024-01-19T12:26:29.000Z</time></trkpt><trkpt lat="52.519335" lon="13.373342"><time>2024-01-19T12:26:31.000Z</time></trkpt><trkpt lat="52.519376" lon="13.373349"><time>2024-01-19T12:26:35.000Z</time></trkpt><trkpt lat="52.519419" lon="13.373357"><time>2024-01-19T12:26:39.000Z</time></trkpt><trkpt lat="52.519458" lon="13.373359"><time>2024-01-19T12:26:41.000Z</time></trkpt><trkpt lat="52.519489" lon="13.373357"><time>2024-01-19T12:26:43.000Z</time></trkpt><trkpt lat="52.519523" lon="13.373347"><time>2024-01-19T12:26:47.000Z</time></trkpt><trkpt lat="52.519563" lon="13.373334"><time>2024-01-19T12:26:55.000Z</time></trkpt><trkpt lat="52.519603" lon="13.373315"><time>2024-01-19T12:26:59.000Z</time></trkpt><trkpt lat="52.51964" lon="13.373294"><time>2024-01-19T12:27:01.000Z</time></trkpt><trkpt lat="52.519676" lon="13.373281"><time>2024-01-19T12:27:05.000Z</time></trkpt><trkpt lat="52.519712" lon="13.373275"><time>2024-01-19T12:27:09.000Z</time></trkpt><trkpt lat="52.519746" lon="13.373282"><time>2024-01-19T12:27:11.000Z</time></trkpt><trkpt lat="52.519774" lon="13.373284"><time>2024-01-19T12:27:13.000Z</time></trkpt><trkpt lat="52.519811" lon="13.373286"><time>2024-01-19T12:27:15.000Z</time></trkpt><trkpt lat="52.519851" lon="13.373294"><time>2024-01-19T12:27:19.000Z</time></trkpt><trkpt lat="52.519894" lon="13.37331"><time>2024-01-19T12:27:21.000Z</time></trkpt><trkpt lat="52.519929" lon="13.373325"><time>2024-01-19T12:27:23.000Z</time></trkpt><trkpt lat="52.519962" lon="13.373327"><time>2024-01-19T12:27:25.000Z</time></trkpt><trkpt lat="52.519993" lon="13.373325"><time>2024-01-19T12:27:27.000Z</time></trkpt><trkpt lat="52.520025" lon="13.373321"><time>2024-01-19T12:27:29.000Z</time></trkpt><trkpt lat="52.520058" lon="13.373317"><time>2024-01-19T12:27:31.000Z</time></trkpt><trkpt lat="52.520089" lon="13.373305"><time>2024-01-19T12:27:33.000Z</time></trkpt><trkpt lat="52.52012" lon="13.373287"><time>2024-01-19T12:27:35.000Z</time></trkpt><trkpt lat="52.520149" lon="13.373263"><time>2024-01-19T12:27:37.000Z</time></trkpt><trkpt lat="52.520186" lon="13.373237"><time>2024-01-19T12:27:39.000Z</time></trkpt><trkpt lat="52.520222" lon="13.373213"><time>2024-01-19T12:27:43.000Z</time></trkpt><trkpt lat="52.520258" lon="13.373192"><time>2024-01-19T12:27:45.000Z</time></trkpt><trkpt lat="52.520293" lon="13.373173"><time>2024-01-19T12:27:47.000Z</time></trkpt><trkpt lat="52.520328" lon="13.373156"><time>2024-01-19T12:27:51.000Z</time></trkpt><trkpt lat="52.520364" lon="13.373139"><time>2024-01-19T12:27:53.000Z</time></trkpt><trkpt lat="52.520394" lon="13.373116"><time>2024-01-19T12:27:55.000Z</time></trkpt><trkpt lat="52.520431" lon="13.373093"><time>2024-01-19T12:27:59.000Z</time></trkpt><trkpt lat="52.520472" lon="13.373067"><time>2024-01-19T12:28:03.000Z</time></trkpt><trkpt lat="52.520516" lon="13.373048"><time>2024-01-19T12:28:07.000Z</time></trkpt><trkpt lat="52.520554" lon="13.373021"><time>2024-01-19T12:28:11.000Z</time></trkpt><trkpt lat="52.520589" lon="13.372991"><time>2024-01-19T12:28:15.000Z</time></trkpt><trkpt lat="52.520624" lon="13.372955"><time>2024-01-19T12:28:19.000Z</time></trkpt><trkpt lat="52.52066" lon="13.372921"><time>2024-01-19T12:28:23.000Z</time></trkpt><trkpt lat="52.520695" lon="13.372889"><time>2024-01-19T12:28:27.000Z</time></trkpt><trkpt lat="52.520732" lon="13.372856"><time>2024-01-19T12:28:35.000Z</time></trkpt><trkpt lat="52.520769" lon="13.37282"><time>2024-01-19T12:28:39.000Z</time></trkpt><trkpt lat="52.520807" lon="13.372777"><time>2024-01-19T12:28:43.000Z</time></trkpt><trkpt lat="52.520843" lon="13.372737"><time>2024-01-19T12:28:47.000Z</time></trkpt><trkpt lat="52.52088" lon="13.372695"><time>2024-01-19T12:28:51.000Z</time></trkpt><trkpt lat="52.520916" lon="13.372653"><time>2024-01-19T12:28:55.000Z</time></trkpt><trkpt lat="52.520955" lon="13.372615"><time>2024-01-19T12:28:59.000Z</time></trkpt><trkpt lat="52.520991" lon="13.372588"><time>2024-01-19T12:29:03.000Z</time></trkpt><trkpt lat="52.521024" lon="13.372568"><time>2024-01-19T12:29:05.000Z</time></trkpt><trkpt lat="52.521051" lon="13.372548"><time>2024-01-19T12:29:07.000Z</time></trkpt><trkpt lat="52.521081" lon="13.37252"><time>2024-01-19T12:29:09.000Z</time></trkpt><trkpt lat="52.521117" lon="13.37248"><time>2024-01-19T12:29:13.000Z</time></trkpt><trkpt lat="52.521152" lon="13.372439"><time>2024-01-19T12:29:17.000Z</time></trkpt><trkpt lat="52.521188" lon="13.372393"><time>2024-01-19T12:29:19.000Z</time></trkpt><trkpt lat="52.521219" lon="13.37236"><time>2024-01-19T12:29:23.000Z</time></trkpt><trkpt lat="52.521251" lon="13.372328"><time>2024-01-19T12:29:25.000Z</time></trkpt><trkpt lat="52.521282" lon="13.372303"><time>2024-01-19T12:29:27.000Z</time></trkpt><trkpt lat="52.521313" lon="13.372266"><time>2024-01-19T12:29:31.000Z</time></trkpt><trkpt lat="52.521344" lon="13.372217"><time>2024-01-19T12:29:35.000Z</time></trkpt><trkpt lat="52.52137" lon="13.372163"><time>2024-01-19T12:29:39.000Z</time></trkpt><trkpt lat="52.5214" lon="13.372109"><time>2024-01-19T12:29:43.000Z</time></trkpt><trkpt lat="52.521429" lon="13.372066"><time>2024-01-19T12:29:47.000Z</time></trkpt><trkpt lat="52.521458" lon="13.37202"><time>2024-01-19T12:29:49.000Z</time></trkpt><trkpt lat="52.521485" lon="13.371984"><time>2024-01-19T12:29:53.000Z</time></trkpt><trkpt lat="52.521516" lon="13.371939"><time>2024-01-19T12:29:55.000Z</time></trkpt><trkpt lat="52.521545" lon="13.371901"><time>2024-01-19T12:29:59.000Z</time></trkpt><trkpt lat="52.521573" lon="13.371852"><time>2024-01-19T12:30:01.000Z</time></trkpt><trkpt lat="52.521594" lon="13.371809"><time>2024-01-19T12:30:05.000Z</time></trkpt><trkpt lat="52.521623" lon="13.371759"><time>2024-01-19T12:30:09.000Z</time></trkpt><trkpt lat="52.521658" lon="13.371711"><time>2024-01-19T12:30:13.000Z</time></trkpt><trkpt lat="52.521696" lon="13.371664"><time>2024-01-19T12:30:17.000Z</time></trkpt><trkpt lat="52.52173" lon="13.37162"><time>2024-01-19T12:30:19.000Z</time></trkpt><trkpt lat="52.521764" lon="13.371577"><time>2024-01-19T12:30:23.000Z</time></trkpt><trkpt lat="52.521801" lon="13.371526"><time>2024-01-19T12:30:27.000Z</time></trkpt><trkpt lat="52.521835" lon="13.371471"><time>2024-01-19T12:30:31.000Z</time></trkpt><trkpt lat="52.521867" lon="13.371409"><time>2024-01-19T12:30:35.000Z</time></trkpt><trkpt lat="52.521897" lon="13.371344"><time>2024-01-19T12:30:39.000Z</time></trkpt><trkpt lat="52.521927" lon="13.371289"><time>2024-01-19T12:30:43.000Z</time></trkpt><trkpt lat="52.521958" lon="13.371249"><time>2024-01-19T12:30:45.000Z</time></trkpt><trkpt lat="52.521984" lon="13.371219"><time>2024-01-19T12:30:49.000Z</time></trkpt><trkpt lat="52.522016" lon="13.371185"><time>2024-01-19T12:30:51.000Z</time></trkpt><trkpt lat="52.522048" lon="13.371143"><time>2024-01-19T12:30:55.000Z</time></trkpt><trkpt lat="52.522083" lon="13.371093"><time>2024-01-19T12:30:59.000Z</time></trkpt><trkpt lat="52.52211" lon="13.371047"><time>2024-01-19T12:31:03.000Z</time></trkpt><trkpt lat="52.522136" lon="13.371"><time>2024-01-19T12:31:05.000Z</time></trkpt><trkpt lat="52.522161" lon="13.37096"><time>2024-01-19T12:31:09.000Z</time></trkpt><trkpt lat="52.522193" lon="13.370915"><time>2024-01-19T12:31:11.000Z</time></trkpt><trkpt lat="52.522223" lon="13.370881"><time>2024-01-19T12:31:15.000Z</time></trkpt><trkpt lat="52.522255" lon="13.370854"><time>2024-01-19T12:31:17.000Z</time></trkpt><trkpt lat="52.522282" lon="13.370843"><time>2024-01-19T12:31:19.000Z</time></trkpt><trkpt lat="52.522314" lon="13.37083"><time>2024-01-19T12:31:21.000Z</time></trkpt><trkpt lat="52.52235" lon="13.370817"><time>2024-01-19T12:31:25.000Z</time></trkpt><trkpt lat="52.522389" lon="13.370803"><time>2024-01-19T12:31:29.000Z</time></trkpt><trkpt lat="52.522429" lon="13.370795"><time>2024-01-19T12:31:31.000Z</time></trkpt><trkpt lat="52.522468" lon="13.370792"><time>2024-01-19T12:31:35.000Z</time></trkpt><trkpt lat="52.522509" lon="13.370787"><time>2024-01-19T12:31:39.000Z</time></trkpt><trkpt lat="52.522553" lon="13.370781"><time>2024-01-19T12:31:43.000Z</time></trkpt><trkpt lat="52.522598" lon="13.370775"><time>2024-01-19T12:31:47.000Z</time></trkpt><trkpt lat="52.522639" lon="13.370773"><time>2024-01-19T12:31:51.000Z</time></trkpt><trkpt lat="52.522673" lon="13.370772"><time>2024-01-19T12:31:53.000Z</time></trkpt><trkpt lat="52.522707" lon="13.370765"><time>2024-01-19T12:31:55.000Z</time></trkpt><trkpt lat="52.522741" lon="13.370758"><time>2024-01-19T12:31:59.000Z</time></trkpt><trkpt lat="52.522776" lon="13.370756"><time>2024-01-19T12:32:01.000Z</time></trkpt><trkpt lat="52.522806" lon="13.370762"><time>2024-01-19T12:32:03.000Z</time></trkpt><trkpt lat="52.522836" lon="13.370769"><time>2024-01-19T12:32:05.000Z</time></trkpt><trkpt lat="52.522867" lon="13.370774"><time>2024-01-19T12:32:07.000Z</time></trkpt><trkpt lat="52.522898" lon="13.37078"><time>2024-01-19T12:32:09.000Z</time></trkpt><trkpt lat="52.522928" lon="13.370783"><time>2024-01-19T12:32:11.000Z</time></trkpt><trkpt lat="52.522961" lon="13.370781"><time>2024-01-19T12:32:13.000Z</time></trkpt><trkpt lat="52.523" lon="13.370784"><time>2024-01-19T12:32:17.000Z</time></trkpt><trkpt lat="52.523045" lon="13.370782"><time>2024-01-19T12:32:21.000Z</time></trkpt><trkpt lat="52.523086" lon="13.370783"><time>2024-01-19T12:32:25.000Z</time></trkpt><trkpt lat="52.523132" lon="13.370774"><time>2024-01-19T12:32:27.000Z</time></trkpt><trkpt lat="52.523177" lon="13.370774"><time>2024-01-19T12:32:31.000Z</time></trkpt><trkpt lat="52.523229" lon="13.370774"><time>2024-01-19T12:32:35.000Z</time></trkpt><trkpt lat="52.523276" lon="13.370758"><time>2024-01-19T12:32:39.000Z</time></trkpt><trkpt lat="52.523313" lon="13.370724"><time>2024-01-19T12:32:43.000Z</time></trkpt><trkpt lat="52.52334" lon="13.3707"><time>2024-01-19T12:32:47.000Z</time></trkpt><trkpt lat="52.523335" lon="13.370623"><time>2024-01-19T12:34:03.000Z</time></trkpt><trkpt lat="52.523367" lon="13.3706"><time>2024-01-19T12:34:09.000Z</time></trkpt><trkpt lat="52.523403" lon="13.37058"><time>2024-01-19T12:34:13.000Z</time></trkpt><trkpt lat="52.523441" lon="13.370569"><time>2024-01-19T12:34:17.000Z</time></trkpt><trkpt lat="52.523486" lon="13.370557"><time>2024-01-19T12:34:21.000Z</time></trkpt><trkpt lat="52.523527" lon="13.370544"><time>2024-01-19T12:34:23.000Z</time></trkpt><trkpt lat="52.523567" lon="13.370525"><time>2024-01-19T12:34:25.000Z</time></trkpt><trkpt lat="52.523603" lon="13.370504"><time>2024-01-19T12:34:27.000Z</time></trkpt><trkpt lat="52.523643" lon="13.370478"><time>2024-01-19T12:34:29.000Z</time></trkpt><trkpt lat="52.52368" lon="13.37044"><time>2024-01-19T12:34:33.000Z</time></trkpt><trkpt lat="52.523713" lon="13.370412"><time>2024-01-19T12:34:37.000Z</time></trkpt><trkpt lat="52.52375" lon="13.370385"><time>2024-01-19T12:34:39.000Z</time></trkpt><trkpt lat="52.523787" lon="13.370372"><time>2024-01-19T12:34:43.000Z</time></trkpt><trkpt lat="52.523826" lon="13.370348"><time>2024-01-19T12:34:45.000Z</time></trkpt><trkpt lat="52.523856" lon="13.370325"><time>2024-01-19T12:34:49.000Z</time></trkpt><trkpt lat="52.52403" lon="13.370241"><time>2024-01-19T12:34:51.000Z</time></trkpt><trkpt lat="52.524203" lon="13.370167"><time>2024-01-19T12:35:11.000Z</time></trkpt><trkpt lat="52.524357" lon="13.370089"><time>2024-01-19T12:35:25.000Z</time></trkpt><trkpt lat="52.524367" lon="13.370072"><time>2024-01-19T12:35:31.000Z</time></trkpt><trkpt lat="52.524381" lon="13.370059"><time>2024-01-19T12:35:37.000Z</time></trkpt><trkpt lat="52.524414" lon="13.370063"><time>2024-01-19T12:35:43.000Z</time></trkpt><trkpt lat="52.524433" lon="13.370081"><time>2024-01-19T12:35:51.000Z</time></trkpt><trkpt lat="52.524429" lon="13.370094"><time>2024-01-19T12:35:53.000Z</time></trkpt><trkpt lat="52.524417" lon="13.370087"><time>2024-01-19T12:35:57.000Z</time></trkpt><trkpt lat="52.524401" lon="13.370035"><time>2024-01-19T12:36:01.000Z</time></trkpt><trkpt lat="52.524404" lon="13.36997"><time>2024-01-19T12:36:03.000Z</time></trkpt><trkpt lat="52.52441" lon="13.369908"><time>2024-01-19T12:36:09.000Z</time></trkpt><trkpt lat="52.524435" lon="13.369857"><time>2024-01-19T12:36:11.000Z</time></trkpt><trkpt lat="52.524439" lon="13.369787"><time>2024-01-19T12:36:13.000Z</time></trkpt><trkpt lat="52.524436" lon="13.369706"><time>2024-01-19T12:36:15.000Z</time></trkpt><trkpt lat="52.524421" lon="13.369628"><time>2024-01-19T12:36:17.000Z</time></trkpt><trkpt lat="52.524411" lon="13.369549"><time>2024-01-19T12:36:19.000Z</time></trkpt><trkpt lat="52.524233" lon="13.369165"><time>2024-01-19T12:37:44.000Z</time></trkpt><trkpt lat="52.524356" lon="13.369151"><time>2024-01-19T12:37:46.000Z</time></trkpt><trkpt lat="52.524536" lon="13.369105"><time>2024-01-19T12:37:48.000Z</time></trkpt><trkpt lat="52.524685" lon="13.369037"><time>2024-01-19T12:37:52.000Z</time></trkpt><trkpt lat="52.52482" lon="13.368953"><time>2024-01-19T12:37:54.000Z</time></trkpt><trkpt lat="52.525118" lon="13.368586"><time>2024-01-19T12:37:56.000Z</time></trkpt><trkpt lat="52.525418" lon="13.368218"><time>2024-01-19T12:38:11.000Z</time></trkpt><trkpt lat="52.525691" lon="13.367845"><time>2024-01-19T12:38:13.000Z</time></trkpt><trkpt lat="52.525738" lon="13.367766"><time>2024-01-19T12:38:15.000Z</time></trkpt><trkpt lat="52.525753" lon="13.367702"><time>2024-01-19T12:38:17.000Z</time></trkpt><trkpt lat="52.525747" lon="13.367649"><time>2024-01-19T12:38:19.000Z</time></trkpt><trkpt lat="52.525678" lon="13.367619"><time>2024-01-19T12:38:21.000Z</time></trkpt><trkpt lat="52.52561" lon="13.367616"><time>2024-01-19T12:38:23.000Z</time></trkpt><trkpt lat="52.525508" lon="13.367623"><time>2024-01-19T12:38:25.000Z</time></trkpt><trkpt lat="52.525413" lon="13.367741"><time>2024-01-19T12:38:27.000Z</time></trkpt><trkpt lat="52.525344" lon="13.367858"><time>2024-01-19T12:38:32.000Z</time></trkpt><trkpt lat="52.525304" lon="13.367994"><time>2024-01-19T12:38:34.000Z</time></trkpt><trkpt lat="52.525287" lon="13.368051"><time>2024-01-19T12:38:36.000Z</time></trkpt><trkpt lat="52.52526" lon="13.368135"><time>2024-01-19T12:38:38.000Z</time></trkpt><trkpt lat="52.525238" lon="13.368226"><time>2024-01-19T12:38:40.000Z</time></trkpt><trkpt lat="52.525203" lon="13.368295"><time>2024-01-19T12:38:42.000Z</time></trkpt><trkpt lat="52.525153" lon="13.368337"><time>2024-01-19T12:38:44.000Z</time></trkpt><trkpt lat="52.525121" lon="13.368383"><time>2024-01-19T12:38:46.000Z</time></trkpt><trkpt lat="52.525109" lon="13.368434"><time>2024-01-19T12:38:48.000Z</time></trkpt><trkpt lat="52.525097" lon="13.368484"><time>2024-01-19T12:38:50.000Z</time></trkpt><trkpt lat="52.525091" lon="13.36854"><time>2024-01-19T12:38:54.000Z</time></trkpt><trkpt lat="52.525066" lon="13.368578"><time>2024-01-19T12:38:58.000Z</time></trkpt><trkpt lat="52.525056" lon="13.368589"><time>2024-01-19T12:39:02.000Z</time></trkpt><trkpt lat="52.525035" lon="13.368587"><time>2024-01-19T12:39:06.000Z</time></trkpt><trkpt lat="52.525012" lon="13.368601"><time>2024-01-19T12:39:10.000Z</time></trkpt><trkpt lat="52.524984" lon="13.368649"><time>2024-01-19T12:39:16.000Z</time></trkpt><trkpt lat="52.524933" lon="13.368689"><time>2024-01-19T12:39:18.000Z</time></trkpt><trkpt lat="52.524871" lon="13.368727"><time>2024-01-19T12:39:20.000Z</time></trkpt><trkpt lat="52.524813" lon="13.368771"><time>2024-01-19T12:39:22.000Z</time></trkpt><trkpt lat="52.524785" lon="13.368831"><time>2024-01-19T12:39:24.000Z</time></trkpt><trkpt lat="52.524776" lon="13.368912"><time>2024-01-19T12:39:26.000Z</time></trkpt><trkpt lat="52.520667" lon="13.386407"><time>2024-01-19T12:41:14.000Z</time></trkpt><trkpt lat="52.520631" lon="13.386342"><time>2024-01-19T12:41:16.000Z</time></trkpt><trkpt lat="52.520621" lon="13.386313"><time>2024-01-19T12:41:24.000Z</time></trkpt><trkpt lat="52.520617" lon="13.386342"><time>2024-01-19T12:41:44.000Z</time></trkpt><trkpt lat="52.520609" lon="13.386438"><time>2024-01-19T12:41:50.000Z</time></trkpt><trkpt lat="52.520576" lon="13.386567"><time>2024-01-19T12:41:52.000Z</time></trkpt><trkpt lat="52.520519" lon="13.3867"><time>2024-01-19T12:41:54.000Z</time></trkpt></trkseg></trk></gpx>