<?xml version="1.0" encoding="UTF-8"?><gpx creator="Health" xsi:schemaLocation="http://www.topografix.com/GPX/1/0 http://www.topografix.com/GPX/1/0/gpx.xsd" version="1.0" xmlns="http://www.topografix.com/GPX/1/0" xmlns:xsi="http://www.w3.org/2001/XMLSchema-instance"><metadata><time>2024-03-26T09:06:37.167Z</time></metadata><trk><type>Ходьба на улице</type><extensions><totalTime>7054.0</totalTime><cumulativeDecrease>0.0</cumulativeDecrease><cumulativeClimb>0.0</cumulativeClimb><totalDistance>6022.0</totalDistance></extensions><trkseg><trkpt lat="52.525304" lon="13.420258"><time>2024-03-26T09:06:37.167Z</time></trkpt><trkpt lat="52.525278" lon="13.420338"><time>2024-03-26T09:06:38.500Z</time></trkpt><trkpt lat="52.52525" lon="13.420384"><time>2024-03-26T09:06:39.500Z</time></trkpt><trkpt lat="52.52527" lon="13.42036"><time>2024-03-26T09:06:42.000Z</time></trkpt><trkpt lat="52.525276" lon="13.420287"><time>2024-03-26T09:06:51.000Z</time></trkpt><trkpt lat="52.525274" lon="13.420237"><time>2024-03-26T09:06:55.000Z</time></trkpt><trkpt lat="52.52523" lon="13.420283"><time>2024-03-26T09:07:01.000Z</time></trkpt><trkpt lat="52.525219" lon="13.420369"><time>2024-03-26T09:07:07.000Z</time></trkpt><trkpt lat="52.525234" lon="13.420431"><time>2024-03-26T09:07:15.000Z</time></trkpt><trkpt lat="52.525248" lon="13.420533"><time>2024-03-26T09:07:49.000Z</time></trkpt><trkpt lat="52.525204" lon="13.42048"><time>2024-03-26T09:07:55.000Z</time></trkpt><trkpt lat="52.525168" lon="13.420435"><time>2024-03-26T09:08:07.000Z</time></trkpt><trkpt lat="52.525141" lon="13.420397"><time>2024-03-26T09:08:11.000Z</time></trkpt><trkpt lat="52.525117" lon="13.420359"><time>2024-03-26T09:08:15.000Z</time></trkpt><trkpt lat="52.525079" lon="13.420289"><time>2024-03-26T09:08:19.000Z</time></trkpt><trkpt lat="52.525007" lon="13.420142"><time>2024-03-26T09:09:27.000Z</time></trkpt><trkpt lat="52.524954" lon="13.420096"><time>2024-03-26T09:09:31.000Z</time></trkpt><trkpt lat="52.524909" lon="13.420054"><time>2024-03-26T09:09:35.000Z</time></trkpt><trkpt lat="52.524876" lon="13.420024"><time>2024-03-26T09:09:39.000Z</time></trkpt><trkpt lat="52.524843" lon="13.419988"><time>2024-03-26T09:09:41.000Z</time></trkpt><trkpt lat="52.524807" lon="13.419957"><time>2024-03-26T09:09:45.000Z</time></trkpt><trkpt lat="52.524764" lon="13.419922"><time>2024-03-26T09:09:49.000Z</time></trkpt><trkpt lat="52.524725" lon="13.419889"><time>2024-03-26T09:09:53.000Z</time></trkpt><trkpt lat="52.524689" lon="13.419855"><time>2024-03-26T09:09:55.000Z</time></trkpt><trkpt lat="52.524659" lon="13.419824"><time>2024-03-26T09:09:57.000Z</time></trkpt><trkpt lat="52.524632" lon="13.419793"><time>2024-03-26T09:09:59.000Z</time></trkpt><trkpt lat="52.524602" lon="13.419754"><time>2024-03-26T09:10:01.000Z</time></trkpt><trkpt lat="52.524567" lon="13.419711"><time>2024-03-26T09:10:05.000Z</time></trkpt><trkpt lat="52.52453" lon="13.419666"><time>2024-03-26T09:10:09.000Z</time></trkpt><trkpt lat="52.524496" lon="13.419628"><time>2024-03-26T09:10:13.000Z</time></trkpt><trkpt lat="52.524463" lon="13.419592"><time>2024-03-26T09:10:17.000Z</time></trkpt><trkpt lat="52.524425" lon="13.419557"><time>2024-03-26T09:10:21.000Z</time></trkpt><trkpt lat="52.524382" lon="13.419529"><time>2024-03-26T09:10:25.000Z</time></trkpt><trkpt lat="52.524338" lon="13.4195"><time>2024-03-26T09:10:29.000Z</time></trkpt><trkpt lat="52.524294" lon="13.419468"><time>2024-03-26T09:10:33.000Z</time></trkpt><trkpt lat="52.524258" lon="13.419429"><time>2024-03-26T09:10:37.000Z</time></trkpt><trkpt lat="52.524229" lon="13.419391"><time>2024-03-26T09:10:39.000Z</time></trkpt><trkpt lat="52.524204" lon="13.419348"><time>2024-03-26T09:10:41.000Z</time></trkpt><trkpt lat="52.524179" lon="13.419308"><time>2024-03-26T09:10:45.000Z</time></trkpt><trkpt lat="52.524154" lon="13.419271"><time>2024-03-26T09:10:47.000Z</time></trkpt><trkpt lat="52.52413" lon="13.419238"><time>2024-03-26T09:10:49.000Z</time></trkpt><trkpt lat="52.524106" lon="13.419204"><time>2024-03-26T09:10:51.000Z</time></trkpt><trkpt lat="52.524076" lon="13.419162"><time>2024-03-26T09:10:53.000Z</time></trkpt><trkpt lat="52.524048" lon="13.419122"><time>2024-03-26T09:10:57.000Z</time></trkpt><trkpt lat="52.524014" lon="13.419082"><time>2024-03-26T09:10:59.000Z</time></trkpt><trkpt lat="52.523981" lon="13.419047"><time>2024-03-26T09:11:03.000Z</time></trkpt><trkpt lat="52.523947" lon="13.419008"><time>2024-03-26T09:11:07.000Z</time></trkpt><trkpt lat="52.523918" lon="13.418972"><time>2024-03-26T09:11:09.000Z</time></trkpt><trkpt lat="52.523895" lon="13.418939"><time>2024-03-26T09:11:11.000Z</time></trkpt><trkpt lat="52.523868" lon="13.418904"><time>2024-03-26T09:11:13.000Z</time></trkpt><trkpt lat="52.523838" lon="13.418874"><time>2024-03-26T09:11:17.000Z</time></trkpt><trkpt lat="52.523806" lon="13.418849"><time>2024-03-26T09:11:21.000Z</time></trkpt><trkpt lat="52.523777" lon="13.418833"><time>2024-03-26T09:11:25.000Z</time></trkpt><trkpt lat="52.523746" lon="13.41881"><time>2024-03-26T09:11:29.000Z</time></trkpt><trkpt lat="52.523711" lon="13.418779"><time>2024-03-26T09:11:33.000Z</time></trkpt><trkpt lat="52.523671" lon="13.418741"><time>2024-03-26T09:11:37.000Z</time></trkpt><trkpt lat="52.523626" lon="13.418696"><time>2024-03-26T09:11:41.000Z</time></trkpt><trkpt lat="52.523583" lon="13.418655"><time>2024-03-26T09:11:45.000Z</time></trkpt><trkpt lat="52.523546" lon="13.418621"><time>2024-03-26T09:11:47.000Z</time></trkpt><trkpt lat="52.523514" lon="13.418598"><time>2024-03-26T09:11:49.000Z</time></trkpt><trkpt lat="52.523484" lon="13.418573"><time>2024-03-26T09:11:51.000Z</time></trkpt><trkpt lat="52.523453" lon="13.418551"><time>2024-03-26T09:11:53.000Z</time></trkpt><trkpt lat="52.523423" lon="13.418535"><time>2024-03-26T09:11:55.000Z</time></trkpt><trkpt lat="52.52339" lon="13.418511"><time>2024-03-26T09:11:57.000Z</time></trkpt><trkpt lat="52.523358" lon="13.418477"><time>2024-03-26T09:12:01.000Z</time></trkpt><trkpt lat="52.523325" lon="13.418434"><time>2024-03-26T09:12:05.000Z</time></trkpt><trkpt lat="52.523294" lon="13.418393"><time>2024-03-26T09:12:09.000Z</time></trkpt><trkpt lat="52.52326" lon="13.418356"><time>2024-03-26T09:12:13.000Z</time></trkpt><trkpt lat="52.523229" lon="13.418322"><time>2024-03-26T09:12:17.000Z</time></trkpt><trkpt lat="52.523195" lon="13.418287"><time>2024-03-26T09:12:19.000Z</time></trkpt><trkpt lat="52.523158" lon="13.418253"><time>2024-03-26T09:12:23.000Z</time></trkpt><trkpt lat="52.52312" lon="13.418214"><time>2024-03-26T09:12:27.000Z</time></trkpt><trkpt lat="52.52308" lon="13.418183"><time>2024-03-26T09:12:31.000Z</time></trkpt><trkpt lat="52.523038" lon="13.418152"><time>2024-03-26T09:12:35.000Z</time></trkpt><trkpt lat="52.522998" lon="13.418127"><time>2024-03-26T09:12:39.000Z</time></trkpt><trkpt lat="52.522957" lon="13.418097"><time>2024-03-26T09:12:41.000Z</time></trkpt><trkpt lat="52.522918" lon="13.418071"><time>2024-03-26T09:12:45.000Z</time></trkpt><trkpt lat="52.522878" lon="13.418045"><time>2024-03-26T09:12:49.000Z</time></trkpt><trkpt lat="52.522845" lon="13.418022"><time>2024-03-26T09:12:51.000Z</time></trkpt><trkpt lat="52.522819" lon="13.417997"><time>2024-03-26T09:12:53.000Z</time></trkpt><trkpt lat="52.522794" lon="13.417964"><time>2024-03-26T09:12:55.000Z</time></trkpt><trkpt lat="52.522757" lon="13.417892"><time>2024-03-26T09:12:57.000Z</time></trkpt><trkpt lat="52.522718" lon="13.417815"><time>2024-03-26T09:13:01.000Z</time></trkpt><trkpt lat="52.522674" lon="13.41774"><time>2024-03-26T09:13:03.000Z</time></trkpt><trkpt lat="52.522638" lon="13.417703"><time>2024-03-26T09:13:07.000Z</time></trkpt><trkpt lat="52.522603" lon="13.417674"><time>2024-03-26T09:13:11.000Z</time></trkpt><trkpt lat="52.522573" lon="13.417649"><time>2024-03-26T09:13:15.000Z</time></trkpt><trkpt lat="52.522545" lon="13.417623"><time>2024-03-26T09:13:19.000Z</time></trkpt><trkpt lat="52.522518" lon="13.417592"><time>2024-03-26T09:13:23.000Z</time></trkpt><trkpt lat="52.522492" lon="13.417554"><time>2024-03-26T09:13:27.000Z</time></trkpt><trkpt lat="52.522469" lon="13.417512"><time>2024-03-26T09:13:33.000Z</time></trkpt><trkpt lat="52.522442" lon="13.417471"><time>2024-03-26T09:13:37.000Z</time></trkpt><trkpt lat="52.522411" lon="13.417448"><time>2024-03-26T09:13:43.000Z</time></trkpt><trkpt lat="52.522368" lon="13.417442"><time>2024-03-26T09:13:47.000Z</time></trkpt><trkpt lat="52.522324" lon="13.417439"><time>2024-03-26T09:13:51.000Z</time></trkpt><trkpt lat="52.522284" lon="13.417421"><time>2024-03-26T09:13:55.000Z</time></trkpt><trkpt lat="52.522253" lon="13.417388"><time>2024-03-26T09:13:59.000Z</time></trkpt><trkpt lat="52.522226" lon="13.417349"><time>2024-03-26T09:14:05.000Z</time></trkpt><trkpt lat="52.522191" lon="13.417315"><time>2024-03-26T09:14:09.000Z</time></trkpt><trkpt lat="52.522146" lon="13.417286"><time>2024-03-26T09:14:13.000Z</time></trkpt><trkpt lat="52.522091" lon="13.41727"><time>2024-03-26T09:14:17.000Z</time></trkpt><trkpt lat="52.522046" lon="13.417286"><time>2024-03-26T09:14:21.000Z</time></trkpt><trkpt lat="52.522011" lon="13.417318"><time>2024-03-26T09:14:25.000Z</time></trkpt><trkpt lat="52.521989" lon="13.417363"><time>2024-03-26T09:14:27.000Z</time></trkpt><trkpt lat="52.521966" lon="13.417402"><time>2024-03-26T09:14:31.000Z</time></trkpt><trkpt lat="52.521946" lon="13.417448"><time>2024-03-26T09:14:35.000Z</time></trkpt><trkpt lat="52.52192" lon="13.417512"><time>2024-03-26T09:14:39.000Z</time></trkpt><trkpt lat="52.521902" lon="13.417584"><time>2024-03-26T09:14:43.000Z</time></trkpt><trkpt lat="52.521881" lon="13.417663"><time>2024-03-26T09:14:45.000Z</time></trkpt><trkpt lat="52.521873" lon="13.417724"><time>2024-03-26T09:14:49.000Z</time></trkpt><trkpt lat="52.521864" lon="13.417791"><time>2024-03-26T09:14:51.000Z</time></trkpt><trkpt lat="52.521862" lon="13.417856"><time>2024-03-26T09:14:55.000Z</time></trkpt><trkpt lat="52.521858" lon="13.417923"><time>2024-03-26T09:14:59.000Z</time></trkpt><trkpt lat="52.521851" lon="13.417981"><time>2024-03-26T09:15:05.000Z</time></trkpt><trkpt lat="52.521844" lon="13.418036"><time>2024-03-26T09:15:09.000Z</time></trkpt><trkpt lat="52.521835" lon="13.418089"><time>2024-03-26T09:15:13.000Z</time></trkpt><trkpt lat="52.521824" lon="13.418143"><time>2024-03-26T09:15:17.000Z</time></trkpt><trkpt lat="52.52181" lon="13.418193"><time>2024-03-26T09:15:21.000Z</time></trkpt><trkpt lat="52.521796" lon="13.418245"><time>2024-03-26T09:15:25.000Z</time></trkpt><trkpt lat="52.521781" lon="13.418293"><time>2024-03-26T09:15:29.000Z</time></trkpt><trkpt lat="52.52176" lon="13.418338"><time>2024-03-26T09:15:33.000Z</time></trkpt><trkpt lat="52.521736" lon="13.418388"><time>2024-03-26T09:15:35.000Z</time></trkpt><trkpt lat="52.521714" lon="13.418449"><time>2024-03-26T09:15:39.000Z</time></trkpt><trkpt lat="52.521698" lon="13.418518"><time>2024-03-26T09:15:43.000Z</time></trkpt><trkpt lat="52.521689" lon="13.418584"><time>2024-03-26T09:15:47.000Z</time></trkpt><trkpt lat="52.521689" lon="13.418641"><time>2024-03-26T09:15:51.000Z</time></trkpt><trkpt lat="52.521696" lon="13.418701"><time>2024-03-26T09:15:55.000Z</time></trkpt><trkpt lat="52.521703" lon="13.418759"><time>2024-03-26T09:15:59.000Z</time></trkpt><trkpt lat="52.521704" lon="13.418819"><time>2024-03-26T09:16:03.000Z</time></trkpt><trkpt lat="52.521698" lon="13.418873"><time>2024-03-26T09:16:07.000Z</time></trkpt><trkpt lat="52.521679" lon="13.418929"><time>2024-03-26T09:16:11.000Z</time></trkpt><trkpt lat="52.521659" lon="13.41898"><time>2024-03-26T09:16:15.000Z</time></trkpt><trkpt lat="52.521636" lon="13.419032"><time>2024-03-26T09:16:17.000Z</time></trkpt><trkpt lat="52.521619" lon="13.419086"><time>2024-03-26T09:16:21.000Z</time></trkpt><trkpt lat="52.521597" lon="13.419143"><time>2024-03-26T09:16:25.000Z</time></trkpt><trkpt lat="52.521578" lon="13.419198"><time>2024-03-26T09:16:29.000Z</time></trkpt><trkpt lat="52.521561" lon="13.419249"><time>2024-03-26T09:16:33.000Z</time></trkpt><trkpt lat="52.521547" lon="13.419299"><time>2024-03-26T09:16:37.000Z</time></trkpt><trkpt lat="52.52153" lon="13.41935"><time>2024-03-26T09:16:41.000Z</time></trkpt><trkpt lat="52.521512" lon="13.4194"><time>2024-03-26T09:16:45.000Z</time></trkpt><trkpt lat="52.521493" lon="13.419445"><time>2024-03-26T09:16:49.000Z</time></trkpt><trkpt lat="52.521473" lon="13.419487"><time>2024-03-26T09:16:51.000Z</time></trkpt><trkpt lat="52.521454" lon="13.419533"><time>2024-03-26T09:16:53.000Z</time></trkpt><trkpt lat="52.521437" lon="13.419582"><time>2024-03-26T09:16:57.000Z</time></trkpt><trkpt lat="52.521422" lon="13.419629"><time>2024-03-26T09:16:59.000Z</time></trkpt><trkpt lat="52.521406" lon="13.419679"><time>2024-03-26T09:17:01.000Z</time></trkpt><trkpt lat="52.521392" lon="13.419736"><time>2024-03-26T09:17:05.000Z</time></trkpt><trkpt lat="52.521374" lon="13.419803"><time>2024-03-26T09:17:09.000Z</time></trkpt><trkpt lat="52.521356" lon="13.419866"><time>2024-03-26T09:17:13.000Z</time></trkpt><trkpt lat="52.52133" lon="13.419927"><time>2024-03-26T09:17:17.000Z</time></trkpt><trkpt lat="52.521308" lon="13.419986"><time>2024-03-26T09:17:21.000Z</time></trkpt><trkpt lat="52.521285" lon="13.420051"><time>2024-03-26T09:17:25.000Z</time></trkpt><trkpt lat="52.521269" lon="13.420117"><time>2024-03-26T09:17:29.000Z</time></trkpt><trkpt lat="52.521254" lon="13.420189"><time>2024-03-26T09:17:33.000Z</time></trkpt><trkpt lat="52.521242" lon="13.420264"><time>2024-03-26T09:17:37.000Z</time></trkpt><trkpt lat="52.521232" lon="13.420341"><time>2024-03-26T09:17:41.000Z</time></trkpt><trkpt lat="52.521222" lon="13.420401"><time>2024-03-26T09:17:45.000Z</time></trkpt><trkpt lat="52.521207" lon="13.420445"><time>2024-03-26T09:17:49.000Z</time></trkpt><trkpt lat="52.521179" lon="13.420458"><time>2024-03-26T09:17:59.000Z</time></trkpt><trkpt lat="52.521148" lon="13.420469"><time>2024-03-26T09:18:03.000Z</time></trkpt><trkpt lat="52.52112" lon="13.420489"><time>2024-03-26T09:18:07.000Z</time></trkpt><trkpt lat="52.521097" lon="13.420541"><time>2024-03-26T09:18:11.000Z</time></trkpt><trkpt lat="52.521073" lon="13.4206"><time>2024-03-26T09:18:15.000Z</time></trkpt><trkpt lat="52.521046" lon="13.42065"><time>2024-03-26T09:18:19.000Z</time></trkpt><trkpt lat="52.521027" lon="13.42069"><time>2024-03-26T09:18:21.000Z</time></trkpt><trkpt lat="52.521009" lon="13.42073"><time>2024-03-26T09:18:25.000Z</time></trkpt><trkpt lat="52.520998" lon="13.420782"><time>2024-03-26T09:18:31.000Z</time></trkpt><trkpt lat="52.520988" lon="13.420838"><time>2024-03-26T09:18:35.000Z</time></trkpt><trkpt lat="52.520981" lon="13.420898"><time>2024-03-26T09:18:39.000Z</time></trkpt><trkpt lat="52.520972" lon="13.42095"><time>2024-03-26T09:18:43.000Z</time></trkpt><trkpt lat="52.520957" lon="13.421009"><time>2024-03-26T09:18:45.000Z</time></trkpt><trkpt lat="52.520937" lon="13.421067"><time>2024-03-26T09:18:49.000Z</time></trkpt><trkpt lat="52.520916" lon="13.421127"><time>2024-03-26T09:18:53.000Z</time></trkpt><trkpt lat="52.520898" lon="13.421181"><time>2024-03-26T09:18:57.000Z</time></trkpt><trkpt lat="52.520881" lon="13.421239"><time>2024-03-26T09:19:01.000Z</time></trkpt><trkpt lat="52.520863" lon="13.421304"><time>2024-03-26T09:19:05.000Z</time></trkpt><trkpt lat="52.520842" lon="13.421363"><time>2024-03-26T09:19:09.000Z</time></trkpt><trkpt lat="52.520824" lon="13.421424"><time>2024-03-26T09:19:11.000Z</time></trkpt><trkpt lat="52.520806" lon="13.421492"><time>2024-03-26T09:19:15.000Z</time></trkpt><trkpt lat="52.520792" lon="13.421562"><time>2024-03-26T09:19:19.000Z</time></trkpt><trkpt lat="52.520774" lon="13.42162"><time>2024-03-26T09:19:21.000Z</time></trkpt><trkpt lat="52.520757" lon="13.421671"><time>2024-03-26T09:19:23.000Z</time></trkpt><trkpt lat="52.520736" lon="13.421718"><time>2024-03-26T09:19:27.000Z</time></trkpt><trkpt lat="52.520719" lon="13.421777"><time>2024-03-26T09:19:29.000Z</time></trkpt><trkpt lat="52.520702" lon="13.421824"><time>2024-03-26T09:19:33.000Z</time></trkpt><trkpt lat="52.520697" lon="13.422055"><time>2024-03-26T09:20:05.000Z</time></trkpt><trkpt lat="52.520666" lon="13.422128"><time>2024-03-26T09:20:21.000Z</time></trkpt><trkpt lat="52.520634" lon="13.422162"><time>2024-03-26T09:20:25.000Z</time></trkpt><trkpt lat="52.520602" lon="13.422171"><time>2024-03-26T09:20:29.000Z</time></trkpt><trkpt lat="52.520575" lon="13.422165"><time>2024-03-26T09:20:33.000Z</time></trkpt><trkpt lat="52.520546" lon="13.422175"><time>2024-03-26T09:20:41.000Z</time></trkpt><trkpt lat="52.520512" lon="13.422186"><time>2024-03-26T09:20:53.000Z</time></trkpt><trkpt lat="52.520468" lon="13.422241"><time>2024-03-26T09:20:57.000Z</time></trkpt><trkpt lat="52.520429" lon="13.42229"><time>2024-03-26T09:21:01.000Z</time></trkpt><trkpt lat="52.520394" lon="13.422333"><time>2024-03-26T09:21:03.000Z</time></trkpt><trkpt lat="52.520368" lon="13.422363"><time>2024-03-26T09:21:05.000Z</time></trkpt><trkpt lat="52.520342" lon="13.422398"><time>2024-03-26T09:21:09.000Z</time></trkpt><trkpt lat="52.520317" lon="13.422438"><time>2024-03-26T09:21:11.000Z</time></trkpt><trkpt lat="52.520292" lon="13.422479"><time>2024-03-26T09:21:13.000Z</time></trkpt><trkpt lat="52.520269" lon="13.42252"><time>2024-03-26T09:21:15.000Z</time></trkpt><trkpt lat="52.520244" lon="13.422556"><time>2024-03-26T09:21:17.000Z</time></trkpt><trkpt lat="52.520223" lon="13.422558"><time>2024-03-26T09:21:21.000Z</time></trkpt><trkpt lat="52.520212" lon="13.422532"><time>2024-03-26T09:21:27.000Z</time></trkpt><trkpt lat="52.520206" lon="13.422513"><time>2024-03-26T09:21:31.000Z</time></trkpt><trkpt lat="52.5202" lon="13.422537"><time>2024-03-26T09:21:37.000Z</time></trkpt><trkpt lat="52.520188" lon="13.422594"><time>2024-03-26T09:21:41.000Z</time></trkpt><trkpt lat="52.520174" lon="13.42265"><time>2024-03-26T09:21:43.000Z</time></trkpt><trkpt lat="52.520154" lon="13.422687"><time>2024-03-26T09:21:51.000Z</time></trkpt><trkpt lat="52.520129" lon="13.422723"><time>2024-03-26T09:21:57.000Z</time></trkpt><trkpt lat="52.520104" lon="13.422754"><time>2024-03-26T09:22:03.000Z</time></trkpt><trkpt lat="52.520088" lon="13.422806"><time>2024-03-26T09:22:07.000Z</time></trkpt><trkpt lat="52.520091" lon="13.422864"><time>2024-03-26T09:22:11.000Z</time></trkpt><trkpt lat="52.520104" lon="13.42293"><time>2024-03-26T09:22:15.000Z</time></trkpt><trkpt lat="52.520121" lon="13.42299"><time>2024-03-26T09:22:19.000Z</time></trkpt><trkpt lat="52.520135" lon="13.423044"><time>2024-03-26T09:22:23.000Z</time></trkpt><trkpt lat="52.52015" lon="13.423098"><time>2024-03-26T09:22:27.000Z</time></trkpt><trkpt lat="52.520168" lon="13.423142"><time>2024-03-26T09:22:31.000Z</time></trkpt><trkpt lat="52.520185" lon="13.42319"><time>2024-03-26T09:22:35.000Z</time></trkpt><trkpt lat="52.520122" lon="13.423353"><time>2024-03-26T09:23:05.000Z</time></trkpt><trkpt lat="52.52016" lon="13.423443"><time>2024-03-26T09:24:15.000Z</time></trkpt><trkpt lat="52.520095" lon="13.423441"><time>2024-03-26T09:24:19.000Z</time></trkpt><trkpt lat="52.520051" lon="13.423457"><time>2024-03-26T09:24:23.000Z</time></trkpt><trkpt lat="52.520022" lon="13.423505"><time>2024-03-26T09:24:25.000Z</time></trkpt><trkpt lat="52.519994" lon="13.423556"><time>2024-03-26T09:24:29.000Z</time></trkpt><trkpt lat="52.519962" lon="13.423614"><time>2024-03-26T09:24:33.000Z</time></trkpt><trkpt lat="52.519943" lon="13.423665"><time>2024-03-26T09:24:37.000Z</time></trkpt><trkpt lat="52.519929" lon="13.423716"><time>2024-03-26T09:24:43.000Z</time></trkpt><trkpt lat="52.519918" lon="13.423762"><time>2024-03-26T09:24:47.000Z</time></trkpt><trkpt lat="52.519902" lon="13.423811"><time>2024-03-26T09:24:49.000Z</time></trkpt><trkpt lat="52.519888" lon="13.423861"><time>2024-03-26T09:24:53.000Z</time></trkpt><trkpt lat="52.519878" lon="13.423916"><time>2024-03-26T09:24:57.000Z</time></trkpt><trkpt lat="52.519871" lon="13.423964"><time>2024-03-26T09:25:05.000Z</time></trkpt><trkpt lat="52.519861" lon="13.424007"><time>2024-03-26T09:25:09.000Z</time></trkpt><trkpt lat="52.519862" lon="13.424049"><time>2024-03-26T09:25:13.000Z</time></trkpt><trkpt lat="52.519872" lon="13.424088"><time>2024-03-26T09:25:17.000Z</time></trkpt><trkpt lat="52.519895" lon="13.424133"><time>2024-03-26T09:25:23.000Z</time></trkpt><trkpt lat="52.519913" lon="13.424179"><time>2024-03-26T09:25:27.000Z</time></trkpt><trkpt lat="52.519898" lon="13.424342"><time>2024-03-26T09:25:33.000Z</time></trkpt><trkpt lat="52.51987" lon="13.424503"><time>2024-03-26T09:25:53.000Z</time></trkpt><trkpt lat="52.519823" lon="13.424672"><time>2024-03-26T09:25:57.000Z</time></trkpt><trkpt lat="52.519799" lon="13.424731"><time>2024-03-26T09:26:01.000Z</time></trkpt><trkpt lat="52.519779" lon="13.424803"><time>2024-03-26T09:26:03.000Z</time></trkpt><trkpt lat="52.519768" lon="13.424871"><time>2024-03-26T09:26:07.000Z</time></trkpt><trkpt lat="52.519753" lon="13.424941"><time>2024-03-26T09:26:11.000Z</time></trkpt><trkpt lat="52.519742" lon="13.425004"><time>2024-03-26T09:26:15.000Z</time></trkpt><trkpt lat="52.519731" lon="13.425069"><time>2024-03-26T09:26:19.000Z</time></trkpt><trkpt lat="52.519718" lon="13.425132"><time>2024-03-26T09:26:23.000Z</time></trkpt><trkpt lat="52.519698" lon="13.425194"><time>2024-03-26T09:26:27.000Z</time></trkpt><trkpt lat="52.519678" lon="13.425251"><time>2024-03-26T09:26:33.000Z</time></trkpt><trkpt lat="52.519662" lon="13.425306"><time>2024-03-26T09:26:37.000Z</time></trkpt><trkpt lat="52.519647" lon="13.42536"><time>2024-03-26T09:26:41.000Z</time></trkpt><trkpt lat="52.519627" lon="13.425418"><time>2024-03-26T09:26:45.000Z</time></trkpt><trkpt lat="52.519604" lon="13.425473"><time>2024-03-26T09:26:49.000Z</time></trkpt><trkpt lat="52.519584" lon="13.425532"><time>2024-03-26T09:26:53.000Z</time></trkpt><trkpt lat="52.519576" lon="13.425586"><time>2024-03-26T09:26:59.000Z</time></trkpt><trkpt lat="52.519582" lon="13.425654"><time>2024-03-26T09:27:03.000Z</time></trkpt><trkpt lat="52.519579" lon="13.425716"><time>2024-03-26T09:27:09.000Z</time></trkpt><trkpt lat="52.519576" lon="13.425784"><time>2024-03-26T09:27:21.000Z</time></trkpt><trkpt lat="52.519571" lon="13.425833"><time>2024-03-26T09:27:35.000Z</time></trkpt><trkpt lat="52.519572" lon="13.425856"><time>2024-03-26T09:27:39.000Z</time></trkpt><trkpt lat="52.519571" lon="13.425877"><time>2024-03-26T09:27:47.000Z</time></trkpt><trkpt lat="52.519562" lon="13.425908"><time>2024-03-26T09:28:01.000Z</time></trkpt><trkpt lat="52.519555" lon="13.425967"><time>2024-03-26T09:28:07.000Z</time></trkpt><trkpt lat="52.519543" lon="13.426019"><time>2024-03-26T09:28:11.000Z</time></trkpt><trkpt lat="52.519526" lon="13.426075"><time>2024-03-26T09:28:15.000Z</time></trkpt><trkpt lat="52.519511" lon="13.426142"><time>2024-03-26T09:28:19.000Z</time></trkpt><trkpt lat="52.519488" lon="13.426208"><time>2024-03-26T09:28:23.000Z</time></trkpt><trkpt lat="52.519469" lon="13.426268"><time>2024-03-26T09:28:27.000Z</time></trkpt><trkpt lat="52.519435" lon="13.426299"><time>2024-03-26T09:28:31.000Z</time></trkpt><trkpt lat="52.519407" lon="13.426317"><time>2024-03-26T09:28:35.000Z</time></trkpt><trkpt lat="52.519378" lon="13.426335"><time>2024-03-26T09:28:39.000Z</time></trkpt><trkpt lat="52.519353" lon="13.426377"><time>2024-03-26T09:28:43.000Z</time></trkpt><trkpt lat="52.519331" lon="13.426433"><time>2024-03-26T09:28:47.000Z</time></trkpt><trkpt lat="52.519306" lon="13.426488"><time>2024-03-26T09:28:51.000Z</time></trkpt><trkpt lat="52.519289" lon="13.426535"><time>2024-03-26T09:28:53.000Z</time></trkpt><trkpt lat="52.519276" lon="13.426595"><time>2024-03-26T09:28:55.000Z</time></trkpt><trkpt lat="52.519273" lon="13.426655"><time>2024-03-26T09:28:58.000Z</time></trkpt><trkpt lat="52.519273" lon="13.426717"><time>2024-03-26T09:29:00.000Z</time></trkpt><trkpt lat="52.519272" lon="13.426762"><time>2024-03-26T09:29:02.000Z</time></trkpt><trkpt lat="52.519269" lon="13.426807"><time>2024-03-26T09:29:04.000Z</time></trkpt><trkpt lat="52.519268" lon="13.426857"><time>2024-03-26T09:29:06.000Z</time></trkpt><trkpt lat="52.519268" lon="13.426916"><time>2024-03-26T09:29:10.000Z</time></trkpt><trkpt lat="52.519261" lon="13.426977"><time>2024-03-26T09:29:14.000Z</time></trkpt><trkpt lat="52.519248" lon="13.427029"><time>2024-03-26T09:29:18.000Z</time></trkpt><trkpt lat="52.519226" lon="13.427075"><time>2024-03-26T09:29:20.000Z</time></trkpt><trkpt lat="52.519198" lon="13.427114"><time>2024-03-26T09:29:24.000Z</time></trkpt><trkpt lat="52.519167" lon="13.427161"><time>2024-03-26T09:29:28.000Z</time></trkpt><trkpt lat="52.519138" lon="13.427208"><time>2024-03-26T09:29:32.000Z</time></trkpt><trkpt lat="52.519117" lon="13.427261"><time>2024-03-26T09:29:36.000Z</time></trkpt><trkpt lat="52.519098" lon="13.427313"><time>2024-03-26T09:29:40.000Z</time></trkpt><trkpt lat="52.519084" lon="13.427364"><time>2024-03-26T09:29:46.000Z</time></trkpt><trkpt lat="52.519072" lon="13.42742"><time>2024-03-26T09:29:48.000Z</time></trkpt><trkpt lat="52.519069" lon="13.427482"><time>2024-03-26T09:29:50.000Z</time></trkpt><trkpt lat="52.519067" lon="13.427547"><time>2024-03-26T09:29:54.000Z</time></trkpt><trkpt lat="52.519065" lon="13.427614"><time>2024-03-26T09:29:58.000Z</time></trkpt><trkpt lat="52.519059" lon="13.427682"><time>2024-03-26T09:30:02.000Z</time></trkpt><trkpt lat="52.519055" lon="13.427757"><time>2024-03-26T09:30:06.000Z</time></trkpt><trkpt lat="52.519057" lon="13.427824"><time>2024-03-26T09:30:10.000Z</time></trkpt><trkpt lat="52.51906" lon="13.427884"><time>2024-03-26T09:30:14.000Z</time></trkpt><trkpt lat="52.519067" lon="13.427938"><time>2024-03-26T09:30:18.000Z</time></trkpt><trkpt lat="52.519073" lon="13.427992"><time>2024-03-26T09:30:22.000Z</time></trkpt><trkpt lat="52.519077" lon="13.428045"><time>2024-03-26T09:30:24.000Z</time></trkpt><trkpt lat="52.519073" lon="13.428104"><time>2024-03-26T09:30:26.000Z</time></trkpt><trkpt lat="52.519064" lon="13.428171"><time>2024-03-26T09:30:30.000Z</time></trkpt><trkpt lat="52.519051" lon="13.428247"><time>2024-03-26T09:30:34.000Z</time></trkpt><trkpt lat="52.51904" lon="13.428318"><time>2024-03-26T09:30:38.000Z</time></trkpt><trkpt lat="52.519024" lon="13.428382"><time>2024-03-26T09:30:42.000Z</time></trkpt><trkpt lat="52.519012" lon="13.428438"><time>2024-03-26T09:30:48.000Z</time></trkpt><trkpt lat="52.519004" lon="13.428494"><time>2024-03-26T09:30:52.000Z</time></trkpt><trkpt lat="52.519009" lon="13.428549"><time>2024-03-26T09:30:58.000Z</time></trkpt><trkpt lat="52.518973" lon="13.428753"><time>2024-03-26T09:31:46.000Z</time></trkpt><trkpt lat="52.518975" lon="13.428841"><time>2024-03-26T09:32:04.000Z</time></trkpt><trkpt lat="52.518982" lon="13.428905"><time>2024-03-26T09:32:08.000Z</time></trkpt><trkpt lat="52.518983" lon="13.428953"><time>2024-03-26T09:32:12.000Z</time></trkpt><trkpt lat="52.518968" lon="13.429003"><time>2024-03-26T09:32:16.000Z</time></trkpt><trkpt lat="52.518929" lon="13.429059"><time>2024-03-26T09:32:20.000Z</time></trkpt><trkpt lat="52.518886" lon="13.429112"><time>2024-03-26T09:32:24.000Z</time></trkpt><trkpt lat="52.518845" lon="13.42916"><time>2024-03-26T09:32:28.000Z</time></trkpt><trkpt lat="52.5188" lon="13.429202"><time>2024-03-26T09:32:30.000Z</time></trkpt><trkpt lat="52.518754" lon="13.429221"><time>2024-03-26T09:32:34.000Z</time></trkpt><trkpt lat="52.51876" lon="13.429143"><time>2024-03-26T09:33:07.000Z</time></trkpt><trkpt lat="52.518737" lon="13.429141"><time>2024-03-26T09:33:15.000Z</time></trkpt><trkpt lat="52.518714" lon="13.429174"><time>2024-03-26T09:33:27.000Z</time></trkpt><trkpt lat="52.51869" lon="13.429235"><time>2024-03-26T09:33:31.000Z</time></trkpt><trkpt lat="52.518674" lon="13.429296"><time>2024-03-26T09:33:35.000Z</time></trkpt><trkpt lat="52.518659" lon="13.429353"><time>2024-03-26T09:33:39.000Z</time></trkpt><trkpt lat="52.51865" lon="13.429407"><time>2024-03-26T09:33:43.000Z</time></trkpt><trkpt lat="52.518636" lon="13.429472"><time>2024-03-26T09:33:45.000Z</time></trkpt><trkpt lat="52.518622" lon="13.42954"><time>2024-03-26T09:33:49.000Z</time></trkpt><trkpt lat="52.518611" lon="13.429609"><time>2024-03-26T09:33:53.000Z</time></trkpt><trkpt lat="52.518596" lon="13.429676"><time>2024-03-26T09:34:05.000Z</time></trkpt><trkpt lat="52.518583" lon="13.429745"><time>2024-03-26T09:34:15.000Z</time></trkpt><trkpt lat="52.518564" lon="13.429825"><time>2024-03-26T09:34:19.000Z</time></trkpt><trkpt lat="52.51855" lon="13.429905"><time>2024-03-26T09:34:23.000Z</time></trkpt><trkpt lat="52.518538" lon="13.429984"><time>2024-03-26T09:34:27.000Z</time></trkpt><trkpt lat="52.518533" lon="13.430058"><time>2024-03-26T09:34:31.000Z</time></trkpt><trkpt lat="52.518539" lon="13.430124"><time>2024-03-26T09:34:35.000Z</time></trkpt><trkpt lat="52.518555" lon="13.430185"><time>2024-03-26T09:34:39.000Z</time></trkpt><trkpt lat="52.518574" lon="13.430245"><time>2024-03-26T09:34:57.000Z</time></trkpt><trkpt lat="52.518587" lon="13.430303"><time>2024-03-26T09:35:05.000Z</time></trkpt><trkpt lat="52.518591" lon="13.430363"><time>2024-03-26T09:35:11.000Z</time></trkpt><trkpt lat="52.518594" lon="13.430435"><time>2024-03-26T09:35:19.000Z</time></trkpt><trkpt lat="52.518599" lon="13.430512"><time>2024-03-26T09:35:23.000Z</time></trkpt><trkpt lat="52.518605" lon="13.430584"><time>2024-03-26T09:35:29.000Z</time></trkpt><trkpt lat="52.518612" lon="13.430644"><time>2024-03-26T09:35:33.000Z</time></trkpt><trkpt lat="52.518613" lon="13.430702"><time>2024-03-26T09:35:37.000Z</time></trkpt><trkpt lat="52.518615" lon="13.430767"><time>2024-03-26T09:35:41.000Z</time></trkpt><trkpt lat="52.518619" lon="13.430831"><time>2024-03-26T09:35:45.000Z</time></trkpt><trkpt lat="52.518626" lon="13.430893"><time>2024-03-26T09:35:49.000Z</time></trkpt><trkpt lat="52.518629" lon="13.430951"><time>2024-03-26T09:35:53.000Z</time></trkpt><trkpt lat="52.518628" lon="13.431008"><time>2024-03-26T09:35:57.000Z</time></trkpt><trkpt lat="52.518621" lon="13.43106"><time>2024-03-26T09:36:01.000Z</time></trkpt><trkpt lat="52.518613" lon="13.431108"><time>2024-03-26T09:36:05.000Z</time></trkpt><trkpt lat="52.518598" lon="13.43116"><time>2024-03-26T09:36:09.000Z</time></trkpt><trkpt lat="52.518592" lon="13.431215"><time>2024-03-26T09:36:15.000Z</time></trkpt><trkpt lat="52.518598" lon="13.431273"><time>2024-03-26T09:36:19.000Z</time></trkpt><trkpt lat="52.518621" lon="13.431321"><time>2024-03-26T09:36:25.000Z</time></trkpt><trkpt lat="52.518673" lon="13.431422"><time>2024-03-26T09:36:27.000Z</time></trkpt><trkpt lat="52.518713" lon="13.431528"><time>2024-03-26T09:36:37.000Z</time></trkpt><trkpt lat="52.518744" lon="13.431651"><time>2024-03-26T09:36:41.000Z</time></trkpt><trkpt lat="52.518741" lon="13.43173"><time>2024-03-26T09:36:45.000Z</time></trkpt><trkpt lat="52.518737" lon="13.431805"><time>2024-03-26T09:36:49.000Z</time></trkpt><trkpt lat="52.518736" lon="13.431871"><time>2024-03-26T09:36:53.000Z</time></trkpt><trkpt lat="52.518735" lon="13.431935"><time>2024-03-26T09:36:57.000Z</time></trkpt><trkpt lat="52.518739" lon="13.431996"><time>2024-03-26T09:37:03.000Z</time></trkpt><trkpt lat="52.518737" lon="13.43206"><time>2024-03-26T09:37:09.000Z</time></trkpt><trkpt lat="52.518723" lon="13.432115"><time>2024-03-26T09:37:15.000Z</time></trkpt><trkpt lat="52.518695" lon="13.432161"><time>2024-03-26T09:37:21.000Z</time></trkpt><trkpt lat="52.518613" lon="13.432225"><time>2024-03-26T09:37:25.000Z</time></trkpt><trkpt lat="52.518508" lon="13.432293"><time>2024-03-26T09:37:37.000Z</time></trkpt><trkpt lat="52.518405" lon="13.432375"><time>2024-03-26T09:37:49.000Z</time></trkpt><trkpt lat="52.518355" lon="13.432434"><time>2024-03-26T09:37:59.000Z</time></trkpt><trkpt lat="52.518337" lon="13.432495"><time>2024-03-26T09:38:03.000Z</time></trkpt><trkpt lat="52.518324" lon="13.43255"><time>2024-03-26T09:38:07.000Z</time></trkpt><trkpt lat="52.518312" lon="13.432607"><time>2024-03-26T09:38:11.000Z</time></trkpt><trkpt lat="52.5183" lon="13.432666"><time>2024-03-26T09:38:17.000Z</time></trkpt><trkpt lat="52.518287" lon="13.432726"><time>2024-03-26T09:38:21.000Z</time></trkpt><trkpt lat="52.518276" lon="13.432787"><time>2024-03-26T09:38:25.000Z</time></trkpt><trkpt lat="52.518268" lon="13.432846"><time>2024-03-26T09:38:33.000Z</time></trkpt><trkpt lat="52.518266" lon="13.432902"><time>2024-03-26T09:38:39.000Z</time></trkpt><trkpt lat="52.518265" lon="13.432961"><time>2024-03-26T09:38:43.000Z</time></trkpt><trkpt lat="52.518264" lon="13.433017"><time>2024-03-26T09:38:49.000Z</time></trkpt><trkpt lat="52.51826" lon="13.433077"><time>2024-03-26T09:38:55.000Z</time></trkpt><trkpt lat="52.518262" lon="13.433143"><time>2024-03-26T09:39:01.000Z</time></trkpt><trkpt lat="52.518259" lon="13.433257"><time>2024-03-26T09:39:05.000Z</time></trkpt><trkpt lat="52.518255" lon="13.433365"><time>2024-03-26T09:39:13.000Z</time></trkpt><trkpt lat="52.518244" lon="13.433465"><time>2024-03-26T09:39:15.000Z</time></trkpt><trkpt lat="52.518235" lon="13.433517"><time>2024-03-26T09:39:17.000Z</time></trkpt><trkpt lat="52.518223" lon="13.433566"><time>2024-03-26T09:39:19.000Z</time></trkpt><trkpt lat="52.518209" lon="13.433609"><time>2024-03-26T09:39:21.000Z</time></trkpt><trkpt lat="52.51819" lon="13.433648"><time>2024-03-26T09:39:23.000Z</time></trkpt><trkpt lat="52.518173" lon="13.43369"><time>2024-03-26T09:39:25.000Z</time></trkpt><trkpt lat="52.518158" lon="13.433742"><time>2024-03-26T09:39:29.000Z</time></trkpt><trkpt lat="52.518147" lon="13.433807"><time>2024-03-26T09:39:33.000Z</time></trkpt><trkpt lat="52.518138" lon="13.43388"><time>2024-03-26T09:39:37.000Z</time></trkpt><trkpt lat="52.518127" lon="13.43395"><time>2024-03-26T09:39:41.000Z</time></trkpt><trkpt lat="52.518114" lon="13.434008"><time>2024-03-26T09:39:45.000Z</time></trkpt><trkpt lat="52.518104" lon="13.434071"><time>2024-03-26T09:39:47.000Z</time></trkpt><trkpt lat="52.518093" lon="13.434134"><time>2024-03-26T09:39:51.000Z</time></trkpt><trkpt lat="52.518082" lon="13.434204"><time>2024-03-26T09:39:55.000Z</time></trkpt><trkpt lat="52.518068" lon="13.434269"><time>2024-03-26T09:39:59.000Z</time></trkpt><trkpt lat="52.518058" lon="13.434329"><time>2024-03-26T09:40:03.000Z</time></trkpt><trkpt lat="52.518046" lon="13.434391"><time>2024-03-26T09:40:05.000Z</time></trkpt><trkpt lat="52.518037" lon="13.434458"><time>2024-03-26T09:40:09.000Z</time></trkpt><trkpt lat="52.518027" lon="13.434526"><time>2024-03-26T09:40:13.000Z</time></trkpt><trkpt lat="52.518022" lon="13.434585"><time>2024-03-26T09:40:15.000Z</time></trkpt><trkpt lat="52.518018" lon="13.434635"><time>2024-03-26T09:40:17.000Z</time></trkpt><trkpt lat="52.518012" lon="13.434694"><time>2024-03-26T09:40:19.000Z</time></trkpt><trkpt lat="52.518005" lon="13.434759"><time>2024-03-26T09:40:23.000Z</time></trkpt><trkpt lat="52.517999" lon="13.43483"><time>2024-03-26T09:40:27.000Z</time></trkpt><trkpt lat="52.518001" lon="13.434901"><time>2024-03-26T09:40:31.000Z</time></trkpt><trkpt lat="52.518001" lon="13.434965"><time>2024-03-26T09:40:37.000Z</time></trkpt><trkpt lat="52.517998" lon="13.43503"><time>2024-03-26T09:40:39.000Z</time></trkpt><trkpt lat="52.517992" lon="13.435089"><time>2024-03-26T09:40:43.000Z</time></trkpt><trkpt lat="52.517987" lon="13.435152"><time>2024-03-26T09:40:49.000Z</time></trkpt><trkpt lat="52.517982" lon="13.435208"><time>2024-03-26T09:40:53.000Z</time></trkpt><trkpt lat="52.517972" lon="13.435264"><time>2024-03-26T09:40:57.000Z</time></trkpt><trkpt lat="52.517957" lon="13.435325"><time>2024-03-26T09:41:03.000Z</time></trkpt><trkpt lat="52.517947" lon="13.435389"><time>2024-03-26T09:41:07.000Z</time></trkpt><trkpt lat="52.51794" lon="13.435451"><time>2024-03-26T09:41:11.000Z</time></trkpt><trkpt lat="52.517938" lon="13.435509"><time>2024-03-26T09:41:13.000Z</time></trkpt><trkpt lat="52.517925" lon="13.435603"><time>2024-03-26T09:41:15.000Z</time></trkpt><trkpt lat="52.517943" lon="13.436987"><time>2024-03-26T09:41:51.000Z</time></trkpt><trkpt lat="52.517944" lon="13.437065"><time>2024-03-26T09:41:55.000Z</time></trkpt><trkpt lat="52.517941" lon="13.437132"><time>2024-03-26T09:41:59.000Z</time></trkpt><trkpt lat="52.517937" lon="13.437198"><time>2024-03-26T09:42:01.000Z</time></trkpt><trkpt lat="52.517934" lon="13.437255"><time>2024-03-26T09:42:05.000Z</time></trkpt><trkpt lat="52.517946" lon="13.437304"><time>2024-03-26T09:42:09.000Z</time></trkpt><trkpt lat="52.517961" lon="13.437348"><time>2024-03-26T09:42:13.000Z</time></trkpt><trkpt lat="52.517973" lon="13.437389"><time>2024-03-26T09:42:21.000Z</time></trkpt><trkpt lat="52.517968" lon="13.437437"><time>2024-03-26T09:42:27.000Z</time></trkpt><trkpt lat="52.517967" lon="13.437484"><time>2024-03-26T09:42:35.000Z</time></trkpt><trkpt lat="52.517969" lon="13.437538"><time>2024-03-26T09:42:45.000Z</time></trkpt><trkpt lat="52.517975" lon="13.437597"><time>2024-03-26T09:42:51.000Z</time></trkpt><trkpt lat="52.517975" lon="13.437657"><time>2024-03-26T09:42:55.000Z</time></trkpt><trkpt lat="52.517969" lon="13.43771"><time>2024-03-26T09:42:59.000Z</time></trkpt><trkpt lat="52.517962" lon="13.437762"><time>2024-03-26T09:43:01.000Z</time></trkpt><trkpt lat="52.517952" lon="13.437816"><time>2024-03-26T09:43:03.000Z</time></trkpt><trkpt lat="52.517947" lon="13.437873"><time>2024-03-26T09:43:07.000Z</time></trkpt><trkpt lat="52.517944" lon="13.437933"><time>2024-03-26T09:43:11.000Z</time></trkpt><trkpt lat="52.517941" lon="13.437996"><time>2024-03-26T09:43:14.000Z</time></trkpt><trkpt lat="52.517931" lon="13.438066"><time>2024-03-26T09:43:18.000Z</time></trkpt><trkpt lat="52.517925" lon="13.438136"><time>2024-03-26T09:43:22.000Z</time></trkpt><trkpt lat="52.517923" lon="13.438199"><time>2024-03-26T09:43:26.000Z</time></trkpt><trkpt lat="52.517926" lon="13.438264"><time>2024-03-26T09:43:30.000Z</time></trkpt><trkpt lat="52.517924" lon="13.43833"><time>2024-03-26T09:43:34.000Z</time></trkpt><trkpt lat="52.517917" lon="13.438402"><time>2024-03-26T09:43:38.000Z</time></trkpt><trkpt lat="52.5179" lon="13.438502"><time>2024-03-26T09:43:44.000Z</time></trkpt><trkpt lat="52.517879" lon="13.438609"><time>2024-03-26T09:43:52.000Z</time></trkpt><trkpt lat="52.517867" lon="13.438706"><time>2024-03-26T09:44:04.000Z</time></trkpt><trkpt lat="52.51787" lon="13.438763"><time>2024-03-26T09:44:10.000Z</time></trkpt><trkpt lat="52.51788" lon="13.438812"><time>2024-03-26T09:44:14.000Z</time></trkpt><trkpt lat="52.51788" lon="13.438868"><time>2024-03-26T09:44:20.000Z</time></trkpt><trkpt lat="52.517877" lon="13.438925"><time>2024-03-26T09:44:24.000Z</time></trkpt><trkpt lat="52.517867" lon="13.438987"><time>2024-03-26T09:44:26.000Z</time></trkpt><trkpt lat="52.51785" lon="13.439047"><time>2024-03-26T09:44:30.000Z</time></trkpt><trkpt lat="52.517825" lon="13.439098"><time>2024-03-26T09:44:35.000Z</time></trkpt><trkpt lat="52.517806" lon="13.439147"><time>2024-03-26T09:44:39.000Z</time></trkpt><trkpt lat="52.517798" lon="13.439193"><time>2024-03-26T09:44:45.000Z</time></trkpt><trkpt lat="52.517794" lon="13.439245"><time>2024-03-26T09:44:49.000Z</time></trkpt><trkpt lat="52.517789" lon="13.4393"><time>2024-03-26T09:44:53.000Z</time></trkpt><trkpt lat="52.517783" lon="13.439354"><time>2024-03-26T09:44:57.000Z</time></trkpt><trkpt lat="52.517784" lon="13.439415"><time>2024-03-26T09:44:59.000Z</time></trkpt><trkpt lat="52.517786" lon="13.439468"><time>2024-03-26T09:45:03.000Z</time></trkpt><trkpt lat="52.517787" lon="13.439526"><time>2024-03-26T09:45:07.000Z</time></trkpt><trkpt lat="52.517781" lon="13.439588"><time>2024-03-26T09:45:13.000Z</time></trkpt><trkpt lat="52.517776" lon="13.439654"><time>2024-03-26T09:45:19.000Z</time></trkpt><trkpt lat="52.517774" lon="13.439719"><time>2024-03-26T09:45:23.000Z</time></trkpt><trkpt lat="52.517772" lon="13.439782"><time>2024-03-26T09:45:27.000Z</time></trkpt><trkpt lat="52.517765" lon="13.439842"><time>2024-03-26T09:45:31.000Z</time></trkpt><trkpt lat="52.517747" lon="13.439904"><time>2024-03-26T09:45:35.000Z</time></trkpt><trkpt lat="52.517727" lon="13.43996"><time>2024-03-26T09:45:39.000Z</time></trkpt><trkpt lat="52.517705" lon="13.440017"><time>2024-03-26T09:45:43.000Z</time></trkpt><trkpt lat="52.517685" lon="13.440068"><time>2024-03-26T09:45:47.000Z</time></trkpt><trkpt lat="52.517668" lon="13.440121"><time>2024-03-26T09:45:51.000Z</time></trkpt><trkpt lat="52.517643" lon="13.440182"><time>2024-03-26T09:45:53.000Z</time></trkpt><trkpt lat="52.517619" lon="13.440249"><time>2024-03-26T09:45:57.000Z</time></trkpt><trkpt lat="52.517592" lon="13.440321"><time>2024-03-26T09:45:59.000Z</time></trkpt><trkpt lat="52.517578" lon="13.440385"><time>2024-03-26T09:46:03.000Z</time></trkpt><trkpt lat="52.517563" lon="13.44044"><time>2024-03-26T09:46:07.000Z</time></trkpt><trkpt lat="52.517551" lon="13.440503"><time>2024-03-26T09:46:11.000Z</time></trkpt><trkpt lat="52.517541" lon="13.440574"><time>2024-03-26T09:46:15.000Z</time></trkpt><trkpt lat="52.517534" lon="13.440656"><time>2024-03-26T09:46:19.000Z</time></trkpt><trkpt lat="52.517523" lon="13.440732"><time>2024-03-26T09:46:23.000Z</time></trkpt><trkpt lat="52.51751" lon="13.440804"><time>2024-03-26T09:46:27.000Z</time></trkpt><trkpt lat="52.517502" lon="13.440876"><time>2024-03-26T09:46:31.000Z</time></trkpt><trkpt lat="52.517502" lon="13.440943"><time>2024-03-26T09:46:35.000Z</time></trkpt><trkpt lat="52.5175" lon="13.441007"><time>2024-03-26T09:46:39.000Z</time></trkpt><trkpt lat="52.517499" lon="13.441066"><time>2024-03-26T09:46:45.000Z</time></trkpt><trkpt lat="52.517491" lon="13.441123"><time>2024-03-26T09:46:51.000Z</time></trkpt><trkpt lat="52.517495" lon="13.441184"><time>2024-03-26T09:47:05.000Z</time></trkpt><trkpt lat="52.517497" lon="13.441242"><time>2024-03-26T09:47:09.000Z</time></trkpt><trkpt lat="52.517505" lon="13.441304"><time>2024-03-26T09:47:11.000Z</time></trkpt><trkpt lat="52.517513" lon="13.441356"><time>2024-03-26T09:47:15.000Z</time></trkpt><trkpt lat="52.517531" lon="13.441411"><time>2024-03-26T09:47:17.000Z</time></trkpt><trkpt lat="52.517533" lon="13.441443"><time>2024-03-26T09:47:21.000Z</time></trkpt><trkpt lat="52.517467" lon="13.441492"><time>2024-03-26T09:48:26.000Z</time></trkpt><trkpt lat="52.51745" lon="13.441531"><time>2024-03-26T09:48:30.000Z</time></trkpt><trkpt lat="52.517437" lon="13.441585"><time>2024-03-26T09:48:36.000Z</time></trkpt><trkpt lat="52.517431" lon="13.441649"><time>2024-03-26T09:48:40.000Z</time></trkpt><trkpt lat="52.517425" lon="13.441713"><time>2024-03-26T09:48:44.000Z</time></trkpt><trkpt lat="52.517423" lon="13.441768"><time>2024-03-26T09:48:48.000Z</time></trkpt><trkpt lat="52.517422" lon="13.44182"><time>2024-03-26T09:48:52.000Z</time></trkpt><trkpt lat="52.517419" lon="13.441866"><time>2024-03-26T09:48:56.000Z</time></trkpt><trkpt lat="52.517422" lon="13.441916"><time>2024-03-26T09:49:02.000Z</time></trkpt><trkpt lat="52.517426" lon="13.441968"><time>2024-03-26T09:49:08.000Z</time></trkpt><trkpt lat="52.517433" lon="13.442026"><time>2024-03-26T09:49:16.000Z</time></trkpt><trkpt lat="52.517433" lon="13.442084"><time>2024-03-26T09:49:20.000Z</time></trkpt><trkpt lat="52.517436" lon="13.442142"><time>2024-03-26T09:49:28.000Z</time></trkpt><trkpt lat="52.517443" lon="13.442202"><time>2024-03-26T09:49:34.000Z</time></trkpt><trkpt lat="52.517452" lon="13.442268"><time>2024-03-26T09:49:38.000Z</time></trkpt><trkpt lat="52.51746" lon="13.442344"><time>2024-03-26T09:49:42.000Z</time></trkpt><trkpt lat="52.517461" lon="13.442416"><time>2024-03-26T09:49:48.000Z</time></trkpt><trkpt lat="52.517464" lon="13.442492"><time>2024-03-26T09:49:50.000Z</time></trkpt><trkpt lat="52.517469" lon="13.442564"><time>2024-03-26T09:49:53.000Z</time></trkpt><trkpt lat="52.517483" lon="13.442639"><time>2024-03-26T09:49:57.000Z</time></trkpt><trkpt lat="52.517496" lon="13.442704"><time>2024-03-26T09:50:01.000Z</time></trkpt><trkpt lat="52.517503" lon="13.442759"><time>2024-03-26T09:50:05.000Z</time></trkpt><trkpt lat="52.517504" lon="13.44282"><time>2024-03-26T09:50:07.000Z</time></trkpt><trkpt lat="52.517501" lon="13.442887"><time>2024-03-26T09:50:11.000Z</time></trkpt><trkpt lat="52.517502" lon="13.442962"><time>2024-03-26T09:50:15.000Z</time></trkpt><trkpt lat="52.517494" lon="13.443028"><time>2024-03-26T09:50:19.000Z</time></trkpt><trkpt lat="52.517487" lon="13.443087"><time>2024-03-26T09:50:25.000Z</time></trkpt><trkpt lat="52.517489" lon="13.44314"><time>2024-03-26T09:50:29.000Z</time></trkpt><trkpt lat="52.517502" lon="13.443192"><time>2024-03-26T09:50:33.000Z</time></trkpt><trkpt lat="52.517528" lon="13.443241"><time>2024-03-26T09:50:35.000Z</time></trkpt><trkpt lat="52.517553" lon="13.443287"><time>2024-03-26T09:50:37.000Z</time></trkpt><trkpt lat="52.517165" lon="13.44413"><time>2024-03-26T10:28:42.000Z</time></trkpt><trkpt lat="52.517161" lon="13.444193"><time>2024-03-26T10:28:44.000Z</time></trkpt><trkpt lat="52.517155" lon="13.444253"><time>2024-03-26T10:28:46.000Z</time></trkpt><trkpt lat="52.517145" lon="13.444314"><time>2024-03-26T10:28:48.000Z</time></trkpt><trkpt lat="52.517131" lon="13.44437"><time>2024-03-26T10:28:52.000Z</time></trkpt><trkpt lat="52.517113" lon="13.444447"><time>2024-03-26T10:28:54.000Z</time></trkpt><trkpt lat="52.517096" lon="13.44453"><time>2024-03-26T10:28:58.000Z</time></trkpt><trkpt lat="52.517092" lon="13.444616"><time>2024-03-26T10:29:02.000Z</time></trkpt><trkpt lat="52.517106" lon="13.444671"><time>2024-03-26T10:29:08.000Z</time></trkpt><trkpt lat="52.517117" lon="13.444721"><time>2024-03-26T10:29:12.000Z</time></trkpt><trkpt lat="52.517116" lon="13.444767"><time>2024-03-26T10:29:18.000Z</time></trkpt><trkpt lat="52.517105" lon="13.444829"><time>2024-03-26T10:29:22.000Z</time></trkpt><trkpt lat="52.517102" lon="13.444888"><time>2024-03-26T10:29:26.000Z</time></trkpt><trkpt lat="52.517098" lon="13.444947"><time>2024-03-26T10:29:30.000Z</time></trkpt><trkpt lat="52.517092" lon="13.444997"><time>2024-03-26T10:29:34.000Z</time></trkpt><trkpt lat="52.517081" lon="13.445047"><time>2024-03-26T10:29:38.000Z</time></trkpt><trkpt lat="52.517081" lon="13.445102"><time>2024-03-26T10:29:40.000Z</time></trkpt><trkpt lat="52.517079" lon="13.445154"><time>2024-03-26T10:29:44.000Z</time></trkpt><trkpt lat="52.517071" lon="13.445211"><time>2024-03-26T10:29:46.000Z</time></trkpt><trkpt lat="52.517053" lon="13.445263"><time>2024-03-26T10:29:48.000Z</time></trkpt><trkpt lat="52.517043" lon="13.445327"><time>2024-03-26T10:29:50.000Z</time></trkpt><trkpt lat="52.517038" lon="13.445389"><time>2024-03-26T10:29:53.000Z</time></trkpt><trkpt lat="52.517035" lon="13.445449"><time>2024-03-26T10:29:55.000Z</time></trkpt><trkpt lat="52.517023" lon="13.445503"><time>2024-03-26T10:29:57.000Z</time></trkpt><trkpt lat="52.517009" lon="13.445551"><time>2024-03-26T10:29:59.000Z</time></trkpt><trkpt lat="52.516992" lon="13.445597"><time>2024-03-26T10:30:01.000Z</time></trkpt><trkpt lat="52.516973" lon="13.445642"><time>2024-03-26T10:30:03.000Z</time></trkpt><trkpt lat="52.516962" lon="13.445692"><time>2024-03-26T10:30:05.000Z</time></trkpt><trkpt lat="52.516962" lon="13.445746"><time>2024-03-26T10:30:09.000Z</time></trkpt><trkpt lat="52.516971" lon="13.445801"><time>2024-03-26T10:30:13.000Z</time></trkpt><trkpt lat="52.516945" lon="13.445869"><time>2024-03-26T10:30:17.000Z</time></trkpt><trkpt lat="52.516914" lon="13.445943"><time>2024-03-26T10:30:25.000Z</time></trkpt><trkpt lat="52.516886" lon="13.446014"><time>2024-03-26T10:30:29.000Z</time></trkpt><trkpt lat="52.51689" lon="13.446077"><time>2024-03-26T10:30:31.000Z</time></trkpt><trkpt lat="52.516903" lon="13.446136"><time>2024-03-26T10:30:37.000Z</time></trkpt><trkpt lat="52.516917" lon="13.446199"><time>2024-03-26T10:30:41.000Z</time></trkpt><trkpt lat="52.516941" lon="13.446249"><time>2024-03-26T10:30:45.000Z</time></trkpt><trkpt lat="52.516964" lon="13.446302"><time>2024-03-26T10:30:47.000Z</time></trkpt><trkpt lat="52.516979" lon="13.446356"><time>2024-03-26T10:30:51.000Z</time></trkpt><trkpt lat="52.516988" lon="13.44642"><time>2024-03-26T10:30:57.000Z</time></trkpt><trkpt lat="52.516953" lon="13.446556"><time>2024-03-26T10:31:01.000Z</time></trkpt><trkpt lat="52.516923" lon="13.446688"><time>2024-03-26T10:31:15.000Z</time></trkpt><trkpt lat="52.516889" lon="13.446815"><time>2024-03-26T10:31:19.000Z</time></trkpt><trkpt lat="52.516886" lon="13.446871"><time>2024-03-26T10:31:23.000Z</time></trkpt><trkpt lat="52.516885" lon="13.446928"><time>2024-03-26T10:31:29.000Z</time></trkpt><trkpt lat="52.516891" lon="13.446984"><time>2024-03-26T10:31:33.000Z</time></trkpt><trkpt lat="52.51691" lon="13.447034"><time>2024-03-26T10:31:37.000Z</time></trkpt><trkpt lat="52.516939" lon="13.447077"><time>2024-03-26T10:31:41.000Z</time></trkpt><trkpt lat="52.516971" lon="13.447118"><time>2024-03-26T10:31:45.000Z</time></trkpt><trkpt lat="52.517002" lon="13.447152"><time>2024-03-26T10:31:49.000Z</time></trkpt><trkpt lat="52.517028" lon="13.44719"><time>2024-03-26T10:31:53.000Z</time></trkpt><trkpt lat="52.517058" lon="13.447226"><time>2024-03-26T10:31:57.000Z</time></trkpt><trkpt lat="52.517077" lon="13.447273"><time>2024-03-26T10:32:03.000Z</time></trkpt><trkpt lat="52.517086" lon="13.44733"><time>2024-03-26T10:32:07.000Z</time></trkpt><trkpt lat="52.517088" lon="13.447393"><time>2024-03-26T10:32:11.000Z</time></trkpt><trkpt lat="52.51709" lon="13.447451"><time>2024-03-26T10:32:17.000Z</time></trkpt><trkpt lat="52.517087" lon="13.447555"><time>2024-03-26T10:32:21.000Z</time></trkpt><trkpt lat="52.517045" lon="13.447823"><time>2024-03-26T10:32:29.000Z</time></trkpt><trkpt lat="52.516998" lon="13.448118"><time>2024-03-26T10:32:47.000Z</time></trkpt><trkpt lat="52.516956" lon="13.44836"><time>2024-03-26T10:32:51.000Z</time></trkpt><trkpt lat="52.516944" lon="13.448432"><time>2024-03-26T10:32:55.000Z</time></trkpt><trkpt lat="52.516929" lon="13.448474"><time>2024-03-26T10:32:59.000Z</time></trkpt><trkpt lat="52.516909" lon="13.448517"><time>2024-03-26T10:33:03.000Z</time></trkpt><trkpt lat="52.516898" lon="13.448565"><time>2024-03-26T10:33:15.000Z</time></trkpt><trkpt lat="52.516891" lon="13.448614"><time>2024-03-26T10:33:23.000Z</time></trkpt><trkpt lat="52.516884" lon="13.448666"><time>2024-03-26T10:33:27.000Z</time></trkpt><trkpt lat="52.516869" lon="13.448714"><time>2024-03-26T10:33:31.000Z</time></trkpt><trkpt lat="52.516843" lon="13.448762"><time>2024-03-26T10:33:35.000Z</time></trkpt><trkpt lat="52.516814" lon="13.448806"><time>2024-03-26T10:33:39.000Z</time></trkpt><trkpt lat="52.516783" lon="13.448857"><time>2024-03-26T10:33:41.000Z</time></trkpt><trkpt lat="52.516763" lon="13.448913"><time>2024-03-26T10:33:43.000Z</time></trkpt><trkpt lat="52.516737" lon="13.44901"><time>2024-03-26T10:33:45.000Z</time></trkpt><trkpt lat="52.516716" lon="13.4491"><time>2024-03-26T10:33:51.000Z</time></trkpt><trkpt lat="52.516702" lon="13.449186"><time>2024-03-26T10:33:53.000Z</time></trkpt><trkpt lat="52.51671" lon="13.449229"><time>2024-03-26T10:33:57.000Z</time></trkpt><trkpt lat="52.51672" lon="13.449272"><time>2024-03-26T10:34:01.000Z</time></trkpt><trkpt lat="52.51672" lon="13.449358"><time>2024-03-26T10:34:05.000Z</time></trkpt><trkpt lat="52.516707" lon="13.449452"><time>2024-03-26T10:34:11.000Z</time></trkpt><trkpt lat="52.516697" lon="13.449648"><time>2024-03-26T10:34:13.000Z</time></trkpt><trkpt lat="52.516692" lon="13.449831"><time>2024-03-26T10:34:25.000Z</time></trkpt><trkpt lat="52.516694" lon="13.450009"><time>2024-03-26T10:34:37.000Z</time></trkpt><trkpt lat="52.516695" lon="13.450097"><time>2024-03-26T10:34:41.000Z</time></trkpt><trkpt lat="52.516695" lon="13.450158"><time>2024-03-26T10:34:47.000Z</time></trkpt><trkpt lat="52.5167" lon="13.450219"><time>2024-03-26T10:34:53.000Z</time></trkpt><trkpt lat="52.516697" lon="13.450267"><time>2024-03-26T10:34:57.000Z</time></trkpt><trkpt lat="52.5167" lon="13.450314"><time>2024-03-26T10:35:01.000Z</time></trkpt><trkpt lat="52.5167" lon="13.450364"><time>2024-03-26T10:35:07.000Z</time></trkpt><trkpt lat="52.516702" lon="13.450417"><time>2024-03-26T10:35:11.000Z</time></trkpt><trkpt lat="52.516696" lon="13.450471"><time>2024-03-26T10:35:17.000Z</time></trkpt><trkpt lat="52.516688" lon="13.450529"><time>2024-03-26T10:35:21.000Z</time></trkpt><trkpt lat="52.516679" lon="13.450596"><time>2024-03-26T10:35:25.000Z</time></trkpt><trkpt lat="52.516677" lon="13.450664"><time>2024-03-26T10:35:33.000Z</time></trkpt><trkpt lat="52.516683" lon="13.450733"><time>2024-03-26T10:35:37.000Z</time></trkpt><trkpt lat="52.516697" lon="13.450794"><time>2024-03-26T10:35:43.000Z</time></trkpt><trkpt lat="52.516714" lon="13.450846"><time>2024-03-26T10:35:47.000Z</time></trkpt><trkpt lat="52.516729" lon="13.450892"><time>2024-03-26T10:35:53.000Z</time></trkpt><trkpt lat="52.516739" lon="13.450941"><time>2024-03-26T10:35:57.000Z</time></trkpt><trkpt lat="52.51675" lon="13.450992"><time>2024-03-26T10:36:01.000Z</time></trkpt><trkpt lat="52.516771" lon="13.451035"><time>2024-03-26T10:36:05.000Z</time></trkpt><trkpt lat="52.516804" lon="13.451058"><time>2024-03-26T10:36:09.000Z</time></trkpt><trkpt lat="52.516835" lon="13.451078"><time>2024-03-26T10:36:13.000Z</time></trkpt><trkpt lat="52.516862" lon="13.451105"><time>2024-03-26T10:36:17.000Z</time></trkpt><trkpt lat="52.516885" lon="13.451141"><time>2024-03-26T10:36:23.000Z</time></trkpt><trkpt lat="52.516906" lon="13.451185"><time>2024-03-26T10:36:29.000Z</time></trkpt><trkpt lat="52.51692" lon="13.451228"><time>2024-03-26T10:36:35.000Z</time></trkpt><trkpt lat="52.516923" lon="13.451285"><time>2024-03-26T10:36:41.000Z</time></trkpt><trkpt lat="52.51692" lon="13.451351"><time>2024-03-26T10:36:45.000Z</time></trkpt><trkpt lat="52.516914" lon="13.451423"><time>2024-03-26T10:36:49.000Z</time></trkpt><trkpt lat="52.516907" lon="13.451491"><time>2024-03-26T10:36:53.000Z</time></trkpt><trkpt lat="52.516833" lon="13.451677"><time>2024-03-26T10:36:57.000Z</time></trkpt><trkpt lat="52.516751" lon="13.451877"><time>2024-03-26T10:37:11.000Z</time></trkpt><trkpt lat="52.516629" lon="13.452155"><time>2024-03-26T10:37:15.000Z</time></trkpt><trkpt lat="52.516491" lon="13.452462"><time>2024-03-26T10:37:21.000Z</time></trkpt><trkpt lat="52.516355" lon="13.452677"><time>2024-03-26T10:37:25.000Z</time></trkpt><trkpt lat="52.516253" lon="13.452816"><time>2024-03-26T10:37:43.000Z</time></trkpt><trkpt lat="52.516212" lon="13.452832"><time>2024-03-26T10:37:45.000Z</time></trkpt><trkpt lat="52.516167" lon="13.452925"><time>2024-03-26T10:37:47.000Z</time></trkpt><trkpt lat="52.516122" lon="13.453022"><time>2024-03-26T10:37:49.000Z</time></trkpt><trkpt lat="52.516113" lon="13.453058"><time>2024-03-26T10:38:03.000Z</time></trkpt><trkpt lat="52.516112" lon="13.453087"><time>2024-03-26T10:38:07.000Z</time></trkpt><trkpt lat="52.516112" lon="13.453111"><time>2024-03-26T10:38:15.000Z</time></trkpt><trkpt lat="52.516098" lon="13.453161"><time>2024-03-26T10:38:17.000Z</time></trkpt><trkpt lat="52.516087" lon="13.453219"><time>2024-03-26T10:38:19.000Z</time></trkpt><trkpt lat="52.516078" lon="13.453272"><time>2024-03-26T10:38:23.000Z</time></trkpt><trkpt lat="52.516058" lon="13.453331"><time>2024-03-26T10:38:27.000Z</time></trkpt><trkpt lat="52.516025" lon="13.453372"><time>2024-03-26T10:38:31.000Z</time></trkpt><trkpt lat="52.515928" lon="13.45342"><time>2024-03-26T10:39:07.000Z</time></trkpt><trkpt lat="52.515884" lon="13.453457"><time>2024-03-26T10:39:11.000Z</time></trkpt><trkpt lat="52.515842" lon="13.453491"><time>2024-03-26T10:39:19.000Z</time></trkpt><trkpt lat="52.515805" lon="13.453511"><time>2024-03-26T10:39:23.000Z</time></trkpt><trkpt lat="52.515765" lon="13.45348"><time>2024-03-26T10:39:27.000Z</time></trkpt><trkpt lat="52.515727" lon="13.453437"><time>2024-03-26T10:39:33.000Z</time></trkpt><trkpt lat="52.515689" lon="13.453407"><time>2024-03-26T10:39:37.000Z</time></trkpt><trkpt lat="52.515643" lon="13.453433"><time>2024-03-26T10:39:43.000Z</time></trkpt><trkpt lat="52.515597" lon="13.45346"><time>2024-03-26T10:39:49.000Z</time></trkpt><trkpt lat="52.515546" lon="13.453475"><time>2024-03-26T10:39:51.000Z</time></trkpt><trkpt lat="52.515509" lon="13.453474"><time>2024-03-26T10:39:55.000Z</time></trkpt><trkpt lat="52.515469" lon="13.453467"><time>2024-03-26T10:39:57.000Z</time></trkpt><trkpt lat="52.515423" lon="13.453453"><time>2024-03-26T10:40:01.000Z</time></trkpt><trkpt lat="52.515378" lon="13.45344"><time>2024-03-26T10:40:05.000Z</time></trkpt><trkpt lat="52.515336" lon="13.453424"><time>2024-03-26T10:40:07.000Z</time></trkpt><trkpt lat="52.515306" lon="13.45341"><time>2024-03-26T10:40:11.000Z</time></trkpt><trkpt lat="52.515273" lon="13.453389"><time>2024-03-26T10:40:17.000Z</time></trkpt><trkpt lat="52.515227" lon="13.453363"><time>2024-03-26T10:40:21.000Z</time></trkpt><trkpt lat="52.515183" lon="13.453331"><time>2024-03-26T10:40:27.000Z</time></trkpt><trkpt lat="52.515146" lon="13.453297"><time>2024-03-26T10:40:31.000Z</time></trkpt><trkpt lat="52.515122" lon="13.453265"><time>2024-03-26T10:40:35.000Z</time></trkpt><trkpt lat="52.515097" lon="13.453226"><time>2024-03-26T10:40:39.000Z</time></trkpt><trkpt lat="52.515069" lon="13.453188"><time>2024-03-26T10:40:43.000Z</time></trkpt><trkpt lat="52.515033" lon="13.453148"><time>2024-03-26T10:40:49.000Z</time></trkpt><trkpt lat="52.514997" lon="13.453123"><time>2024-03-26T10:40:55.000Z</time></trkpt><trkpt lat="52.514956" lon="13.453103"><time>2024-03-26T10:40:57.000Z</time></trkpt><trkpt lat="52.514928" lon="13.453075"><time>2024-03-26T10:41:01.000Z</time></trkpt><trkpt lat="52.514906" lon="13.453029"><time>2024-03-26T10:41:09.000Z</time></trkpt><trkpt lat="52.514897" lon="13.452973"><time>2024-03-26T10:41:13.000Z</time></trkpt><trkpt lat="52.514884" lon="13.452924"><time>2024-03-26T10:41:17.000Z</time></trkpt><trkpt lat="52.514863" lon="13.452887"><time>2024-03-26T10:41:21.000Z</time></trkpt><trkpt lat="52.514837" lon="13.452855"><time>2024-03-26T10:41:25.000Z</time></trkpt><trkpt lat="52.514803" lon="13.45281"><time>2024-03-26T10:41:29.000Z</time></trkpt><trkpt lat="52.514772" lon="13.452758"><time>2024-03-26T10:41:35.000Z</time></trkpt><trkpt lat="52.514734" lon="13.452701"><time>2024-03-26T10:41:39.000Z</time></trkpt><trkpt lat="52.5147" lon="13.452664"><time>2024-03-26T10:41:43.000Z</time></trkpt><trkpt lat="52.514664" lon="13.452639"><time>2024-03-26T10:41:47.000Z</time></trkpt><trkpt lat="52.514619" lon="13.45264"><time>2024-03-26T10:41:51.000Z</time></trkpt><trkpt lat="52.514573" lon="13.452664"><time>2024-03-26T10:41:57.000Z</time></trkpt><trkpt lat="52.514529" lon="13.452704"><time>2024-03-26T10:42:01.000Z</time></trkpt><trkpt lat="52.514497" lon="13.452734"><time>2024-03-26T10:42:05.000Z</time></trkpt><trkpt lat="52.514465" lon="13.452753"><time>2024-03-26T10:42:09.000Z</time></trkpt><trkpt lat="52.514405" lon="13.452745"><time>2024-03-26T10:42:13.000Z</time></trkpt><trkpt lat="52.51432" lon="13.452724"><time>2024-03-26T10:42:25.000Z</time></trkpt><trkpt lat="52.514236" lon="13.45269"><time>2024-03-26T10:42:35.000Z</time></trkpt><trkpt lat="52.514161" lon="13.45265"><time>2024-03-26T10:42:39.000Z</time></trkpt><trkpt lat="52.51411" lon="13.452608"><time>2024-03-26T10:42:47.000Z</time></trkpt><trkpt lat="52.514063" lon="13.452561"><time>2024-03-26T10:42:57.000Z</time></trkpt><trkpt lat="52.51404" lon="13.452521"><time>2024-03-26T10:43:05.000Z</time></trkpt><trkpt lat="52.514019" lon="13.452484"><time>2024-03-26T10:43:11.000Z</time></trkpt><trkpt lat="52.513976" lon="13.452445"><time>2024-03-26T10:43:15.000Z</time></trkpt><trkpt lat="52.513858" lon="13.452386"><time>2024-03-26T10:43:23.000Z</time></trkpt><trkpt lat="52.513717" lon="13.452319"><time>2024-03-26T10:43:43.000Z</time></trkpt><trkpt lat="52.513584" lon="13.452256"><time>2024-03-26T10:43:53.000Z</time></trkpt><trkpt lat="52.513516" lon="13.452228"><time>2024-03-26T10:43:59.000Z</time></trkpt><trkpt lat="52.51344" lon="13.452199"><time>2024-03-26T10:44:03.000Z</time></trkpt><trkpt lat="52.513335" lon="13.452208"><time>2024-03-26T10:44:13.000Z</time></trkpt><trkpt lat="52.513221" lon="13.452257"><time>2024-03-26T10:44:23.000Z</time></trkpt><trkpt lat="52.513138" lon="13.452336"><time>2024-03-26T10:44:31.000Z</time></trkpt><trkpt lat="52.513071" lon="13.452414"><time>2024-03-26T10:44:33.000Z</time></trkpt><trkpt lat="52.513014" lon="13.452457"><time>2024-03-26T10:44:45.000Z</time></trkpt><trkpt lat="52.512932" lon="13.452493"><time>2024-03-26T10:44:47.000Z</time></trkpt><trkpt lat="52.512866" lon="13.452506"><time>2024-03-26T10:44:53.000Z</time></trkpt><trkpt lat="52.512772" lon="13.452534"><time>2024-03-26T10:44:55.000Z</time></trkpt><trkpt lat="52.512686" lon="13.452576"><time>2024-03-26T10:45:01.000Z</time></trkpt><trkpt lat="52.512582" lon="13.452622"><time>2024-03-26T10:45:03.000Z</time></trkpt><trkpt lat="52.512382" lon="13.452685"><time>2024-03-26T10:45:37.000Z</time></trkpt><trkpt lat="52.512185" lon="13.452522"><time>2024-03-26T10:46:19.000Z</time></trkpt><trkpt lat="52.512147" lon="13.452517"><time>2024-03-26T10:46:25.000Z</time></trkpt><trkpt lat="52.512102" lon="13.452524"><time>2024-03-26T10:46:31.000Z</time></trkpt><trkpt lat="52.51206" lon="13.45254"><time>2024-03-26T10:46:37.000Z</time></trkpt><trkpt lat="52.512001" lon="13.452562"><time>2024-03-26T10:46:41.000Z</time></trkpt><trkpt lat="52.511954" lon="13.452574"><time>2024-03-26T10:46:47.000Z</time></trkpt><trkpt lat="52.511906" lon="13.452575"><time>2024-03-26T10:46:51.000Z</time></trkpt><trkpt lat="52.511876" lon="13.452565"><time>2024-03-26T10:46:55.000Z</time></trkpt><trkpt lat="52.511847" lon="13.452553"><time>2024-03-26T10:46:59.000Z</time></trkpt><trkpt lat="52.511805" lon="13.452518"><time>2024-03-26T10:47:03.000Z</time></trkpt><trkpt lat="52.511742" lon="13.452453"><time>2024-03-26T10:47:13.000Z</time></trkpt><trkpt lat="52.511673" lon="13.452382"><time>2024-03-26T10:47:21.000Z</time></trkpt><trkpt lat="52.511612" lon="13.452331"><time>2024-03-26T10:47:25.000Z</time></trkpt><trkpt lat="52.511563" lon="13.452307"><time>2024-03-26T10:47:29.000Z</time></trkpt><trkpt lat="52.511493" lon="13.452279"><time>2024-03-26T10:47:33.000Z</time></trkpt><trkpt lat="52.511405" lon="13.452234"><time>2024-03-26T10:47:41.000Z</time></trkpt><trkpt lat="52.511325" lon="13.452196"><time>2024-03-26T10:47:53.000Z</time></trkpt><trkpt lat="52.511245" lon="13.452169"><time>2024-03-26T10:47:57.000Z</time></trkpt><trkpt lat="52.511188" lon="13.452162"><time>2024-03-26T10:48:05.000Z</time></trkpt><trkpt lat="52.511132" lon="13.452147"><time>2024-03-26T10:48:07.000Z</time></trkpt><trkpt lat="52.511101" lon="13.452129"><time>2024-03-26T10:48:09.000Z</time></trkpt><trkpt lat="52.511066" lon="13.452103"><time>2024-03-26T10:48:11.000Z</time></trkpt><trkpt lat="52.511028" lon="13.452078"><time>2024-03-26T10:48:15.000Z</time></trkpt><trkpt lat="52.510988" lon="13.452058"><time>2024-03-26T10:48:19.000Z</time></trkpt><trkpt lat="52.510954" lon="13.452051"><time>2024-03-26T10:48:23.000Z</time></trkpt><trkpt lat="52.510921" lon="13.452035"><time>2024-03-26T10:48:27.000Z</time></trkpt><trkpt lat="52.510891" lon="13.452012"><time>2024-03-26T10:48:31.000Z</time></trkpt><trkpt lat="52.510851" lon="13.451982"><time>2024-03-26T10:48:33.000Z</time></trkpt><trkpt lat="52.510813" lon="13.451964"><time>2024-03-26T10:48:37.000Z</time></trkpt><trkpt lat="52.510771" lon="13.451959"><time>2024-03-26T10:48:39.000Z</time></trkpt><trkpt lat="52.510739" lon="13.451947"><time>2024-03-26T10:48:43.000Z</time></trkpt><trkpt lat="52.510687" lon="13.45189"><time>2024-03-26T10:48:49.000Z</time></trkpt><trkpt lat="52.510638" lon="13.451819"><time>2024-03-26T10:48:57.000Z</time></trkpt><trkpt lat="52.510583" lon="13.451757"><time>2024-03-26T10:48:59.000Z</time></trkpt><trkpt lat="52.510543" lon="13.451735"><time>2024-03-26T10:49:03.000Z</time></trkpt><trkpt lat="52.510502" lon="13.451716"><time>2024-03-26T10:49:07.000Z</time></trkpt><trkpt lat="52.510464" lon="13.451697"><time>2024-03-26T10:49:09.000Z</time></trkpt><trkpt lat="52.510427" lon="13.451673"><time>2024-03-26T10:49:13.000Z</time></trkpt><trkpt lat="52.51039" lon="13.451644"><time>2024-03-26T10:49:17.000Z</time></trkpt><trkpt lat="52.510356" lon="13.451625"><time>2024-03-26T10:49:19.000Z</time></trkpt><trkpt lat="52.510318" lon="13.451608"><time>2024-03-26T10:49:21.000Z</time></trkpt><trkpt lat="52.510276" lon="13.451589"><time>2024-03-26T10:49:25.000Z</time></trkpt><trkpt lat="52.510229" lon="13.451554"><time>2024-03-26T10:49:29.000Z</time></trkpt><trkpt lat="52.510192" lon="13.451526"><time>2024-03-26T10:49:33.000Z</time></trkpt><trkpt lat="52.510154" lon="13.451505"><time>2024-03-26T10:49:35.000Z</time></trkpt><trkpt lat="52.510121" lon="13.451491"><time>2024-03-26T10:49:37.000Z</time></trkpt><trkpt lat="52.51009" lon="13.451476"><time>2024-03-26T10:49:39.000Z</time></trkpt><trkpt lat="52.510058" lon="13.451452"><time>2024-03-26T10:49:41.000Z</time></trkpt><trkpt lat="52.510026" lon="13.451436"><time>2024-03-26T10:49:45.000Z</time></trkpt><trkpt lat="52.509991" lon="13.451428"><time>2024-03-26T10:49:49.000Z</time></trkpt><trkpt lat="52.509956" lon="13.451425"><time>2024-03-26T10:49:53.000Z</time></trkpt><trkpt lat="52.50991" lon="13.451414"><time>2024-03-26T10:49:57.000Z</time></trkpt><trkpt lat="52.509861" lon="13.451401"><time>2024-03-26T10:50:01.000Z</time></trkpt><trkpt lat="52.509819" lon="13.451383"><time>2024-03-26T10:50:05.000Z</time></trkpt><trkpt lat="52.509788" lon="13.451364"><time>2024-03-26T10:50:07.000Z</time></trkpt><trkpt lat="52.509761" lon="13.451338"><time>2024-03-26T10:50:11.000Z</time></trkpt><trkpt lat="52.509729" lon="13.451315"><time>2024-03-26T10:50:15.000Z</time></trkpt><trkpt lat="52.50969" lon="13.451294"><time>2024-03-26T10:50:17.000Z</time></trkpt><trkpt lat="52.50965" lon="13.451277"><time>2024-03-26T10:50:21.000Z</time></trkpt><trkpt lat="52.509606" lon="13.451262"><time>2024-03-26T10:50:23.000Z</time></trkpt><trkpt lat="52.509565" lon="13.451248"><time>2024-03-26T10:50:27.000Z</time></trkpt><trkpt lat="52.509524" lon="13.451234"><time>2024-03-26T10:50:31.000Z</time></trkpt><trkpt lat="52.509485" lon="13.451235"><time>2024-03-26T10:50:33.000Z</time></trkpt><trkpt lat="52.50945" lon="13.451243"><time>2024-03-26T10:50:37.000Z</time></trkpt><trkpt lat="52.509414" lon="13.451253"><time>2024-03-26T10:50:41.000Z</time></trkpt><trkpt lat="52.509381" lon="13.45124"><time>2024-03-26T10:50:47.000Z</time></trkpt><trkpt lat="52.509344" lon="13.451224"><time>2024-03-26T10:50:51.000Z</time></trkpt><trkpt lat="52.509304" lon="13.451199"><time>2024-03-26T10:50:55.000Z</time></trkpt><trkpt lat="52.509263" lon="13.451182"><time>2024-03-26T10:50:59.000Z</time></trkpt><trkpt lat="52.509226" lon="13.451156"><time>2024-03-26T10:51:03.000Z</time></trkpt><trkpt lat="52.509187" lon="13.451137"><time>2024-03-26T10:51:07.000Z</time></trkpt><trkpt lat="52.509152" lon="13.45112"><time>2024-03-26T10:51:09.000Z</time></trkpt><trkpt lat="52.509116" lon="13.451115"><time>2024-03-26T10:51:11.000Z</time></trkpt><trkpt lat="52.509084" lon="13.451117"><time>2024-03-26T10:51:15.000Z</time></trkpt><trkpt lat="52.509059" lon="13.451108"><time>2024-03-26T10:51:21.000Z</time></trkpt><trkpt lat="52.509038" lon="13.4511"><time>2024-03-26T10:51:25.000Z</time></trkpt><trkpt lat="52.509014" lon="13.45109"><time>2024-03-26T10:51:43.000Z</time></trkpt><trkpt lat="52.508968" lon="13.451125"><time>2024-03-26T10:51:49.000Z</time></trkpt><trkpt lat="52.508929" lon="13.451182"><time>2024-03-26T10:51:59.000Z</time></trkpt><trkpt lat="52.508895" lon="13.451249"><time>2024-03-26T10:52:01.000Z</time></trkpt><trkpt lat="52.508881" lon="13.451306"><time>2024-03-26T10:52:05.000Z</time></trkpt><trkpt lat="52.508859" lon="13.451341"><time>2024-03-26T10:52:09.000Z</time></trkpt><trkpt lat="52.50884" lon="13.451382"><time>2024-03-26T10:52:17.000Z</time></trkpt><trkpt lat="52.508818" lon="13.451418"><time>2024-03-26T10:52:21.000Z</time></trkpt><trkpt lat="52.508796" lon="13.45145"><time>2024-03-26T10:52:25.000Z</time></trkpt><trkpt lat="52.508768" lon="13.451455"><time>2024-03-26T10:52:27.000Z</time></trkpt><trkpt lat="52.508737" lon="13.451447"><time>2024-03-26T10:52:29.000Z</time></trkpt><trkpt lat="52.508678" lon="13.451385"><time>2024-03-26T10:52:33.000Z</time></trkpt><trkpt lat="52.508616" lon="13.451314"><time>2024-03-26T10:52:39.000Z</time></trkpt><trkpt lat="52.508509" lon="13.451179"><time>2024-03-26T10:52:43.000Z</time></trkpt><trkpt lat="52.508425" lon="13.451084"><time>2024-03-26T10:52:53.000Z</time></trkpt><trkpt lat="52.508344" lon="13.451"><time>2024-03-26T10:53:01.000Z</time></trkpt><trkpt lat="52.50831" lon="13.450974"><time>2024-03-26T10:53:03.000Z</time></trkpt><trkpt lat="52.50828" lon="13.450958"><time>2024-03-26T10:53:05.000Z</time></trkpt><trkpt lat="52.508248" lon="13.450946"><time>2024-03-26T10:53:11.000Z</time></trkpt><trkpt lat="52.50821" lon="13.45093"><time>2024-03-26T10:53:13.000Z</time></trkpt><trkpt lat="52.508175" lon="13.450909"><time>2024-03-26T10:53:17.000Z</time></trkpt><trkpt lat="52.508141" lon="13.450888"><time>2024-03-26T10:53:21.000Z</time></trkpt><trkpt lat="52.508112" lon="13.450862"><time>2024-03-26T10:53:23.000Z</time></trkpt><trkpt lat="52.508082" lon="13.450834"><time>2024-03-26T10:53:27.000Z</time></trkpt><trkpt lat="52.508046" lon="13.450793"><time>2024-03-26T10:53:29.000Z</time></trkpt><trkpt lat="52.508009" lon="13.450762"><time>2024-03-26T10:53:33.000Z</time></trkpt><trkpt lat="52.507972" lon="13.450725"><time>2024-03-26T10:53:35.000Z</time></trkpt><trkpt lat="52.507933" lon="13.450695"><time>2024-03-26T10:53:39.000Z</time></trkpt><trkpt lat="52.507896" lon="13.450668"><time>2024-03-26T10:53:43.000Z</time></trkpt><trkpt lat="52.507859" lon="13.45064"><time>2024-03-26T10:53:45.000Z</time></trkpt><trkpt lat="52.507832" lon="13.45063"><time>2024-03-26T10:53:49.000Z</time></trkpt><trkpt lat="52.507808" lon="13.450609"><time>2024-03-26T10:53:51.000Z</time></trkpt><trkpt lat="52.507785" lon="13.450616"><time>2024-03-26T10:53:53.000Z</time></trkpt><trkpt lat="52.507765" lon="13.450628"><time>2024-03-26T10:53:57.000Z</time></trkpt><trkpt lat="52.507733" lon="13.450692"><time>2024-03-26T10:53:59.000Z</time></trkpt><trkpt lat="52.507702" lon="13.450762"><time>2024-03-26T10:54:03.000Z</time></trkpt><trkpt lat="52.507672" lon="13.450801"><time>2024-03-26T10:54:07.000Z</time></trkpt><trkpt lat="52.507649" lon="13.450847"><time>2024-03-26T10:54:13.000Z</time></trkpt><trkpt lat="52.507614" lon="13.450831"><time>2024-03-26T10:54:23.000Z</time></trkpt><trkpt lat="52.507559" lon="13.450852"><time>2024-03-26T10:54:37.000Z</time></trkpt><trkpt lat="52.507523" lon="13.450808"><time>2024-03-26T10:54:41.000Z</time></trkpt><trkpt lat="52.507506" lon="13.450789"><time>2024-03-26T10:54:43.000Z</time></trkpt><trkpt lat="52.507503" lon="13.45073"><time>2024-03-26T10:54:45.000Z</time></trkpt><trkpt lat="52.507486" lon="13.450711"><time>2024-03-26T10:54:47.000Z</time></trkpt><trkpt lat="52.50747" lon="13.450618"><time>2024-03-26T10:54:51.000Z</time></trkpt><trkpt lat="52.507453" lon="13.450539"><time>2024-03-26T10:55:03.000Z</time></trkpt><trkpt lat="52.507461" lon="13.450421"><time>2024-03-26T10:55:07.000Z</time></trkpt><trkpt lat="52.507459" lon="13.450379"><time>2024-03-26T10:55:11.000Z</time></trkpt><trkpt lat="52.507465" lon="13.450328"><time>2024-03-26T10:55:13.000Z</time></trkpt><trkpt lat="52.507429" lon="13.450282"><time>2024-03-26T10:55:15.000Z</time></trkpt><trkpt lat="52.507392" lon="13.450239"><time>2024-03-26T10:55:19.000Z</time></trkpt><trkpt lat="52.507347" lon="13.450207"><time>2024-03-26T10:55:21.000Z</time></trkpt><trkpt lat="52.507315" lon="13.450176"><time>2024-03-26T10:55:23.000Z</time></trkpt><trkpt lat="52.507278" lon="13.450162"><time>2024-03-26T10:55:25.000Z</time></trkpt><trkpt lat="52.507236" lon="13.450148"><time>2024-03-26T10:55:27.000Z</time></trkpt><trkpt lat="52.507197" lon="13.45014"><time>2024-03-26T10:55:31.000Z</time></trkpt><trkpt lat="52.507163" lon="13.450122"><time>2024-03-26T10:55:33.000Z</time></trkpt><trkpt lat="52.507136" lon="13.450103"><time>2024-03-26T10:55:35.000Z</time></trkpt><trkpt lat="52.507109" lon="13.450081"><time>2024-03-26T10:55:37.000Z</time></trkpt><trkpt lat="52.507078" lon="13.450066"><time>2024-03-26T10:55:39.000Z</time></trkpt><trkpt lat="52.507045" lon="13.450037"><time>2024-03-26T10:55:43.000Z</time></trkpt><trkpt lat="52.507007" lon="13.450011"><time>2024-03-26T10:55:47.000Z</time></trkpt><trkpt lat="52.506967" lon="13.449978"><time>2024-03-26T10:55:49.000Z</time></trkpt><trkpt lat="52.506917" lon="13.449959"><time>2024-03-26T10:55:53.000Z</time></trkpt><trkpt lat="52.506869" lon="13.449927"><time>2024-03-26T10:55:57.000Z</time></trkpt><trkpt lat="52.506822" lon="13.44989"><time>2024-03-26T10:56:01.000Z</time></trkpt><trkpt lat="52.506761" lon="13.449839"><time>2024-03-26T10:56:05.000Z</time></trkpt><trkpt lat="52.506693" lon="13.449833"><time>2024-03-26T10:56:09.000Z</time></trkpt><trkpt lat="52.50664" lon="13.449853"><time>2024-03-26T10:56:13.000Z</time></trkpt><trkpt lat="52.506611" lon="13.449898"><time>2024-03-26T10:56:15.000Z</time></trkpt><trkpt lat="52.506614" lon="13.449941"><time>2024-03-26T10:56:19.000Z</time></trkpt><trkpt lat="52.506626" lon="13.44999"><time>2024-03-26T10:56:23.000Z</time></trkpt><trkpt lat="52.506635" lon="13.450035"><time>2024-03-26T10:56:27.000Z</time></trkpt><trkpt lat="52.50662" lon="13.45008"><time>2024-03-26T10:56:29.000Z</time></trkpt><trkpt lat="52.506599" lon="13.45012"><time>2024-03-26T10:56:33.000Z</time></trkpt><trkpt lat="52.506594" lon="13.450174"><time>2024-03-26T10:56:35.000Z</time></trkpt><trkpt lat="52.506591" lon="13.450202"><time>2024-03-26T10:56:37.000Z</time></trkpt><trkpt lat="52.506597" lon="13.450217"><time>2024-03-26T10:56:43.000Z</time></trkpt><trkpt lat="52.506578" lon="13.450205"><time>2024-03-26T10:56:47.000Z</time></trkpt><trkpt lat="52.506568" lon="13.450157"><time>2024-03-26T10:56:53.000Z</time></trkpt><trkpt lat="52.506539" lon="13.450104"><time>2024-03-26T10:56:59.000Z</time></trkpt><trkpt lat="52.506516" lon="13.450061"><time>2024-03-26T10:57:05.000Z</time></trkpt><trkpt lat="52.506481" lon="13.450055"><time>2024-03-26T10:57:09.000Z</time></trkpt><trkpt lat="52.506443" lon="13.450045"><time>2024-03-26T10:57:15.000Z</time></trkpt><trkpt lat="52.506407" lon="13.450033"><time>2024-03-26T10:57:19.000Z</time></trkpt><trkpt lat="52.506372" lon="13.450023"><time>2024-03-26T10:57:23.000Z</time></trkpt><trkpt lat="52.50634" lon="13.450007"><time>2024-03-26T10:57:27.000Z</time></trkpt><trkpt lat="52.506294" lon="13.449962"><time>2024-03-26T10:57:35.000Z</time></trkpt><trkpt lat="52.506247" lon="13.449907"><time>2024-03-26T10:57:41.000Z</time></trkpt><trkpt lat="52.506212" lon="13.449883"><time>2024-03-26T10:57:47.000Z</time></trkpt><trkpt lat="52.506223" lon="13.449905"><time>2024-03-26T10:57:51.000Z</time></trkpt><trkpt lat="52.506261" lon="13.44992"><time>2024-03-26T10:58:01.000Z</time></trkpt><trkpt lat="52.506267" lon="13.44991"><time>2024-03-26T10:58:07.000Z</time></trkpt><trkpt lat="52.506229" lon="13.44987"><time>2024-03-26T10:58:13.000Z</time></trkpt><trkpt lat="52.506167" lon="13.44984"><time>2024-03-26T10:58:17.000Z</time></trkpt><trkpt lat="52.506066" lon="13.449782"><time>2024-03-26T10:58:19.000Z</time></trkpt><trkpt lat="52.505977" lon="13.449717"><time>2024-03-26T10:58:29.000Z</time></trkpt><trkpt lat="52.50589" lon="13.449645"><time>2024-03-26T10:58:35.000Z</time></trkpt><trkpt lat="52.505858" lon="13.449599"><time>2024-03-26T10:58:37.000Z</time></trkpt><trkpt lat="52.505832" lon="13.449559"><time>2024-03-26T10:58:39.000Z</time></trkpt><trkpt lat="52.505804" lon="13.449538"><time>2024-03-26T10:58:43.000Z</time></trkpt><trkpt lat="52.505775" lon="13.449524"><time>2024-03-26T10:58:45.000Z</time></trkpt><trkpt lat="52.505747" lon="13.449512"><time>2024-03-26T10:58:47.000Z</time></trkpt><trkpt lat="52.505713" lon="13.449473"><time>2024-03-26T10:58:49.000Z</time></trkpt><trkpt lat="52.505679" lon="13.449428"><time>2024-03-26T10:58:53.000Z</time></trkpt><trkpt lat="52.505638" lon="13.4494"><time>2024-03-26T10:58:57.000Z</time></trkpt><trkpt lat="52.505588" lon="13.449388"><time>2024-03-26T10:58:59.000Z</time></trkpt><trkpt lat="52.505541" lon="13.449363"><time>2024-03-26T10:59:03.000Z</time></trkpt><trkpt lat="52.505506" lon="13.449357"><time>2024-03-26T10:59:09.000Z</time></trkpt><trkpt lat="52.505452" lon="13.449348"><time>2024-03-26T10:59:13.000Z</time></trkpt><trkpt lat="52.505399" lon="13.449341"><time>2024-03-26T10:59:23.000Z</time></trkpt><trkpt lat="52.505336" lon="13.449288"><time>2024-03-26T10:59:27.000Z</time></trkpt><trkpt lat="52.50524" lon="13.449186"><time>2024-03-26T10:59:31.000Z</time></trkpt><trkpt lat="52.505136" lon="13.449102"><time>2024-03-26T10:59:43.000Z</time></trkpt><trkpt lat="52.505036" lon="13.449056"><time>2024-03-26T10:59:47.000Z</time></trkpt><trkpt lat="52.505005" lon="13.449074"><time>2024-03-26T10:59:51.000Z</time></trkpt><trkpt lat="52.504982" lon="13.44908"><time>2024-03-26T11:00:03.000Z</time></trkpt><trkpt lat="52.504953" lon="13.449058"><time>2024-03-26T11:00:07.000Z</time></trkpt><trkpt lat="52.504924" lon="13.449028"><time>2024-03-26T11:00:13.000Z</time></trkpt><trkpt lat="52.504892" lon="13.448999"><time>2024-03-26T11:00:15.000Z</time></trkpt><trkpt lat="52.504857" lon="13.448983"><time>2024-03-26T11:00:17.000Z</time></trkpt><trkpt lat="52.504804" lon="13.44897"><time>2024-03-26T11:00:33.000Z</time></trkpt><trkpt lat="52.50475" lon="13.44896"><time>2024-03-26T11:00:39.000Z</time></trkpt><trkpt lat="52.504695" lon="13.448937"><time>2024-03-26T11:00:41.000Z</time></trkpt><trkpt lat="52.504656" lon="13.44891"><time>2024-03-26T11:00:45.000Z</time></trkpt><trkpt lat="52.504614" lon="13.448877"><time>2024-03-26T11:00:49.000Z</time></trkpt><trkpt lat="52.50457" lon="13.44885"><time>2024-03-26T11:00:53.000Z</time></trkpt><trkpt lat="52.504527" lon="13.448826"><time>2024-03-26T11:00:57.000Z</time></trkpt><trkpt lat="52.50449" lon="13.448809"><time>2024-03-26T11:00:59.000Z</time></trkpt><trkpt lat="52.504463" lon="13.448783"><time>2024-03-26T11:01:01.000Z</time></trkpt><trkpt lat="52.504435" lon="13.448759"><time>2024-03-26T11:01:05.000Z</time></trkpt><trkpt lat="52.504406" lon="13.44874"><time>2024-03-26T11:01:11.000Z</time></trkpt><trkpt lat="52.504367" lon="13.448735"><time>2024-03-26T11:01:13.000Z</time></trkpt><trkpt lat="52.504327" lon="13.448733"><time>2024-03-26T11:01:17.000Z</time></trkpt><trkpt lat="52.504283" lon="13.448746"><time>2024-03-26T11:01:21.000Z</time></trkpt><trkpt lat="52.504244" lon="13.448751"><time>2024-03-26T11:01:25.000Z</time></trkpt><trkpt lat="52.50421" lon="13.448744"><time>2024-03-26T11:01:29.000Z</time></trkpt><trkpt lat="52.504176" lon="13.448719"><time>2024-03-26T11:01:33.000Z</time></trkpt><trkpt lat="52.504146" lon="13.448709"><time>2024-03-26T11:01:37.000Z</time></trkpt><trkpt lat="52.504115" lon="13.448713"><time>2024-03-26T11:01:39.000Z</time></trkpt><trkpt lat="52.504088" lon="13.448728"><time>2024-03-26T11:01:43.000Z</time></trkpt><trkpt lat="52.50408" lon="13.448747"><time>2024-03-26T11:01:47.000Z</time></trkpt><trkpt lat="52.504093" lon="13.448777"><time>2024-03-26T11:01:49.000Z</time></trkpt><trkpt lat="52.50412" lon="13.448814"><time>2024-03-26T11:01:51.000Z</time></trkpt><trkpt lat="52.504147" lon="13.448844"><time>2024-03-26T11:01:53.000Z</time></trkpt><trkpt lat="52.504153" lon="13.448849"><time>2024-03-26T11:01:55.000Z</time></trkpt><trkpt lat="52.50413" lon="13.448817"><time>2024-03-26T11:01:57.000Z</time></trkpt><trkpt lat="52.504088" lon="13.448769"><time>2024-03-26T11:01:59.000Z</time></trkpt><trkpt lat="52.504041" lon="13.448729"><time>2024-03-26T11:02:01.000Z</time></trkpt><trkpt lat="52.504001" lon="13.448718"><time>2024-03-26T11:02:03.000Z</time></trkpt><trkpt lat="52.503998" lon="13.44881"><time>2024-03-26T11:02:05.000Z</time></trkpt><trkpt lat="52.504142" lon="13.449017"><time>2024-03-26T11:03:03.000Z</time></trkpt><trkpt lat="52.504165" lon="13.448971"><time>2024-03-26T11:03:07.000Z</time></trkpt><trkpt lat="52.504189" lon="13.448944"><time>2024-03-26T11:03:19.000Z</time></trkpt><trkpt lat="52.504211" lon="13.448954"><time>2024-03-26T11:03:35.000Z</time></trkpt><trkpt lat="52.504223" lon="13.44901"><time>2024-03-26T11:03:39.000Z</time></trkpt><trkpt lat="52.504235" lon="13.449081"><time>2024-03-26T11:03:41.000Z</time></trkpt><trkpt lat="52.504253" lon="13.449127"><time>2024-03-26T11:03:43.000Z</time></trkpt><trkpt lat="52.504285" lon="13.449123"><time>2024-03-26T11:03:45.000Z</time></trkpt><trkpt lat="52.5043" lon="13.449037"><time>2024-03-26T11:03:47.000Z</time></trkpt><trkpt lat="52.504335" lon="13.448914"><time>2024-03-26T11:03:49.000Z</time></trkpt><trkpt lat="52.504347" lon="13.448804"><time>2024-03-26T11:03:51.000Z</time></trkpt><trkpt lat="52.504361" lon="13.448732"><time>2024-03-26T11:03:53.000Z</time></trkpt><trkpt lat="52.503827" lon="13.448112"><time>2024-03-26T11:04:19.000Z</time></trkpt><trkpt lat="52.503786" lon="13.448093"><time>2024-03-26T11:04:21.000Z</time></trkpt><trkpt lat="52.503747" lon="13.44808"><time>2024-03-26T11:04:23.000Z</time></trkpt><trkpt lat="52.503711" lon="13.448069"><time>2024-03-26T11:04:25.000Z</time></trkpt><trkpt lat="52.503675" lon="13.448061"><time>2024-03-26T11:04:27.000Z</time></trkpt><trkpt lat="52.50364" lon="13.44805"><time>2024-03-26T11:04:29.000Z</time></trkpt><trkpt lat="52.503611" lon="13.448034"><time>2024-03-26T11:04:31.000Z</time></trkpt><trkpt lat="52.503586" lon="13.448026"><time>2024-03-26T11:04:35.000Z</time></trkpt><trkpt lat="52.503556" lon="13.448017"><time>2024-03-26T11:04:47.000Z</time></trkpt><trkpt lat="52.50352" lon="13.448013"><time>2024-03-26T11:04:51.000Z</time></trkpt><trkpt lat="52.503483" lon="13.447998"><time>2024-03-26T11:04:55.000Z</time></trkpt><trkpt lat="52.503448" lon="13.447982"><time>2024-03-26T11:04:59.000Z</time></trkpt><trkpt lat="52.503409" lon="13.447967"><time>2024-03-26T11:05:03.000Z</time></trkpt><trkpt lat="52.503363" lon="13.447951"><time>2024-03-26T11:05:07.000Z</time></trkpt><trkpt lat="52.503313" lon="13.447942"><time>2024-03-26T11:05:11.000Z</time></trkpt><trkpt lat="52.503271" lon="13.447922"><time>2024-03-26T11:05:15.000Z</time></trkpt><trkpt lat="52.503235" lon="13.447906"><time>2024-03-26T11:05:19.000Z</time></trkpt><trkpt lat="52.503202" lon="13.44788"><time>2024-03-26T11:05:23.000Z</time></trkpt><trkpt lat="52.503162" lon="13.447861"><time>2024-03-26T11:05:27.000Z</time></trkpt><trkpt lat="52.503122" lon="13.447836"><time>2024-03-26T11:05:31.000Z</time></trkpt><trkpt lat="52.503086" lon="13.447807"><time>2024-03-26T11:05:33.000Z</time></trkpt><trkpt lat="52.503055" lon="13.447759"><time>2024-03-26T11:05:35.000Z</time></trkpt><trkpt lat="52.503027" lon="13.447701"><time>2024-03-26T11:05:39.000Z</time></trkpt><trkpt lat="52.503001" lon="13.447648"><time>2024-03-26T11:05:43.000Z</time></trkpt><trkpt lat="52.502974" lon="13.447611"><time>2024-03-26T11:05:47.000Z</time></trkpt><trkpt lat="52.502942" lon="13.447594"><time>2024-03-26T11:05:51.000Z</time></trkpt><trkpt lat="52.502904" lon="13.447577"><time>2024-03-26T11:05:55.000Z</time></trkpt><trkpt lat="52.502862" lon="13.447563"><time>2024-03-26T11:05:59.000Z</time></trkpt><trkpt lat="52.502825" lon="13.447542"><time>2024-03-26T11:06:01.000Z</time></trkpt><trkpt lat="52.502788" lon="13.447511"><time>2024-03-26T11:06:03.000Z</time></trkpt><trkpt lat="52.502751" lon="13.447475"><time>2024-03-26T11:06:07.000Z</time></trkpt><trkpt lat="52.502714" lon="13.447438"><time>2024-03-26T11:06:11.000Z</time></trkpt><trkpt lat="52.502676" lon="13.447407"><time>2024-03-26T11:06:13.000Z</time></trkpt><trkpt lat="52.50264" lon="13.447373"><time>2024-03-26T11:06:17.000Z</time></trkpt><trkpt lat="52.5026" lon="13.447336"><time>2024-03-26T11:06:21.000Z</time></trkpt><trkpt lat="52.502564" lon="13.447298"><time>2024-03-26T11:06:25.000Z</time></trkpt><trkpt lat="52.502575" lon="13.447214"><time>2024-03-26T11:06:29.000Z</time></trkpt><trkpt lat="52.5027" lon="13.44694"><time>2024-03-26T11:07:01.000Z</time></trkpt><trkpt lat="52.502678" lon="13.446896"><time>2024-03-26T11:07:07.000Z</time></trkpt><trkpt lat="52.502651" lon="13.446864"><time>2024-03-26T11:07:11.000Z</time></trkpt><trkpt lat="52.502617" lon="13.446846"><time>2024-03-26T11:07:13.000Z</time></trkpt><trkpt lat="52.502584" lon="13.446832"><time>2024-03-26T11:07:15.000Z</time></trkpt><trkpt lat="52.502552" lon="13.446821"><time>2024-03-26T11:07:17.000Z</time></trkpt><trkpt lat="52.502521" lon="13.446803"><time>2024-03-26T11:07:19.000Z</time></trkpt><trkpt lat="52.502491" lon="13.446781"><time>2024-03-26T11:07:23.000Z</time></trkpt><trkpt lat="52.502463" lon="13.44675"><time>2024-03-26T11:07:27.000Z</time></trkpt><trkpt lat="52.502435" lon="13.446719"><time>2024-03-26T11:07:33.000Z</time></trkpt><trkpt lat="52.50241" lon="13.446691"><time>2024-03-26T11:07:39.000Z</time></trkpt><trkpt lat="52.50238" lon="13.446675"><time>2024-03-26T11:07:43.000Z</time></trkpt><trkpt lat="52.502353" lon="13.446684"><time>2024-03-26T11:07:47.000Z</time></trkpt><trkpt lat="52.502323" lon="13.446678"><time>2024-03-26T11:07:55.000Z</time></trkpt><trkpt lat="52.502298" lon="13.446648"><time>2024-03-26T11:08:05.000Z</time></trkpt><trkpt lat="52.502279" lon="13.446576"><time>2024-03-26T11:08:07.000Z</time></trkpt><trkpt lat="52.502263" lon="13.446508"><time>2024-03-26T11:08:11.000Z</time></trkpt><trkpt lat="52.502246" lon="13.446449"><time>2024-03-26T11:08:15.000Z</time></trkpt><trkpt lat="52.502221" lon="13.446417"><time>2024-03-26T11:08:19.000Z</time></trkpt><trkpt lat="52.502194" lon="13.446398"><time>2024-03-26T11:08:25.000Z</time></trkpt><trkpt lat="52.502173" lon="13.446416"><time>2024-03-26T11:08:29.000Z</time></trkpt><trkpt lat="52.502157" lon="13.446455"><time>2024-03-26T11:08:33.000Z</time></trkpt><trkpt lat="52.50214" lon="13.446497"><time>2024-03-26T11:08:41.000Z</time></trkpt><trkpt lat="52.502117" lon="13.446491"><time>2024-03-26T11:08:49.000Z</time></trkpt><trkpt lat="52.502098" lon="13.446451"><time>2024-03-26T11:08:53.000Z</time></trkpt><trkpt lat="52.502087" lon="13.446396"><time>2024-03-26T11:08:55.000Z</time></trkpt><trkpt lat="52.50206" lon="13.446313"><time>2024-03-26T11:09:25.000Z</time></trkpt><trkpt lat="52.502029" lon="13.446286"><time>2024-03-26T11:09:31.000Z</time></trkpt><trkpt lat="52.502002" lon="13.446256"><time>2024-03-26T11:09:41.000Z</time></trkpt><trkpt lat="52.501933" lon="13.446087"><time>2024-03-26T11:10:23.000Z</time></trkpt><trkpt lat="52.501892" lon="13.446051"><time>2024-03-26T11:10:27.000Z</time></trkpt><trkpt lat="52.501851" lon="13.446011"><time>2024-03-26T11:10:31.000Z</time></trkpt><trkpt lat="52.501814" lon="13.445972"><time>2024-03-26T11:10:35.000Z</time></trkpt><trkpt lat="52.501784" lon="13.445924"><time>2024-03-26T11:10:37.000Z</time></trkpt><trkpt lat="52.501757" lon="13.445872"><time>2024-03-26T11:10:41.000Z</time></trkpt><trkpt lat="52.501727" lon="13.445809"><time>2024-03-26T11:10:45.000Z</time></trkpt><trkpt lat="52.501701" lon="13.445747"><time>2024-03-26T11:10:49.000Z</time></trkpt><trkpt lat="52.501677" lon="13.445688"><time>2024-03-26T11:10:51.000Z</time></trkpt><trkpt lat="52.501653" lon="13.445642"><time>2024-03-26T11:10:55.000Z</time></trkpt><trkpt lat="52.501623" lon="13.445615"><time>2024-03-26T11:10:59.000Z</time></trkpt><trkpt lat="52.501589" lon="13.445596"><time>2024-03-26T11:11:03.000Z</time></trkpt><trkpt lat="52.501554" lon="13.445576"><time>2024-03-26T11:11:07.000Z</time></trkpt><trkpt lat="52.501519" lon="13.445562"><time>2024-03-26T11:11:11.000Z</time></trkpt><trkpt lat="52.501485" lon="13.445549"><time>2024-03-26T11:11:17.000Z</time></trkpt><trkpt lat="52.501475" lon="13.44555"><time>2024-03-26T11:11:21.000Z</time></trkpt><trkpt lat="52.501466" lon="13.445538"><time>2024-03-26T11:11:31.000Z</time></trkpt><trkpt lat="52.501456" lon="13.445509"><time>2024-03-26T11:11:35.000Z</time></trkpt><trkpt lat="52.501422" lon="13.445466"><time>2024-03-26T11:11:41.000Z</time></trkpt><trkpt lat="52.501386" lon="13.445412"><time>2024-03-26T11:11:45.000Z</time></trkpt><trkpt lat="52.501354" lon="13.445368"><time>2024-03-26T11:11:49.000Z</time></trkpt><trkpt lat="52.501324" lon="13.445315"><time>2024-03-26T11:11:51.000Z</time></trkpt><trkpt lat="52.501304" lon="13.445267"><time>2024-03-26T11:11:55.000Z</time></trkpt><trkpt lat="52.501283" lon="13.445215"><time>2024-03-26T11:12:01.000Z</time></trkpt><trkpt lat="52.501262" lon="13.445165"><time>2024-03-26T11:12:15.000Z</time></trkpt><trkpt lat="52.501231" lon="13.445126"><time>2024-03-26T11:12:17.000Z</time></trkpt><trkpt lat="52.501187" lon="13.445101"><time>2024-03-26T11:12:21.000Z</time></trkpt><trkpt lat="52.501103" lon="13.445071"><time>2024-03-26T11:12:25.000Z</time></trkpt><trkpt lat="52.501019" lon="13.445039"><time>2024-03-26T11:12:33.000Z</time></trkpt><trkpt lat="52.500957" lon="13.444994"><time>2024-03-26T11:12:37.000Z</time></trkpt><trkpt lat="52.500936" lon="13.444948"><time>2024-03-26T11:12:39.000Z</time></trkpt><trkpt lat="52.500913" lon="13.444892"><time>2024-03-26T11:12:43.000Z</time></trkpt><trkpt lat="52.500883" lon="13.444839"><time>2024-03-26T11:12:47.000Z</time></trkpt><trkpt lat="52.500854" lon="13.444795"><time>2024-03-26T11:12:51.000Z</time></trkpt><trkpt lat="52.500831" lon="13.444759"><time>2024-03-26T11:12:53.000Z</time></trkpt><trkpt lat="52.500805" lon="13.444727"><time>2024-03-26T11:12:57.000Z</time></trkpt><trkpt lat="52.500765" lon="13.4447"><time>2024-03-26T11:13:05.000Z</time></trkpt><trkpt lat="52.500715" lon="13.444658"><time>2024-03-26T11:13:09.000Z</time></trkpt><trkpt lat="52.500662" lon="13.444613"><time>2024-03-26T11:13:13.000Z</time></trkpt><trkpt lat="52.500614" lon="13.444565"><time>2024-03-26T11:13:17.000Z</time></trkpt><trkpt lat="52.500573" lon="13.444528"><time>2024-03-26T11:13:21.000Z</time></trkpt><trkpt lat="52.500536" lon="13.444501"><time>2024-03-26T11:13:25.000Z</time></trkpt><trkpt lat="52.500507" lon="13.444472"><time>2024-03-26T11:13:27.000Z</time></trkpt><trkpt lat="52.50048" lon="13.444448"><time>2024-03-26T11:13:29.000Z</time></trkpt><trkpt lat="52.500447" lon="13.444415"><time>2024-03-26T11:13:31.000Z</time></trkpt><trkpt lat="52.500407" lon="13.444377"><time>2024-03-26T11:13:35.000Z</time></trkpt><trkpt lat="52.500371" lon="13.444332"><time>2024-03-26T11:13:39.000Z</time></trkpt><trkpt lat="52.500345" lon="13.444291"><time>2024-03-26T11:13:41.000Z</time></trkpt><trkpt lat="52.500324" lon="13.444255"><time>2024-03-26T11:13:43.000Z</time></trkpt><trkpt lat="52.500292" lon="13.444212"><time>2024-03-26T11:13:45.000Z</time></trkpt><trkpt lat="52.500234" lon="13.444109"><time>2024-03-26T11:13:49.000Z</time></trkpt><trkpt lat="52.500178" lon="13.444006"><time>2024-03-26T11:13:55.000Z</time></trkpt><trkpt lat="52.500133" lon="13.443906"><time>2024-03-26T11:13:57.000Z</time></trkpt><trkpt lat="52.500107" lon="13.443852"><time>2024-03-26T11:13:59.000Z</time></trkpt><trkpt lat="52.500078" lon="13.443805"><time>2024-03-26T11:14:03.000Z</time></trkpt><trkpt lat="52.500042" lon="13.44378"><time>2024-03-26T11:14:07.000Z</time></trkpt><trkpt lat="52.500014" lon="13.443792"><time>2024-03-26T11:14:13.000Z</time></trkpt><trkpt lat="52.499982" lon="13.443876"><time>2024-03-26T11:14:15.000Z</time></trkpt><trkpt lat="52.499955" lon="13.443967"><time>2024-03-26T11:14:21.000Z</time></trkpt><trkpt lat="52.499929" lon="13.444068"><time>2024-03-26T11:14:23.000Z</time></trkpt><trkpt lat="52.499914" lon="13.444126"><time>2024-03-26T11:14:29.000Z</time></trkpt><trkpt lat="52.4999" lon="13.4442"><time>2024-03-26T11:14:33.000Z</time></trkpt><trkpt lat="52.499887" lon="13.444267"><time>2024-03-26T11:14:37.000Z</time></trkpt><trkpt lat="52.499877" lon="13.444324"><time>2024-03-26T11:14:39.000Z</time></trkpt><trkpt lat="52.499872" lon="13.444371"><time>2024-03-26T11:14:41.000Z</time></trkpt><trkpt lat="52.499872" lon="13.444429"><time>2024-03-26T11:14:43.000Z</time></trkpt><trkpt lat="52.499872" lon="13.444496"><time>2024-03-26T11:14:47.000Z</time></trkpt><trkpt lat="52.499861" lon="13.444569"><time>2024-03-26T11:14:51.000Z</time></trkpt><trkpt lat="52.499839" lon="13.44462"><time>2024-03-26T11:14:55.000Z</time></trkpt><trkpt lat="52.499809" lon="13.444665"><time>2024-03-26T11:14:57.000Z</time></trkpt><trkpt lat="52.499784" lon="13.444702"><time>2024-03-26T11:15:01.000Z</time></trkpt><trkpt lat="52.499755" lon="13.444752"><time>2024-03-26T11:15:03.000Z</time></trkpt><trkpt lat="52.499728" lon="13.444801"><time>2024-03-26T11:15:07.000Z</time></trkpt><trkpt lat="52.499696" lon="13.444849"><time>2024-03-26T11:15:11.000Z</time></trkpt><trkpt lat="52.499671" lon="13.444891"><time>2024-03-26T11:15:13.000Z</time></trkpt><trkpt lat="52.499652" lon="13.444928"><time>2024-03-26T11:15:15.000Z</time></trkpt><trkpt lat="52.499633" lon="13.444973"><time>2024-03-26T11:15:17.000Z</time></trkpt><trkpt lat="52.49961" lon="13.445018"><time>2024-03-26T11:15:21.000Z</time></trkpt><trkpt lat="52.499579" lon="13.445066"><time>2024-03-26T11:15:25.000Z</time></trkpt><trkpt lat="52.499543" lon="13.44511"><time>2024-03-26T11:15:29.000Z</time></trkpt><trkpt lat="52.499508" lon="13.44516"><time>2024-03-26T11:15:33.000Z</time></trkpt><trkpt lat="52.499474" lon="13.445222"><time>2024-03-26T11:15:35.000Z</time></trkpt><trkpt lat="52.499418" lon="13.445326"><time>2024-03-26T11:15:39.000Z</time></trkpt><trkpt lat="52.499363" lon="13.44543"><time>2024-03-26T11:15:45.000Z</time></trkpt><trkpt lat="52.499312" lon="13.445517"><time>2024-03-26T11:15:47.000Z</time></trkpt><trkpt lat="52.499294" lon="13.445569"><time>2024-03-26T11:15:49.000Z</time></trkpt><trkpt lat="52.499276" lon="13.44562"><time>2024-03-26T11:15:53.000Z</time></trkpt><trkpt lat="52.499257" lon="13.445673"><time>2024-03-26T11:15:59.000Z</time></trkpt><trkpt lat="52.499234" lon="13.445711"><time>2024-03-26T11:16:03.000Z</time></trkpt><trkpt lat="52.499211" lon="13.44574"><time>2024-03-26T11:16:05.000Z</time></trkpt><trkpt lat="52.499186" lon="13.44577"><time>2024-03-26T11:16:07.000Z</time></trkpt><trkpt lat="52.49916" lon="13.445804"><time>2024-03-26T11:16:11.000Z</time></trkpt><trkpt lat="52.499132" lon="13.445838"><time>2024-03-26T11:16:15.000Z</time></trkpt><trkpt lat="52.499123" lon="13.445863"><time>2024-03-26T11:16:19.000Z</time></trkpt><trkpt lat="52.499132" lon="13.445886"><time>2024-03-26T11:16:25.000Z</time></trkpt><trkpt lat="52.499142" lon="13.445885"><time>2024-03-26T11:16:29.000Z</time></trkpt><trkpt lat="52.499152" lon="13.445892"><time>2024-03-26T11:16:37.000Z</time></trkpt><trkpt lat="52.499162" lon="13.445907"><time>2024-03-26T11:16:49.000Z</time></trkpt><trkpt lat="52.499182" lon="13.445962"><time>2024-03-26T11:16:53.000Z</time></trkpt><trkpt lat="52.499197" lon="13.44602"><time>2024-03-26T11:16:57.000Z</time></trkpt><trkpt lat="52.499206" lon="13.446082"><time>2024-03-26T11:17:01.000Z</time></trkpt><trkpt lat="52.499216" lon="13.446138"><time>2024-03-26T11:17:05.000Z</time></trkpt><trkpt lat="52.499226" lon="13.446195"><time>2024-03-26T11:17:09.000Z</time></trkpt><trkpt lat="52.499418" lon="13.445906"><time>2024-03-26T11:17:11.000Z</time></trkpt><trkpt lat="52.499539" lon="13.445844"><time>2024-03-26T11:17:27.000Z</time></trkpt><trkpt lat="52.49966" lon="13.445805"><time>2024-03-26T11:17:37.000Z</time></trkpt><trkpt lat="52.49958" lon="13.446161"><time>2024-03-26T11:17:39.000Z</time></trkpt><trkpt lat="52.49956" lon="13.446278"><time>2024-03-26T11:17:45.000Z</time></trkpt><trkpt lat="52.499523" lon="13.446363"><time>2024-03-26T11:17:47.000Z</time></trkpt><trkpt lat="52.499512" lon="13.446402"><time>2024-03-26T11:17:51.000Z</time></trkpt><trkpt lat="52.499516" lon="13.446444"><time>2024-03-26T11:18:05.000Z</time></trkpt><trkpt lat="52.499543" lon="13.446491"><time>2024-03-26T11:18:07.000Z</time></trkpt><trkpt lat="52.499571" lon="13.446524"><time>2024-03-26T11:18:09.000Z</time></trkpt><trkpt lat="52.499602" lon="13.446556"><time>2024-03-26T11:18:11.000Z</time></trkpt><trkpt lat="52.499632" lon="13.446586"><time>2024-03-26T11:18:13.000Z</time></trkpt><trkpt lat="52.49966" lon="13.446623"><time>2024-03-26T11:18:15.000Z</time></trkpt><trkpt lat="52.499684" lon="13.44667"><time>2024-03-26T11:18:19.000Z</time></trkpt><trkpt lat="52.499706" lon="13.446716"><time>2024-03-26T11:18:23.000Z</time></trkpt><trkpt lat="52.499727" lon="13.446754"><time>2024-03-26T11:18:27.000Z</time></trkpt><trkpt lat="52.499755" lon="13.446782"><time>2024-03-26T11:18:31.000Z</time></trkpt><trkpt lat="52.499783" lon="13.446816"><time>2024-03-26T11:18:35.000Z</time></trkpt><trkpt lat="52.499815" lon="13.446849"><time>2024-03-26T11:18:41.000Z</time></trkpt><trkpt lat="52.499848" lon="13.446877"><time>2024-03-26T11:18:45.000Z</time></trkpt><trkpt lat="52.499881" lon="13.446903"><time>2024-03-26T11:18:49.000Z</time></trkpt><trkpt lat="52.499913" lon="13.446931"><time>2024-03-26T11:18:53.000Z</time></trkpt><trkpt lat="52.499941" lon="13.446973"><time>2024-03-26T11:18:57.000Z</time></trkpt><trkpt lat="52.499972" lon="13.447017"><time>2024-03-26T11:19:01.000Z</time></trkpt><trkpt lat="52.500008" lon="13.447064"><time>2024-03-26T11:19:05.000Z</time></trkpt><trkpt lat="52.500047" lon="13.4471"><time>2024-03-26T11:19:09.000Z</time></trkpt><trkpt lat="52.500075" lon="13.447139"><time>2024-03-26T11:19:15.000Z</time></trkpt><trkpt lat="52.500087" lon="13.447192"><time>2024-03-26T11:19:19.000Z</time></trkpt><trkpt lat="52.500097" lon="13.447246"><time>2024-03-26T11:19:31.000Z</time></trkpt><trkpt lat="52.500108" lon="13.447301"><time>2024-03-26T11:19:35.000Z</time></trkpt><trkpt lat="52.500112" lon="13.44734"><time>2024-03-26T11:19:39.000Z</time></trkpt><trkpt lat="52.500048" lon="13.447417"><time>2024-03-26T11:21:23.000Z</time></trkpt><trkpt lat="52.499964" lon="13.447322"><time>2024-03-26T11:21:29.000Z</time></trkpt><trkpt lat="52.499908" lon="13.447258"><time>2024-03-26T11:21:31.000Z</time></trkpt><trkpt lat="52.499882" lon="13.447217"><time>2024-03-26T11:21:33.000Z</time></trkpt><trkpt lat="52.499885" lon="13.447152"><time>2024-03-26T11:21:37.000Z</time></trkpt><trkpt lat="52.499912" lon="13.447081"><time>2024-03-26T11:21:41.000Z</time></trkpt><trkpt lat="52.499964" lon="13.44702"><time>2024-03-26T11:21:43.000Z</time></trkpt><trkpt lat="52.500017" lon="13.446992"><time>2024-03-26T11:21:45.000Z</time></trkpt></trkseg></trk></gpx>