<?xml version="1.0" encoding="UTF-8"?><gpx creator="Health" xsi:schemaLocation="http://www.topografix.com/GPX/1/0 http://www.topografix.com/GPX/1/0/gpx.xsd" version="1.0" xmlns="http://www.topografix.com/GPX/1/0" xmlns:xsi="http://www.w3.org/2001/XMLSchema-instance"><metadata><time>2024-05-27T08:07:39.323Z</time></metadata><trk><type>Ходьба на улице</type><extensions><totalTime>11763.0</totalTime><cumulativeDecrease>0.0</cumulativeDecrease><cumulativeClimb>0.0</cumulativeClimb><totalDistance>10668.0</totalDistance></extensions><trkseg><trkpt lat="52.44552" lon="13.448315"><time>2024-05-27T08:07:39.323Z</time></trkpt><trkpt lat="52.445467" lon="13.448228"><time>2024-05-27T08:07:41.314Z</time></trkpt><trkpt lat="52.44558" lon="13.447606"><time>2024-05-27T08:08:04.000Z</time></trkpt><trkpt lat="52.445704" lon="13.446473"><time>2024-05-27T08:09:04.000Z</time></trkpt><trkpt lat="52.445661" lon="13.445932"><time>2024-05-27T08:09:34.000Z</time></trkpt><trkpt lat="52.445708" lon="13.444837"><time>2024-05-27T08:10:30.000Z</time></trkpt><trkpt lat="52.445737" lon="13.444697"><time>2024-05-27T08:10:36.000Z</time></trkpt><trkpt lat="52.445768" lon="13.444607"><time>2024-05-27T08:11:11.000Z</time></trkpt><trkpt lat="52.445828" lon="13.444707"><time>2024-05-27T08:11:35.000Z</time></trkpt><trkpt lat="52.446026" lon="13.444777"><time>2024-05-27T08:11:47.000Z</time></trkpt><trkpt lat="52.446018" lon="13.444332"><time>2024-05-27T08:12:59.000Z</time></trkpt><trkpt lat="52.446113" lon="13.444076"><time>2024-05-27T08:13:17.000Z</time></trkpt><trkpt lat="52.446157" lon="13.443842"><time>2024-05-27T08:13:29.000Z</time></trkpt><trkpt lat="52.446416" lon="13.443475"><time>2024-05-27T08:13:53.000Z</time></trkpt><trkpt lat="52.446487" lon="13.443458"><time>2024-05-27T08:13:59.000Z</time></trkpt><trkpt lat="52.446585" lon="13.443506"><time>2024-05-27T08:14:11.000Z</time></trkpt><trkpt lat="52.446647" lon="13.443457"><time>2024-05-27T08:14:17.000Z</time></trkpt><trkpt lat="52.446816" lon="13.443176"><time>2024-05-27T08:14:31.000Z</time></trkpt><trkpt lat="52.446929" lon="13.442843"><time>2024-05-27T08:14:53.000Z</time></trkpt><trkpt lat="52.447022" lon="13.442689"><time>2024-05-27T08:15:03.000Z</time></trkpt><trkpt lat="52.447148" lon="13.442273"><time>2024-05-27T08:15:31.000Z</time></trkpt><trkpt lat="52.447568" lon="13.441339"><time>2024-05-27T08:16:27.000Z</time></trkpt><trkpt lat="52.447632" lon="13.441053"><time>2024-05-27T08:16:47.000Z</time></trkpt><trkpt lat="52.447587" lon="13.440855"><time>2024-05-27T08:17:05.000Z</time></trkpt><trkpt lat="52.447862" lon="13.440378"><time>2024-05-27T08:17:51.000Z</time></trkpt><trkpt lat="52.44789" lon="13.440186"><time>2024-05-27T08:18:01.000Z</time></trkpt><trkpt lat="52.4478" lon="13.440059"><time>2024-05-27T08:18:13.000Z</time></trkpt><trkpt lat="52.447628" lon="13.440327"><time>2024-05-27T08:18:45.000Z</time></trkpt><trkpt lat="52.447471" lon="13.440301"><time>2024-05-27T08:18:57.000Z</time></trkpt><trkpt lat="52.447298" lon="13.439944"><time>2024-05-27T08:19:23.000Z</time></trkpt><trkpt lat="52.447253" lon="13.439584"><time>2024-05-27T08:19:47.000Z</time></trkpt><trkpt lat="52.447382" lon="13.439402"><time>2024-05-27T08:20:01.000Z</time></trkpt><trkpt lat="52.447682" lon="13.438717"><time>2024-05-27T08:21:01.000Z</time></trkpt><trkpt lat="52.447427" lon="13.438298"><time>2024-05-27T08:21:37.000Z</time></trkpt><trkpt lat="52.447418" lon="13.438246"><time>2024-05-27T08:21:39.000Z</time></trkpt><trkpt lat="52.44748" lon="13.438106"><time>2024-05-27T08:22:07.000Z</time></trkpt><trkpt lat="52.447447" lon="13.438041"><time>2024-05-27T08:22:13.000Z</time></trkpt><trkpt lat="52.447386" lon="13.438084"><time>2024-05-27T08:22:19.000Z</time></trkpt><trkpt lat="52.447247" lon="13.438401"><time>2024-05-27T08:22:39.000Z</time></trkpt><trkpt lat="52.447186" lon="13.438454"><time>2024-05-27T08:22:47.000Z</time></trkpt><trkpt lat="52.447096" lon="13.4384"><time>2024-05-27T08:22:55.000Z</time></trkpt><trkpt lat="52.447002" lon="13.438208"><time>2024-05-27T08:23:11.000Z</time></trkpt><trkpt lat="52.446718" lon="13.437989"><time>2024-05-27T08:23:47.000Z</time></trkpt><trkpt lat="52.446651" lon="13.438006"><time>2024-05-27T08:23:57.000Z</time></trkpt><trkpt lat="52.446556" lon="13.438123"><time>2024-05-27T08:24:09.000Z</time></trkpt><trkpt lat="52.446427" lon="13.438358"><time>2024-05-27T08:24:41.000Z</time></trkpt><trkpt lat="52.44659" lon="13.438733"><time>2024-05-27T08:25:33.000Z</time></trkpt><trkpt lat="52.446553" lon="13.438889"><time>2024-05-27T08:25:47.000Z</time></trkpt><trkpt lat="52.446436" lon="13.439042"><time>2024-05-27T08:26:03.000Z</time></trkpt><trkpt lat="52.446292" lon="13.439447"><time>2024-05-27T08:26:31.000Z</time></trkpt><trkpt lat="52.446126" lon="13.439704"><time>2024-05-27T08:26:49.000Z</time></trkpt><trkpt lat="52.44609" lon="13.439872"><time>2024-05-27T08:27:01.000Z</time></trkpt><trkpt lat="52.445962" lon="13.440128"><time>2024-05-27T08:27:16.000Z</time></trkpt><trkpt lat="52.44587" lon="13.440245"><time>2024-05-27T08:27:28.000Z</time></trkpt><trkpt lat="52.445718" lon="13.440262"><time>2024-05-27T08:27:44.000Z</time></trkpt><trkpt lat="52.445617" lon="13.440478"><time>2024-05-27T08:27:56.000Z</time></trkpt><trkpt lat="52.445627" lon="13.440607"><time>2024-05-27T08:28:04.000Z</time></trkpt><trkpt lat="52.445749" lon="13.440797"><time>2024-05-27T08:28:20.000Z</time></trkpt><trkpt lat="52.445807" lon="13.440955"><time>2024-05-27T08:28:32.000Z</time></trkpt><trkpt lat="52.446041" lon="13.44118"><time>2024-05-27T08:28:58.000Z</time></trkpt><trkpt lat="52.446086" lon="13.441269"><time>2024-05-27T08:29:06.000Z</time></trkpt><trkpt lat="52.446112" lon="13.44142"><time>2024-05-27T08:29:28.000Z</time></trkpt><trkpt lat="52.445999" lon="13.441619"><time>2024-05-27T08:30:02.000Z</time></trkpt><trkpt lat="52.446122" lon="13.441323"><time>2024-05-27T08:30:26.000Z</time></trkpt><trkpt lat="52.446139" lon="13.441017"><time>2024-05-27T08:30:58.000Z</time></trkpt><trkpt lat="52.446179" lon="13.440908"><time>2024-05-27T08:31:04.000Z</time></trkpt><trkpt lat="52.446419" lon="13.440515"><time>2024-05-27T08:31:40.000Z</time></trkpt><trkpt lat="52.446679" lon="13.439948"><time>2024-05-27T08:32:08.000Z</time></trkpt><trkpt lat="52.44669" lon="13.439822"><time>2024-05-27T08:32:16.000Z</time></trkpt><trkpt lat="52.446652" lon="13.439595"><time>2024-05-27T08:32:36.000Z</time></trkpt><trkpt lat="52.446756" lon="13.439053"><time>2024-05-27T08:33:06.000Z</time></trkpt><trkpt lat="52.446934" lon="13.438756"><time>2024-05-27T08:33:30.000Z</time></trkpt><trkpt lat="52.447014" lon="13.438506"><time>2024-05-27T08:33:48.000Z</time></trkpt><trkpt lat="52.447268" lon="13.438238"><time>2024-05-27T08:34:56.000Z</time></trkpt><trkpt lat="52.44734" lon="13.438055"><time>2024-05-27T08:35:08.000Z</time></trkpt><trkpt lat="52.447342" lon="13.437935"><time>2024-05-27T08:35:16.000Z</time></trkpt><trkpt lat="52.44719" lon="13.43775"><time>2024-05-27T08:35:32.000Z</time></trkpt><trkpt lat="52.446896" lon="13.437539"><time>2024-05-27T08:36:02.000Z</time></trkpt><trkpt lat="52.446771" lon="13.437315"><time>2024-05-27T08:36:22.000Z</time></trkpt><trkpt lat="52.446397" lon="13.436999"><time>2024-05-27T08:36:58.000Z</time></trkpt><trkpt lat="52.445978" lon="13.4365"><time>2024-05-27T08:37:42.000Z</time></trkpt><trkpt lat="52.445732" lon="13.436301"><time>2024-05-27T08:38:06.000Z</time></trkpt><trkpt lat="52.445657" lon="13.436162"><time>2024-05-27T08:38:16.000Z</time></trkpt><trkpt lat="52.445551" lon="13.436119"><time>2024-05-27T08:38:24.000Z</time></trkpt><trkpt lat="52.445396" lon="13.435941"><time>2024-05-27T08:38:40.000Z</time></trkpt><trkpt lat="52.445136" lon="13.435829"><time>2024-05-27T08:39:04.000Z</time></trkpt><trkpt lat="52.444733" lon="13.43534"><time>2024-05-27T08:39:44.000Z</time></trkpt><trkpt lat="52.444601" lon="13.43499"><time>2024-05-27T08:40:08.000Z</time></trkpt><trkpt lat="52.444552" lon="13.434727"><time>2024-05-27T08:40:22.000Z</time></trkpt><trkpt lat="52.444356" lon="13.434385"><time>2024-05-27T08:40:48.000Z</time></trkpt><trkpt lat="52.444246" lon="13.434012"><time>2024-05-27T08:41:09.000Z</time></trkpt><trkpt lat="52.443886" lon="13.433397"><time>2024-05-27T08:43:43.000Z</time></trkpt><trkpt lat="52.443843" lon="13.433159"><time>2024-05-27T08:43:55.000Z</time></trkpt><trkpt lat="52.443746" lon="13.432929"><time>2024-05-27T08:44:09.000Z</time></trkpt><trkpt lat="52.443568" lon="13.432297"><time>2024-05-27T08:44:45.000Z</time></trkpt><trkpt lat="52.443353" lon="13.431793"><time>2024-05-27T08:45:16.000Z</time></trkpt><trkpt lat="52.443259" lon="13.431755"><time>2024-05-27T08:45:24.000Z</time></trkpt><trkpt lat="52.442856" lon="13.432122"><time>2024-05-27T08:45:58.000Z</time></trkpt><trkpt lat="52.442799" lon="13.432108"><time>2024-05-27T08:46:02.000Z</time></trkpt><trkpt lat="52.442778" lon="13.431879"><time>2024-05-27T08:46:12.000Z</time></trkpt><trkpt lat="52.442734" lon="13.431757"><time>2024-05-27T08:46:20.000Z</time></trkpt><trkpt lat="52.442751" lon="13.431783"><time>2024-05-27T08:46:40.000Z</time></trkpt><trkpt lat="52.442725" lon="13.431854"><time>2024-05-27T08:46:50.000Z</time></trkpt><trkpt lat="52.442624" lon="13.431916"><time>2024-05-27T08:47:04.000Z</time></trkpt><trkpt lat="52.442605" lon="13.431805"><time>2024-05-27T08:47:10.000Z</time></trkpt><trkpt lat="52.442618" lon="13.431862"><time>2024-05-27T08:47:16.000Z</time></trkpt><trkpt lat="52.442589" lon="13.431969"><time>2024-05-27T08:47:26.000Z</time></trkpt><trkpt lat="52.442654" lon="13.431914"><time>2024-05-27T08:47:42.000Z</time></trkpt><trkpt lat="52.442709" lon="13.43169"><time>2024-05-27T08:47:50.000Z</time></trkpt><trkpt lat="52.442705" lon="13.432029"><time>2024-05-27T08:48:02.000Z</time></trkpt><trkpt lat="52.442721" lon="13.431977"><time>2024-05-27T08:48:06.000Z</time></trkpt><trkpt lat="52.442667" lon="13.431767"><time>2024-05-27T08:52:18.000Z</time></trkpt><trkpt lat="52.442888" lon="13.431544"><time>2024-05-27T08:53:00.000Z</time></trkpt><trkpt lat="52.442984" lon="13.431327"><time>2024-05-27T08:53:14.000Z</time></trkpt><trkpt lat="52.443117" lon="13.431175"><time>2024-05-27T08:53:30.000Z</time></trkpt><trkpt lat="52.443053" lon="13.430846"><time>2024-05-27T08:53:48.000Z</time></trkpt><trkpt lat="52.442824" lon="13.430363"><time>2024-05-27T08:54:22.000Z</time></trkpt><trkpt lat="52.442747" lon="13.429986"><time>2024-05-27T08:54:38.000Z</time></trkpt><trkpt lat="52.442667" lon="13.429774"><time>2024-05-27T08:55:10.000Z</time></trkpt><trkpt lat="52.442668" lon="13.429676"><time>2024-05-27T08:55:30.000Z</time></trkpt><trkpt lat="52.442596" lon="13.429863"><time>2024-05-27T08:55:50.000Z</time></trkpt><trkpt lat="52.442526" lon="13.42993"><time>2024-05-27T08:55:58.000Z</time></trkpt><trkpt lat="52.442426" lon="13.429959"><time>2024-05-27T08:56:04.000Z</time></trkpt><trkpt lat="52.442344" lon="13.429913"><time>2024-05-27T08:56:11.000Z</time></trkpt><trkpt lat="52.442161" lon="13.429761"><time>2024-05-27T08:56:23.000Z</time></trkpt><trkpt lat="52.442038" lon="13.429571"><time>2024-05-27T08:56:39.000Z</time></trkpt><trkpt lat="52.441744" lon="13.429291"><time>2024-05-27T08:57:05.000Z</time></trkpt><trkpt lat="52.441488" lon="13.428931"><time>2024-05-27T08:57:35.000Z</time></trkpt><trkpt lat="52.441322" lon="13.428759"><time>2024-05-27T08:57:51.000Z</time></trkpt><trkpt lat="52.441063" lon="13.428351"><time>2024-05-27T08:58:17.000Z</time></trkpt><trkpt lat="52.440876" lon="13.428124"><time>2024-05-27T08:58:45.000Z</time></trkpt><trkpt lat="52.440206" lon="13.426949"><time>2024-05-27T09:00:07.000Z</time></trkpt><trkpt lat="52.440026" lon="13.426723"><time>2024-05-27T09:00:27.000Z</time></trkpt><trkpt lat="52.439846" lon="13.426368"><time>2024-05-27T09:00:51.000Z</time></trkpt><trkpt lat="52.439753" lon="13.425906"><time>2024-05-27T09:01:19.000Z</time></trkpt><trkpt lat="52.439449" lon="13.42552"><time>2024-05-27T09:01:53.000Z</time></trkpt><trkpt lat="52.439351" lon="13.425161"><time>2024-05-27T09:02:23.000Z</time></trkpt><trkpt lat="52.439203" lon="13.425063"><time>2024-05-27T09:02:33.000Z</time></trkpt><trkpt lat="52.43906" lon="13.424898"><time>2024-05-27T09:02:45.000Z</time></trkpt><trkpt lat="52.438954" lon="13.424621"><time>2024-05-27T09:03:05.000Z</time></trkpt><trkpt lat="52.43895" lon="13.424514"><time>2024-05-27T09:03:11.000Z</time></trkpt><trkpt lat="52.439005" lon="13.42445"><time>2024-05-27T09:03:39.000Z</time></trkpt><trkpt lat="52.439" lon="13.424512"><time>2024-05-27T09:03:51.000Z</time></trkpt><trkpt lat="52.439017" lon="13.424493"><time>2024-05-27T09:03:57.000Z</time></trkpt><trkpt lat="52.439017" lon="13.4244"><time>2024-05-27T09:04:47.000Z</time></trkpt><trkpt lat="52.439264" lon="13.423947"><time>2024-05-27T09:05:21.000Z</time></trkpt><trkpt lat="52.439866" lon="13.423566"><time>2024-05-27T09:06:07.000Z</time></trkpt><trkpt lat="52.439942" lon="13.423248"><time>2024-05-27T09:06:25.000Z</time></trkpt><trkpt lat="52.439909" lon="13.422976"><time>2024-05-27T09:06:43.000Z</time></trkpt><trkpt lat="52.440084" lon="13.422672"><time>2024-05-27T09:07:05.000Z</time></trkpt><trkpt lat="52.440162" lon="13.422587"><time>2024-05-27T09:07:13.000Z</time></trkpt><trkpt lat="52.440241" lon="13.42257"><time>2024-05-27T09:07:19.000Z</time></trkpt><trkpt lat="52.440315" lon="13.422614"><time>2024-05-27T09:07:27.000Z</time></trkpt><trkpt lat="52.440295" lon="13.422675"><time>2024-05-27T09:13:40.000Z</time></trkpt><trkpt lat="52.440539" lon="13.422503"><time>2024-05-27T09:15:28.000Z</time></trkpt><trkpt lat="52.440877" lon="13.422201"><time>2024-05-27T09:16:02.000Z</time></trkpt><trkpt lat="52.440977" lon="13.421928"><time>2024-05-27T09:16:18.000Z</time></trkpt><trkpt lat="52.441034" lon="13.421904"><time>2024-05-27T09:16:22.000Z</time></trkpt><trkpt lat="52.441137" lon="13.421952"><time>2024-05-27T09:16:28.000Z</time></trkpt><trkpt lat="52.441232" lon="13.421848"><time>2024-05-27T09:16:36.000Z</time></trkpt><trkpt lat="52.441043" lon="13.421236"><time>2024-05-27T09:17:14.000Z</time></trkpt><trkpt lat="52.44096" lon="13.420506"><time>2024-05-27T09:17:52.000Z</time></trkpt><trkpt lat="52.440868" lon="13.420241"><time>2024-05-27T09:18:08.000Z</time></trkpt><trkpt lat="52.440806" lon="13.419735"><time>2024-05-27T09:18:38.000Z</time></trkpt><trkpt lat="52.440702" lon="13.419413"><time>2024-05-27T09:18:54.000Z</time></trkpt><trkpt lat="52.440638" lon="13.418942"><time>2024-05-27T09:19:22.000Z</time></trkpt><trkpt lat="52.440453" lon="13.418076"><time>2024-05-27T09:20:08.000Z</time></trkpt><trkpt lat="52.440291" lon="13.417485"><time>2024-05-27T09:20:40.000Z</time></trkpt><trkpt lat="52.440203" lon="13.41684"><time>2024-05-27T09:21:08.000Z</time></trkpt><trkpt lat="52.440086" lon="13.416582"><time>2024-05-27T09:21:24.000Z</time></trkpt><trkpt lat="52.440059" lon="13.416201"><time>2024-05-27T09:21:44.000Z</time></trkpt><trkpt lat="52.440001" lon="13.415997"><time>2024-05-27T09:21:56.000Z</time></trkpt><trkpt lat="52.439897" lon="13.415356"><time>2024-05-27T09:22:30.000Z</time></trkpt><trkpt lat="52.43983" lon="13.41514"><time>2024-05-27T09:22:42.000Z</time></trkpt><trkpt lat="52.439722" lon="13.415144"><time>2024-05-27T09:22:58.000Z</time></trkpt><trkpt lat="52.439564" lon="13.414812"><time>2024-05-27T09:23:14.000Z</time></trkpt><trkpt lat="52.439449" lon="13.413833"><time>2024-05-27T09:24:04.000Z</time></trkpt><trkpt lat="52.439356" lon="13.413608"><time>2024-05-27T09:24:16.000Z</time></trkpt><trkpt lat="52.439268" lon="13.413227"><time>2024-05-27T09:24:34.000Z</time></trkpt><trkpt lat="52.439183" lon="13.412999"><time>2024-05-27T09:24:48.000Z</time></trkpt><trkpt lat="52.439124" lon="13.412992"><time>2024-05-27T09:24:52.000Z</time></trkpt><trkpt lat="52.438954" lon="13.413127"><time>2024-05-27T09:25:08.000Z</time></trkpt><trkpt lat="52.438651" lon="13.413131"><time>2024-05-27T09:25:34.000Z</time></trkpt><trkpt lat="52.438492" lon="13.41322"><time>2024-05-27T09:25:48.000Z</time></trkpt><trkpt lat="52.438428" lon="13.413338"><time>2024-05-27T09:27:00.000Z</time></trkpt><trkpt lat="52.438368" lon="13.413273"><time>2024-05-27T09:27:20.000Z</time></trkpt><trkpt lat="52.438305" lon="13.4133"><time>2024-05-27T09:28:32.000Z</time></trkpt><trkpt lat="52.438182" lon="13.413449"><time>2024-05-27T09:28:44.000Z</time></trkpt><trkpt lat="52.437627" lon="13.413719"><time>2024-05-27T09:29:38.000Z</time></trkpt><trkpt lat="52.437388" lon="13.413716"><time>2024-05-27T09:30:00.000Z</time></trkpt><trkpt lat="52.437065" lon="13.41346"><time>2024-05-27T09:30:36.000Z</time></trkpt><trkpt lat="52.436802" lon="13.41335"><time>2024-05-27T09:30:58.000Z</time></trkpt><trkpt lat="52.436726" lon="13.413346"><time>2024-05-27T09:31:04.000Z</time></trkpt><trkpt lat="52.436463" lon="13.413488"><time>2024-05-27T09:31:28.000Z</time></trkpt><trkpt lat="52.436177" lon="13.413787"><time>2024-05-27T09:32:00.000Z</time></trkpt><trkpt lat="52.435846" lon="13.414257"><time>2024-05-27T09:32:42.000Z</time></trkpt><trkpt lat="52.435976" lon="13.414272"><time>2024-05-27T09:33:18.000Z</time></trkpt><trkpt lat="52.436088" lon="13.414584"><time>2024-05-27T09:33:42.000Z</time></trkpt><trkpt lat="52.436203" lon="13.414783"><time>2024-05-27T09:33:52.000Z</time></trkpt><trkpt lat="52.436225" lon="13.414904"><time>2024-05-27T09:34:02.000Z</time></trkpt><trkpt lat="52.436206" lon="13.414956"><time>2024-05-27T09:34:04.000Z</time></trkpt><trkpt lat="52.436127" lon="13.415014"><time>2024-05-27T09:34:12.000Z</time></trkpt><trkpt lat="52.435988" lon="13.415028"><time>2024-05-27T09:34:26.000Z</time></trkpt><trkpt lat="52.435804" lon="13.415387"><time>2024-05-27T09:35:00.000Z</time></trkpt><trkpt lat="52.435818" lon="13.415495"><time>2024-05-27T09:35:16.000Z</time></trkpt><trkpt lat="52.435764" lon="13.415576"><time>2024-05-27T09:35:22.000Z</time></trkpt><trkpt lat="52.435474" lon="13.415415"><time>2024-05-27T09:35:58.000Z</time></trkpt><trkpt lat="52.435417" lon="13.415555"><time>2024-05-27T09:36:10.000Z</time></trkpt><trkpt lat="52.435401" lon="13.415671"><time>2024-05-27T09:36:16.000Z</time></trkpt><trkpt lat="52.435429" lon="13.415871"><time>2024-05-27T09:36:28.000Z</time></trkpt><trkpt lat="52.435561" lon="13.416125"><time>2024-05-27T09:36:48.000Z</time></trkpt><trkpt lat="52.435499" lon="13.416329"><time>2024-05-27T09:37:02.000Z</time></trkpt><trkpt lat="52.435511" lon="13.416382"><time>2024-05-27T09:37:06.000Z</time></trkpt><trkpt lat="52.435648" lon="13.416398"><time>2024-05-27T09:39:24.000Z</time></trkpt><trkpt lat="52.435239" lon="13.416369"><time>2024-05-27T09:39:48.000Z</time></trkpt><trkpt lat="52.435104" lon="13.416226"><time>2024-05-27T09:40:08.000Z</time></trkpt><trkpt lat="52.434977" lon="13.416171"><time>2024-05-27T09:40:18.000Z</time></trkpt><trkpt lat="52.434759" lon="13.416447"><time>2024-05-27T09:40:44.000Z</time></trkpt><trkpt lat="52.434756" lon="13.416646"><time>2024-05-27T09:40:56.000Z</time></trkpt><trkpt lat="52.434889" lon="13.417051"><time>2024-05-27T09:41:24.000Z</time></trkpt><trkpt lat="52.434948" lon="13.417118"><time>2024-05-27T09:41:32.000Z</time></trkpt><trkpt lat="52.435089" lon="13.417136"><time>2024-05-27T09:41:50.000Z</time></trkpt><trkpt lat="52.435241" lon="13.417374"><time>2024-05-27T09:42:08.000Z</time></trkpt><trkpt lat="52.435297" lon="13.417851"><time>2024-05-27T09:42:38.000Z</time></trkpt><trkpt lat="52.43537" lon="13.418088"><time>2024-05-27T09:42:52.000Z</time></trkpt><trkpt lat="52.435148" lon="13.418415"><time>2024-05-27T09:43:36.000Z</time></trkpt><trkpt lat="52.435117" lon="13.418564"><time>2024-05-27T09:43:48.000Z</time></trkpt><trkpt lat="52.435077" lon="13.418657"><time>2024-05-27T09:44:24.000Z</time></trkpt><trkpt lat="52.435042" lon="13.418625"><time>2024-05-27T09:44:38.000Z</time></trkpt><trkpt lat="52.434967" lon="13.41887"><time>2024-05-27T09:45:06.000Z</time></trkpt><trkpt lat="52.434649" lon="13.419113"><time>2024-05-27T09:45:36.000Z</time></trkpt><trkpt lat="52.434586" lon="13.419242"><time>2024-05-27T09:45:54.000Z</time></trkpt><trkpt lat="52.434491" lon="13.41927"><time>2024-05-27T09:46:18.000Z</time></trkpt><trkpt lat="52.434399" lon="13.41923"><time>2024-05-27T09:46:30.000Z</time></trkpt><trkpt lat="52.434378" lon="13.419442"><time>2024-05-27T09:46:46.000Z</time></trkpt><trkpt lat="52.43427" lon="13.41969"><time>2024-05-27T09:47:06.000Z</time></trkpt><trkpt lat="52.434261" lon="13.419913"><time>2024-05-27T09:47:18.000Z</time></trkpt><trkpt lat="52.434427" lon="13.420343"><time>2024-05-27T09:47:44.000Z</time></trkpt><trkpt lat="52.434639" lon="13.420585"><time>2024-05-27T09:48:08.000Z</time></trkpt><trkpt lat="52.434677" lon="13.42079"><time>2024-05-27T09:48:18.000Z</time></trkpt><trkpt lat="52.434725" lon="13.420847"><time>2024-05-27T09:48:24.000Z</time></trkpt><trkpt lat="52.435219" lon="13.420941"><time>2024-05-27T09:49:06.000Z</time></trkpt><trkpt lat="52.435426" lon="13.420808"><time>2024-05-27T09:49:22.000Z</time></trkpt><trkpt lat="52.435427" lon="13.420588"><time>2024-05-27T09:49:40.000Z</time></trkpt><trkpt lat="52.435592" lon="13.420618"><time>2024-05-27T09:53:40.000Z</time></trkpt><trkpt lat="52.435687" lon="13.420881"><time>2024-05-27T09:53:58.000Z</time></trkpt><trkpt lat="52.435946" lon="13.421196"><time>2024-05-27T09:54:24.000Z</time></trkpt><trkpt lat="52.436028" lon="13.421355"><time>2024-05-27T09:54:34.000Z</time></trkpt><trkpt lat="52.436063" lon="13.421545"><time>2024-05-27T09:54:48.000Z</time></trkpt><trkpt lat="52.436047" lon="13.421626"><time>2024-05-27T09:55:00.000Z</time></trkpt><trkpt lat="52.43569" lon="13.421856"><time>2024-05-27T09:55:34.000Z</time></trkpt><trkpt lat="52.435489" lon="13.421813"><time>2024-05-27T09:55:48.000Z</time></trkpt><trkpt lat="52.435088" lon="13.422254"><time>2024-05-27T09:56:30.000Z</time></trkpt><trkpt lat="52.434796" lon="13.422471"><time>2024-05-27T09:57:02.000Z</time></trkpt><trkpt lat="52.434575" lon="13.422364"><time>2024-05-27T09:57:20.000Z</time></trkpt><trkpt lat="52.43433" lon="13.422317"><time>2024-05-27T09:57:44.000Z</time></trkpt><trkpt lat="52.433986" lon="13.422371"><time>2024-05-27T09:58:16.000Z</time></trkpt><trkpt lat="52.433947" lon="13.422485"><time>2024-05-27T09:58:24.000Z</time></trkpt><trkpt lat="52.433941" lon="13.422733"><time>2024-05-27T09:58:38.000Z</time></trkpt><trkpt lat="52.434127" lon="13.422908"><time>2024-05-27T09:58:54.000Z</time></trkpt><trkpt lat="52.434137" lon="13.423021"><time>2024-05-27T09:59:12.000Z</time></trkpt><trkpt lat="52.434092" lon="13.42307"><time>2024-05-27T09:59:30.000Z</time></trkpt><trkpt lat="52.434036" lon="13.423046"><time>2024-05-27T10:00:04.000Z</time></trkpt><trkpt lat="52.434152" lon="13.423107"><time>2024-05-27T10:00:16.000Z</time></trkpt><trkpt lat="52.434184" lon="13.423064"><time>2024-05-27T10:00:20.000Z</time></trkpt><trkpt lat="52.434108" lon="13.422989"><time>2024-05-27T10:00:28.000Z</time></trkpt><trkpt lat="52.434" lon="13.423088"><time>2024-05-27T10:00:42.000Z</time></trkpt><trkpt lat="52.434108" lon="13.422967"><time>2024-05-27T10:01:08.000Z</time></trkpt><trkpt lat="52.434078" lon="13.422887"><time>2024-05-27T10:01:16.000Z</time></trkpt><trkpt lat="52.433949" lon="13.422848"><time>2024-05-27T10:01:38.000Z</time></trkpt><trkpt lat="52.4339" lon="13.422898"><time>2024-05-27T10:02:18.000Z</time></trkpt><trkpt lat="52.433988" lon="13.422782"><time>2024-05-27T10:03:20.000Z</time></trkpt><trkpt lat="52.433916" lon="13.422509"><time>2024-05-27T10:03:46.000Z</time></trkpt><trkpt lat="52.433729" lon="13.422461"><time>2024-05-27T10:04:04.000Z</time></trkpt><trkpt lat="52.433584" lon="13.422489"><time>2024-05-27T10:04:18.000Z</time></trkpt><trkpt lat="52.433541" lon="13.422542"><time>2024-05-27T10:04:32.000Z</time></trkpt><trkpt lat="52.433387" lon="13.422381"><time>2024-05-27T10:04:50.000Z</time></trkpt><trkpt lat="52.433358" lon="13.422433"><time>2024-05-27T10:09:12.000Z</time></trkpt><trkpt lat="52.433464" lon="13.422341"><time>2024-05-27T10:09:28.000Z</time></trkpt><trkpt lat="52.433407" lon="13.42221"><time>2024-05-27T10:09:38.000Z</time></trkpt><trkpt lat="52.433414" lon="13.421919"><time>2024-05-27T10:10:02.000Z</time></trkpt><trkpt lat="52.433322" lon="13.421812"><time>2024-05-27T10:10:10.000Z</time></trkpt><trkpt lat="52.433114" lon="13.421696"><time>2024-05-27T10:10:30.000Z</time></trkpt><trkpt lat="52.432721" lon="13.421718"><time>2024-05-27T10:11:00.000Z</time></trkpt><trkpt lat="52.432479" lon="13.421824"><time>2024-05-27T10:11:20.000Z</time></trkpt><trkpt lat="52.432328" lon="13.422005"><time>2024-05-27T10:11:42.000Z</time></trkpt><trkpt lat="52.431964" lon="13.422021"><time>2024-05-27T10:12:10.000Z</time></trkpt><trkpt lat="52.431983" lon="13.422165"><time>2024-05-27T10:12:22.000Z</time></trkpt><trkpt lat="52.431911" lon="13.422407"><time>2024-05-27T10:12:34.000Z</time></trkpt><trkpt lat="52.431934" lon="13.422448"><time>2024-05-27T10:12:46.000Z</time></trkpt><trkpt lat="52.431992" lon="13.4222"><time>2024-05-27T10:13:00.000Z</time></trkpt><trkpt lat="52.431978" lon="13.422107"><time>2024-05-27T10:13:12.000Z</time></trkpt><trkpt lat="52.431756" lon="13.421909"><time>2024-05-27T10:13:36.000Z</time></trkpt><trkpt lat="52.431187" lon="13.421731"><time>2024-05-27T10:14:26.000Z</time></trkpt><trkpt lat="52.430902" lon="13.421812"><time>2024-05-27T10:14:54.000Z</time></trkpt><trkpt lat="52.430438" lon="13.422329"><time>2024-05-27T10:15:54.000Z</time></trkpt><trkpt lat="52.430285" lon="13.422377"><time>2024-05-27T10:16:10.000Z</time></trkpt><trkpt lat="52.430048" lon="13.422312"><time>2024-05-27T10:16:30.000Z</time></trkpt><trkpt lat="52.42978" lon="13.42215"><time>2024-05-27T10:16:56.000Z</time></trkpt><trkpt lat="52.429466" lon="13.422158"><time>2024-05-27T10:17:22.000Z</time></trkpt><trkpt lat="52.429349" lon="13.422294"><time>2024-05-27T10:17:40.000Z</time></trkpt><trkpt lat="52.429353" lon="13.422133"><time>2024-05-27T10:18:00.000Z</time></trkpt><trkpt lat="52.429298" lon="13.422095"><time>2024-05-27T10:18:12.000Z</time></trkpt><trkpt lat="52.429132" lon="13.422232"><time>2024-05-27T10:19:12.000Z</time></trkpt><trkpt lat="52.429174" lon="13.422416"><time>2024-05-27T10:19:28.000Z</time></trkpt><trkpt lat="52.42919" lon="13.421714"><time>2024-05-27T10:20:14.000Z</time></trkpt><trkpt lat="52.429186" lon="13.421794"><time>2024-05-27T10:20:32.000Z</time></trkpt><trkpt lat="52.429123" lon="13.421836"><time>2024-05-27T10:20:40.000Z</time></trkpt><trkpt lat="52.428829" lon="13.421647"><time>2024-05-27T10:21:02.000Z</time></trkpt><trkpt lat="52.428585" lon="13.421709"><time>2024-05-27T10:21:22.000Z</time></trkpt><trkpt lat="52.428541" lon="13.421766"><time>2024-05-27T10:21:32.000Z</time></trkpt><trkpt lat="52.428543" lon="13.421833"><time>2024-05-27T10:21:40.000Z</time></trkpt><trkpt lat="52.428283" lon="13.422027"><time>2024-05-27T10:22:10.000Z</time></trkpt><trkpt lat="52.428118" lon="13.422298"><time>2024-05-27T10:22:32.000Z</time></trkpt><trkpt lat="52.428051" lon="13.422529"><time>2024-05-27T10:22:42.000Z</time></trkpt><trkpt lat="52.428027" lon="13.422801"><time>2024-05-27T10:22:56.000Z</time></trkpt><trkpt lat="52.428034" lon="13.422923"><time>2024-05-27T10:23:04.000Z</time></trkpt><trkpt lat="52.428128" lon="13.423143"><time>2024-05-27T10:23:24.000Z</time></trkpt><trkpt lat="52.428182" lon="13.42366"><time>2024-05-27T10:23:52.000Z</time></trkpt><trkpt lat="52.428324" lon="13.424231"><time>2024-05-27T10:24:26.000Z</time></trkpt><trkpt lat="52.428355" lon="13.425368"><time>2024-05-27T10:25:28.000Z</time></trkpt><trkpt lat="52.428321" lon="13.425704"><time>2024-05-27T10:25:44.000Z</time></trkpt><trkpt lat="52.428406" lon="13.42594"><time>2024-05-27T10:26:12.000Z</time></trkpt><trkpt lat="52.428276" lon="13.426309"><time>2024-05-27T10:26:44.000Z</time></trkpt><trkpt lat="52.428253" lon="13.426894"><time>2024-05-27T10:27:14.000Z</time></trkpt><trkpt lat="52.428295" lon="13.427033"><time>2024-05-27T10:27:22.000Z</time></trkpt><trkpt lat="52.42846" lon="13.427303"><time>2024-05-27T10:27:36.000Z</time></trkpt><trkpt lat="52.428717" lon="13.427602"><time>2024-05-27T10:28:10.000Z</time></trkpt><trkpt lat="52.42894" lon="13.427466"><time>2024-05-27T10:28:36.000Z</time></trkpt><trkpt lat="52.428933" lon="13.427354"><time>2024-05-27T10:28:42.000Z</time></trkpt><trkpt lat="52.428829" lon="13.427132"><time>2024-05-27T10:28:54.000Z</time></trkpt><trkpt lat="52.428843" lon="13.427046"><time>2024-05-27T10:28:58.000Z</time></trkpt><trkpt lat="52.428964" lon="13.426988"><time>2024-05-27T10:29:06.000Z</time></trkpt><trkpt lat="52.429054" lon="13.427011"><time>2024-05-27T10:29:16.000Z</time></trkpt><trkpt lat="52.429057" lon="13.427135"><time>2024-05-27T10:29:26.000Z</time></trkpt><trkpt lat="52.429006" lon="13.427316"><time>2024-05-27T10:29:36.000Z</time></trkpt><trkpt lat="52.428929" lon="13.427463"><time>2024-05-27T10:29:48.000Z</time></trkpt><trkpt lat="52.428825" lon="13.427538"><time>2024-05-27T10:30:04.000Z</time></trkpt><trkpt lat="52.428804" lon="13.427616"><time>2024-05-27T10:30:08.000Z</time></trkpt><trkpt lat="52.428821" lon="13.427774"><time>2024-05-27T10:30:16.000Z</time></trkpt><trkpt lat="52.428974" lon="13.428007"><time>2024-05-27T10:30:36.000Z</time></trkpt><trkpt lat="52.429109" lon="13.428098"><time>2024-05-27T10:30:48.000Z</time></trkpt><trkpt lat="52.429356" lon="13.428383"><time>2024-05-27T10:31:38.000Z</time></trkpt><trkpt lat="52.429306" lon="13.428228"><time>2024-05-27T10:31:48.000Z</time></trkpt><trkpt lat="52.429116" lon="13.427931"><time>2024-05-27T10:32:08.000Z</time></trkpt><trkpt lat="52.428951" lon="13.427788"><time>2024-05-27T10:32:20.000Z</time></trkpt><trkpt lat="52.4283" lon="13.426942"><time>2024-05-27T10:33:38.000Z</time></trkpt><trkpt lat="52.428265" lon="13.426842"><time>2024-05-27T10:33:44.000Z</time></trkpt><trkpt lat="52.428303" lon="13.426545"><time>2024-05-27T10:34:02.000Z</time></trkpt><trkpt lat="52.428477" lon="13.426003"><time>2024-05-27T10:34:34.000Z</time></trkpt><trkpt lat="52.428399" lon="13.425669"><time>2024-05-27T10:34:50.000Z</time></trkpt><trkpt lat="52.428388" lon="13.425423"><time>2024-05-27T10:35:04.000Z</time></trkpt><trkpt lat="52.428312" lon="13.425184"><time>2024-05-27T10:35:18.000Z</time></trkpt><trkpt lat="52.428323" lon="13.424985"><time>2024-05-27T10:35:28.000Z</time></trkpt><trkpt lat="52.428272" lon="13.424655"><time>2024-05-27T10:35:46.000Z</time></trkpt><trkpt lat="52.428296" lon="13.424189"><time>2024-05-27T10:36:10.000Z</time></trkpt><trkpt lat="52.428268" lon="13.423832"><time>2024-05-27T10:36:28.000Z</time></trkpt><trkpt lat="52.428198" lon="13.423521"><time>2024-05-27T10:36:48.000Z</time></trkpt><trkpt lat="52.428067" lon="13.423159"><time>2024-05-27T10:37:08.000Z</time></trkpt><trkpt lat="52.42794" lon="13.422583"><time>2024-05-27T10:37:44.000Z</time></trkpt><trkpt lat="52.427932" lon="13.422394"><time>2024-05-27T10:37:56.000Z</time></trkpt><trkpt lat="52.427972" lon="13.422225"><time>2024-05-27T10:38:08.000Z</time></trkpt><trkpt lat="52.42813" lon="13.421853"><time>2024-05-27T10:38:32.000Z</time></trkpt><trkpt lat="52.428264" lon="13.42174"><time>2024-05-27T10:38:42.000Z</time></trkpt><trkpt lat="52.428377" lon="13.421548"><time>2024-05-27T10:38:56.000Z</time></trkpt><trkpt lat="52.428516" lon="13.421009"><time>2024-05-27T10:39:32.000Z</time></trkpt><trkpt lat="52.428582" lon="13.420879"><time>2024-05-27T10:39:44.000Z</time></trkpt><trkpt lat="52.428732" lon="13.420803"><time>2024-05-27T10:40:14.000Z</time></trkpt><trkpt lat="52.428746" lon="13.420844"><time>2024-05-27T10:40:22.000Z</time></trkpt><trkpt lat="52.428706" lon="13.420895"><time>2024-05-27T10:40:38.000Z</time></trkpt><trkpt lat="52.428736" lon="13.420949"><time>2024-05-27T10:40:46.000Z</time></trkpt><trkpt lat="52.429039" lon="13.421179"><time>2024-05-27T10:41:10.000Z</time></trkpt><trkpt lat="52.429244" lon="13.42091"><time>2024-05-27T10:41:34.000Z</time></trkpt><trkpt lat="52.429436" lon="13.420191"><time>2024-05-27T10:42:12.000Z</time></trkpt><trkpt lat="52.429664" lon="13.419722"><time>2024-05-27T10:42:46.000Z</time></trkpt><trkpt lat="52.429702" lon="13.419493"><time>2024-05-27T10:42:56.000Z</time></trkpt><trkpt lat="52.429659" lon="13.419284"><time>2024-05-27T10:43:06.000Z</time></trkpt><trkpt lat="52.429654" lon="13.41904"><time>2024-05-27T10:43:24.000Z</time></trkpt><trkpt lat="52.429723" lon="13.41896"><time>2024-05-27T10:43:28.000Z</time></trkpt><trkpt lat="52.429936" lon="13.41887"><time>2024-05-27T10:43:52.000Z</time></trkpt><trkpt lat="52.430056" lon="13.418547"><time>2024-05-27T10:44:14.000Z</time></trkpt><trkpt lat="52.430207" lon="13.418541"><time>2024-05-27T10:44:24.000Z</time></trkpt><trkpt lat="52.430322" lon="13.418411"><time>2024-05-27T10:44:42.000Z</time></trkpt><trkpt lat="52.430488" lon="13.41839"><time>2024-05-27T10:44:56.000Z</time></trkpt><trkpt lat="52.430549" lon="13.418322"><time>2024-05-27T10:45:04.000Z</time></trkpt><trkpt lat="52.430588" lon="13.418213"><time>2024-05-27T10:45:12.000Z</time></trkpt><trkpt lat="52.430605" lon="13.417979"><time>2024-05-27T10:45:24.000Z</time></trkpt><trkpt lat="52.430838" lon="13.417669"><time>2024-05-27T10:45:50.000Z</time></trkpt><trkpt lat="52.430974" lon="13.417107"><time>2024-05-27T10:46:26.000Z</time></trkpt><trkpt lat="52.431109" lon="13.416809"><time>2024-05-27T10:46:44.000Z</time></trkpt><trkpt lat="52.431455" lon="13.416609"><time>2024-05-27T10:47:12.000Z</time></trkpt><trkpt lat="52.431644" lon="13.41664"><time>2024-05-27T10:47:30.000Z</time></trkpt><trkpt lat="52.431701" lon="13.416495"><time>2024-05-27T10:47:46.000Z</time></trkpt><trkpt lat="52.43184" lon="13.416388"><time>2024-05-27T10:48:00.000Z</time></trkpt><trkpt lat="52.431947" lon="13.416202"><time>2024-05-27T10:48:14.000Z</time></trkpt><trkpt lat="52.432119" lon="13.416163"><time>2024-05-27T10:48:26.000Z</time></trkpt><trkpt lat="52.432191" lon="13.416102"><time>2024-05-27T10:48:40.000Z</time></trkpt><trkpt lat="52.432208" lon="13.415847"><time>2024-05-27T10:48:58.000Z</time></trkpt><trkpt lat="52.432144" lon="13.415607"><time>2024-05-27T10:49:12.000Z</time></trkpt><trkpt lat="52.432244" lon="13.415375"><time>2024-05-27T10:49:34.000Z</time></trkpt><trkpt lat="52.432256" lon="13.415273"><time>2024-05-27T10:49:44.000Z</time></trkpt><trkpt lat="52.432217" lon="13.415234"><time>2024-05-27T10:49:54.000Z</time></trkpt><trkpt lat="52.432029" lon="13.415256"><time>2024-05-27T10:50:14.000Z</time></trkpt><trkpt lat="52.432258" lon="13.415184"><time>2024-05-27T10:52:40.000Z</time></trkpt><trkpt lat="52.432332" lon="13.415118"><time>2024-05-27T10:52:46.000Z</time></trkpt><trkpt lat="52.432354" lon="13.414698"><time>2024-05-27T10:53:28.000Z</time></trkpt><trkpt lat="52.432337" lon="13.414442"><time>2024-05-27T10:53:46.000Z</time></trkpt><trkpt lat="52.432296" lon="13.414355"><time>2024-05-27T10:53:54.000Z</time></trkpt><trkpt lat="52.432176" lon="13.414294"><time>2024-05-27T10:54:20.000Z</time></trkpt><trkpt lat="52.43215" lon="13.41417"><time>2024-05-27T10:54:38.000Z</time></trkpt><trkpt lat="52.432159" lon="13.414285"><time>2024-05-27T10:54:52.000Z</time></trkpt><trkpt lat="52.432223" lon="13.414062"><time>2024-05-27T10:55:44.000Z</time></trkpt><trkpt lat="52.432295" lon="13.414118"><time>2024-05-27T10:56:28.000Z</time></trkpt><trkpt lat="52.432658" lon="13.413523"><time>2024-05-27T10:58:22.000Z</time></trkpt><trkpt lat="52.432693" lon="13.413326"><time>2024-05-27T10:58:36.000Z</time></trkpt><trkpt lat="52.432733" lon="13.41328"><time>2024-05-27T10:58:52.000Z</time></trkpt><trkpt lat="52.432943" lon="13.413245"><time>2024-05-27T10:59:10.000Z</time></trkpt><trkpt lat="52.43302" lon="13.413269"><time>2024-05-27T10:59:16.000Z</time></trkpt><trkpt lat="52.433057" lon="13.413365"><time>2024-05-27T10:59:52.000Z</time></trkpt><trkpt lat="52.433012" lon="13.413218"><time>2024-05-27T11:01:10.000Z</time></trkpt><trkpt lat="52.433058" lon="13.413257"><time>2024-05-27T11:03:06.000Z</time></trkpt><trkpt lat="52.43309" lon="13.412984"><time>2024-05-27T11:06:53.000Z</time></trkpt><trkpt lat="52.433335" lon="13.412537"><time>2024-05-27T11:07:27.000Z</time></trkpt><trkpt lat="52.433537" lon="13.412028"><time>2024-05-27T11:07:59.000Z</time></trkpt><trkpt lat="52.433619" lon="13.411683"><time>2024-05-27T11:08:15.000Z</time></trkpt><trkpt lat="52.433668" lon="13.411682"><time>2024-05-27T11:08:21.000Z</time></trkpt><trkpt lat="52.433894" lon="13.412029"><time>2024-05-27T11:08:45.000Z</time></trkpt><trkpt lat="52.434234" lon="13.41273"><time>2024-05-27T11:09:31.000Z</time></trkpt><trkpt lat="52.434395" lon="13.41353"><time>2024-05-27T11:10:13.000Z</time></trkpt><trkpt lat="52.434474" lon="13.41372"><time>2024-05-27T11:10:25.000Z</time></trkpt><trkpt lat="52.434711" lon="13.41414"><time>2024-05-27T11:10:53.000Z</time></trkpt><trkpt lat="52.43485" lon="13.414225"><time>2024-05-27T11:11:07.000Z</time></trkpt><trkpt lat="52.434831" lon="13.414426"><time>2024-05-27T11:11:21.000Z</time></trkpt><trkpt lat="52.434895" lon="13.414572"><time>2024-05-27T11:11:31.000Z</time></trkpt><trkpt lat="52.434948" lon="13.414959"><time>2024-05-27T11:11:51.000Z</time></trkpt><trkpt lat="52.435061" lon="13.414964"><time>2024-05-27T11:12:03.000Z</time></trkpt><trkpt lat="52.435393" lon="13.414736"><time>2024-05-27T11:13:09.000Z</time></trkpt><trkpt lat="52.435512" lon="13.414744"><time>2024-05-27T11:13:19.000Z</time></trkpt><trkpt lat="52.435641" lon="13.414831"><time>2024-05-27T11:13:33.000Z</time></trkpt><trkpt lat="52.435597" lon="13.414917"><time>2024-05-27T11:14:19.000Z</time></trkpt><trkpt lat="52.435703" lon="13.414963"><time>2024-05-27T11:14:29.000Z</time></trkpt><trkpt lat="52.435767" lon="13.415118"><time>2024-05-27T11:14:41.000Z</time></trkpt><trkpt lat="52.435885" lon="13.415239"><time>2024-05-27T11:14:51.000Z</time></trkpt><trkpt lat="52.435924" lon="13.415169"><time>2024-05-27T11:14:59.000Z</time></trkpt><trkpt lat="52.435954" lon="13.414971"><time>2024-05-27T11:15:09.000Z</time></trkpt><trkpt lat="52.43611" lon="13.414795"><time>2024-05-27T11:15:23.000Z</time></trkpt><trkpt lat="52.436323" lon="13.414733"><time>2024-05-27T11:15:39.000Z</time></trkpt><trkpt lat="52.43662" lon="13.414474"><time>2024-05-27T11:16:09.000Z</time></trkpt><trkpt lat="52.436825" lon="13.414364"><time>2024-05-27T11:16:25.000Z</time></trkpt><trkpt lat="52.437112" lon="13.414379"><time>2024-05-27T11:16:49.000Z</time></trkpt><trkpt lat="52.437185" lon="13.41422"><time>2024-05-27T11:16:59.000Z</time></trkpt><trkpt lat="52.437337" lon="13.414098"><time>2024-05-27T11:17:15.000Z</time></trkpt><trkpt lat="52.437368" lon="13.413869"><time>2024-05-27T11:17:29.000Z</time></trkpt><trkpt lat="52.437413" lon="13.413808"><time>2024-05-27T11:17:33.000Z</time></trkpt><trkpt lat="52.437562" lon="13.41387"><time>2024-05-27T11:17:47.000Z</time></trkpt><trkpt lat="52.437869" lon="13.413841"><time>2024-05-27T11:18:11.000Z</time></trkpt><trkpt lat="52.43809" lon="13.41353"><time>2024-05-27T11:18:37.000Z</time></trkpt><trkpt lat="52.438269" lon="13.413411"><time>2024-05-27T11:18:51.000Z</time></trkpt><trkpt lat="52.438477" lon="13.413364"><time>2024-05-27T11:19:09.000Z</time></trkpt><trkpt lat="52.438616" lon="13.413088"><time>2024-05-27T11:19:35.000Z</time></trkpt><trkpt lat="52.438713" lon="13.413067"><time>2024-05-27T11:19:41.000Z</time></trkpt><trkpt lat="52.438844" lon="13.413128"><time>2024-05-27T11:19:51.000Z</time></trkpt><trkpt lat="52.438922" lon="13.413115"><time>2024-05-27T11:19:57.000Z</time></trkpt><trkpt lat="52.439142" lon="13.412999"><time>2024-05-27T11:20:17.000Z</time></trkpt><trkpt lat="52.439246" lon="13.41288"><time>2024-05-27T11:20:27.000Z</time></trkpt><trkpt lat="52.439342" lon="13.412653"><time>2024-05-27T11:20:55.000Z</time></trkpt><trkpt lat="52.439229" lon="13.41225"><time>2024-05-27T11:21:19.000Z</time></trkpt><trkpt lat="52.439172" lon="13.411378"><time>2024-05-27T11:22:01.000Z</time></trkpt><trkpt lat="52.439099" lon="13.410902"><time>2024-05-27T11:22:19.000Z</time></trkpt><trkpt lat="52.439132" lon="13.410662"><time>2024-05-27T11:22:33.000Z</time></trkpt><trkpt lat="52.43913" lon="13.410349"><time>2024-05-27T11:22:47.000Z</time></trkpt><trkpt lat="52.439177" lon="13.410073"><time>2024-05-27T11:22:57.000Z</time></trkpt><trkpt lat="52.439142" lon="13.409883"><time>2024-05-27T11:23:05.000Z</time></trkpt><trkpt lat="52.4392" lon="13.409527"><time>2024-05-27T11:23:29.000Z</time></trkpt></trkseg></trk></gpx>